          <?xml version="1.0" encoding="UTF-8"?> 
<TrainingCenterDatabase xmlns="http://www.garmin.com/xmlschemas/TrainingCenterDatabase/v2">
<Activities>
<Activity Sport="Run"> 
<Id>2020-07-02T16:46:31.000Z</Id> 
<Lap StartTime="2020-07-02T16:46:31.000Z">  
<TotalTimeSeconds>600.0</TotalTimeSeconds>  
<Track> 
<Trackpoint> 
<Time>2020-07-02T16:46:31.000Z</Time> 
<Position> 
<LatitudeDegrees>48.1374</LatitudeDegrees> 
<LongitudeDegrees>11.5755</LongitudeDegrees> 
</Position> 
<AltitudeMeters>520.0</AltitudeMeters> 
</Trackpoint> 
<Trackpoint> 
<Time>2020-07-02T16:46:32.000Z</Time> 
<Position> 
<LatitudeDegrees>48.1378</LatitudeDegrees> 
<LongitudeDegrees>11.5761</LongitudeDegrees> 
</Position> 
<AltitudeMeters>523.5</AltitudeMeters> 
</Trackpoint> 
<Trackpoint> 
<Time>2020-07-02T16:46:33.000Z</Time> 
<Position> 
<LatitudeDegrees>48.1382</LatitudeDegrees> 
<LongitudeDegrees>11.5767</LongitudeDegrees> 
</Position> 
<AltitudeMeters>527.0</AltitudeMeters> 
</Trackpoint> 
<Trackpoint> 
<Time>2020-07-02T16:46:34.000Z</Time> 
<Position> 
<LatitudeDegrees>48.1386</LatitudeDegrees> 
<LongitudeDegrees>11.5773</LongitudeDegrees> 
</Position> 
<AltitudeMeters>530.5</AltitudeMeters> 
</Trackpoint> 
<Trackpoint> 
<Time>2020-07-02T16:46:35.000Z</Time> 
<Position> 
<LatitudeDegrees>48.139</LatitudeDegrees> 
<LongitudeDegrees>11.5779</LongitudeDegrees> 
</Position> 
<AltitudeMeters>534.0</AltitudeMeters> 
</Trackpoint> 
<Trackpoint> 
<Time>2020-07-02T16:47:00.000Z</Time> 
</Trackpoint> 
</Track> 
</Lap> 
</Activity> 
</Activities> 
</TrainingCenterDatabase>