<?xml version="1.0" encoding="UTF-8"?>
<gpx version="1.1" creator="komoot.de" xmlns="http://www.topografix.com/GPX/1/1">
  <metadata>
    <name>Alpencross 2026</name>
  </metadata>
  <wpt lat="46.9012" lon="10.8701">
    <ele>2180</ele>
    <name>Sesvennahütte</name>
  </wpt>
  <wpt lat="46.8455" lon="10.7712">
    <name>Schlinig</name>
  </wpt>
  <trk>
    <name>Day 3 — Reschen to Schlinig</name>
    <type>touringbicycle</type>
    <trkseg>
      <trkpt lat="46.8300" lon="10.5100"><ele>1500</ele><time>2026-07-03T07:00:00Z</time></trkpt>
      <trkpt lat="46.8402" lon="10.5602"><ele>1560</ele><time>2026-07-03T07:12:00Z</time></trkpt>
      <trkpt lat="46.8455" lon="10.7712"><ele>1720</ele><time>2026-07-03T08:40:00Z</time></trkpt>
    </trkseg>
    <trkseg>
      <trkpt lat="46.8700" lon="10.8100"><ele>1890</ele><time>2026-07-03T09:10:00Z</time></trkpt>
      <trkpt lat="46.9012" lon="10.8701"><ele>2180</ele><time>2026-07-03T10:05:00Z</time></trkpt>
    </trkseg>
  </trk>
  <trk>
    <name>Day 4 — Schlinig to Taufers</name>
    <type>touringbicycle</type>
    <trkseg>
      <trkpt lat="46.9100" lon="10.8900"><ele>2200</ele><time>2026-07-04T07:00:00Z</time></trkpt>
      <trkpt lat="46.9400" lon="10.9400"><ele>1650</ele><time>2026-07-04T08:20:00Z</time></trkpt>
    </trkseg>
  </trk>
</gpx>
