{
  "type": "FeatureCollection",
  "features": [
    {
      "type": "Feature",
      "properties": {
        "creator": "BRouter-1.7.10",
        "name": "brouter_hiking-mountain_0",
        "track-length": "21513",
        "filtered ascend": "2644",
        "plain-ascend": "1961",
        "total-time": "26595",
        "total-energy": "2414886",
        "cost": "35987",
        "messages": [
          ["Longitude", "Latitude", "Elevation", "Distance", "CostPerKm", "ElevCost", "TurnCost", "NodeCost", "InitialCost", "WayTags", "NodeTags", "Time", "Energy"],
          ["11052267", "47462877", "970", "25", "1560", "0", "0", "0", "0", "highway=track surface=gravel tracktype=grade2", "", "17", "0"],
          ["11052158", "47462851", "970", "9", "1260", "0", "0", "0", "0", "reversedirection=yes highway=track", "", "23", "0"],
          ["11053275", "47459138", "1127", "633", "1600", "0", "0", "0", "0", "highway=path mtb:scale=3 sac_scale=mountain_hiking route_hiking_lwn=yes", "", "953", "113880"],
          ["11056413", "47456962", "1163", "380", "1500", "0", "0", "0", "0", "reversedirection=yes highway=track surface=gravel tracktype=grade2 route_hiking_lwn=yes", "nodeaccessgranted=yes barrier=gate bicycle=yes foot=yes", "1422", "167012"],
          ["11056462", "47456803", "1162", "25", "1500", "0", "0", "0", "0", "reversedirection=yes highway=track surface=gravel tracktype=grade2 route_hiking_lwn=yes", "", "1444", "168471"],
          ["11057521", "47452101", "1297", "617", "1600", "0", "0", "0", "0", "highway=path mtb:scale=3 sac_scale=mountain_hiking route_hiking_lwn=yes", "", "2282", "266954"],
          ["11060033", "47451593", "1409", "382", "1600", "0", "0", "0", "0", "highway=path mtb:scale=4 sac_scale=mountain_hiking route_hiking_lwn=yes", "", "3120", "377933"],
          ["11063951", "47448844", "1606", "818", "1600", "0", "0", "0", "0", "highway=path mtb:scale=3 sac_scale=mountain_hiking route_hiking_lwn=yes", "", "4516", "563904"],
          ["11065120", "47449148", "1616", "95", "1050", "0", "0", "0", "0", "reversedirection=yes highway=track surface=compacted tracktype=grade2 foot=yes bicycle=yes sac_scale=hiking route_hiking_lwn=yes", "", "4641", "579240"],
          ["11063505", "47447283", "1633", "256", "1260", "0", "0", "0", "0", "reversedirection=yes highway=track surface=compacted tracktype=grade2 foot=yes bicycle=yes sac_scale=hiking", "", "4903", "604058"],
          ["11071840", "47439083", "1529", "1374", "1600", "0", "0", "0", "0", "highway=path sac_scale=mountain_hiking route_hiking_lwn=yes", "nodeaccessgranted=yes barrier=gate foot=yes", "5876", "607253"],
          ["11075760", "47438204", "1512", "341", "1600", "0", "0", "0", "0", "highway=path sac_scale=mountain_hiking route_hiking_lwn=yes", "nodeaccessgranted=yes barrier=gate foot=yes", "6099", "607253"],
          ["11094146", "47418121", "1052", "4176", "1600", "0", "0", "0", "0", "highway=path sac_scale=mountain_hiking route_hiking_lwn=yes", "", "10028", "655865"],
          ["11093846", "47418037", "1051", "26", "1260", "0", "0", "0", "0", "reversedirection=yes highway=path surface=rock", "", "10044", "655865"],
          ["11054645", "47408775", "1231", "3406", "1600", "0", "0", "0", "0", "reversedirection=yes highway=path surface=ground bicycle=yes mtb:scale=1 sac_scale=mountain_hiking route_hiking_iwn=yes route_hiking_nwn=yes route_hiking_rwn=yes", "nodeaccessgranted=yes ford=yes", "12991", "840554"],
          ["11050645", "47408623", "1261", "330", "1600", "0", "0", "0", "0", "reversedirection=yes highway=path surface=ground bicycle=yes mtb:scale=1 sac_scale=mountain_hiking route_hiking_iwn=yes route_hiking_nwn=yes route_hiking_rwn=yes", "nodeaccessgranted=yes ford=yes", "13284", "860684"],
          ["11048468", "47408480", "1261", "189", "1600", "0", "0", "0", "0", "reversedirection=yes highway=path surface=ground bicycle=yes mtb:scale=1 sac_scale=mountain_hiking route_hiking_iwn=yes route_hiking_nwn=yes route_hiking_rwn=yes", "nodeaccessgranted=yes ford=yes", "13430", "866131"],
          ["11043448", "47407876", "1320", "406", "1600", "0", "0", "0", "0", "reversedirection=yes highway=path surface=ground bicycle=yes mtb:scale=1 sac_scale=mountain_hiking route_hiking_iwn=yes route_hiking_nwn=yes route_hiking_rwn=yes", "", "13887", "915205"],
          ["11043382", "47407843", "1321", "6", "1600", "0", "0", "0", "0", "highway=path surface=wood sac_scale=mountain_hiking route_hiking_iwn=yes route_hiking_nwn=yes route_hiking_rwn=yes", "", "13894", "915894"],
          ["11039339", "47406554", "1344", "451", "1600", "0", "0", "0", "0", "reversedirection=yes highway=path surface=ground mtb:scale=1 sac_scale=mountain_hiking route_hiking_iwn=yes route_hiking_nwn=yes route_hiking_rwn=yes", "nodeaccessgranted=yes ford=yes", "14314", "948941"],
          ["11038025", "47406087", "1356", "122", "1600", "0", "0", "0", "0", "reversedirection=yes highway=path surface=ground mtb:scale=1 sac_scale=mountain_hiking route_hiking_iwn=yes route_hiking_nwn=yes route_hiking_rwn=yes", "", "14421", "956289"],
          ["11036004", "47405134", "1366", "216", "1000", "0", "0", "0", "0", "reversedirection=yes highway=path surface=ground mtb:scale=1 sac_scale=hiking route_hiking_iwn=yes route_hiking_nwn=yes route_hiking_rwn=yes", "", "14614", "970264"],
          ["11035438", "47405217", "1368", "44", "1000", "0", "0", "0", "0", "reversedirection=yes highway=path surface=ground mtb:scale=2 sac_scale=hiking route_hiking_iwn=yes route_hiking_nwn=yes route_hiking_rwn=yes", "", "14650", "972139"],
          ["11034065", "47405190", "1370", "108", "1000", "0", "0", "0", "0", "reversedirection=yes highway=path surface=ground bicycle=no mtb:scale=2 sac_scale=hiking route_hiking_iwn=yes route_hiking_nwn=yes route_hiking_rwn=yes", "", "14735", "975775"],
          ["11034063", "47405112", "1370", "9", "1600", "0", "0", "0", "0", "highway=footway surface=wood bicycle=no sac_scale=mountain_hiking route_hiking_iwn=yes route_hiking_nwn=yes route_hiking_rwn=yes", "", "14742", "976069"],
          ["11033560", "47404856", "1372", "50", "1000", "0", "0", "0", "0", "highway=path surface=ground bicycle=no sac_scale=hiking route_hiking_iwn=yes route_hiking_nwn=yes route_hiking_rwn=yes", "", "14781", "977533"],
          ["11032159", "47403178", "1393", "219", "1000", "0", "0", "0", "0", "reversedirection=yes highway=path surface=ground mtb:scale=3 sac_scale=hiking route_hiking_iwn=yes route_hiking_nwn=yes route_hiking_rwn=yes", "nodeaccessgranted=yes ford=yes", "14980", "992921"],
          ["11029769", "47402784", "1420", "207", "1000", "0", "0", "0", "0", "reversedirection=yes highway=path surface=ground mtb:scale=3 sac_scale=hiking route_hiking_iwn=yes route_hiking_nwn=yes route_hiking_rwn=yes", "nodeaccessgranted=yes ford=yes", "15205", "1016655"],
          ["11025570", "47403018", "1445", "388", "1000", "0", "0", "0", "0", "reversedirection=yes highway=path surface=ground mtb:scale=3 sac_scale=hiking route_hiking_iwn=yes route_hiking_nwn=yes route_hiking_rwn=yes", "", "15578", "1048051"],
          ["11025107", "47402913", "1449", "37", "1600", "0", "0", "0", "0", "highway=path surface=ground sac_scale=mountain_hiking route_hiking_iwn=yes route_hiking_nwn=yes route_hiking_rwn=yes", "nodeaccessgranted=yes ford=yes", "15612", "1050680"],
          ["11017489", "47404827", "1741", "1121", "1600", "0", "0", "0", "0", "highway=path surface=ground sac_scale=mountain_hiking route_hiking_iwn=yes route_hiking_nwn=yes route_hiking_rwn=yes", "", "17525", "1298248"],
          ["11012950", "47410069", "2050", "1132", "1600", "0", "0", "0", "0", "highway=path surface=rock sac_scale=mountain_hiking route_hiking_iwn=yes route_hiking_nwn=yes route_hiking_rwn=yes", "", "19719", "1583758"],
          ["11012735", "47410229", "2056", "25", "1600", "0", "0", "0", "0", "highway=path surface=rock sac_scale=mountain_hiking route_hiking_iwn=yes route_hiking_lwn=yes", "", "19766", "1590128"],
          ["11012178", "47410908", "2096", "87", "1600", "0", "0", "0", "0", "highway=path surface=rock sac_scale=mountain_hiking route_hiking_lwn=yes", "", "19999", "1619824"],
          ["10981708", "47415511", "2564", "2775", "2000", "0", "0", "0", "0", "highway=path surface=pebblestone sac_scale=mountain_hiking route_hiking_iwn=yes route_hiking_nwn=yes route_hiking_rwn=yes", "", "23834", "2078014"],
          ["10980214", "47417471", "2715", "293", "2960", "0", "0", "0", "0", "highway=path surface=gravel bicycle=no sac_scale=demanding_mountain_hiking route_hiking_iwn=yes route_hiking_nwn=yes route_hiking_rwn=yes", "", "24717", "2181424"],
          ["10981890", "47419170", "2816", "303", "2560", "0", "0", "0", "0", "highway=path bicycle=no sac_scale=demanding_mountain_hiking route_hiking_iwn=yes route_hiking_nwn=yes route_hiking_rwn=yes", "", "25681", "2294455"],
          ["10984537", "47420763", "2936", "346", "3512", "0", "0", "0", "0", "highway=path surface=gravel bicycle=no sac_scale=demanding_mountain_hiking", "", "26426", "2392983"],
          ["10984669", "47420846", "2944", "15", "3600", "0", "0", "0", "0", "highway=steps surface=stone", "", "26465", "2397972"],
          ["10984688", "47420888", "2944", "14", "3600", "0", "0", "0", "0", "highway=steps surface=unknown", "", "26499", "2402380"],
          ["10985283", "47421147", "2935", "57", "1460", "0", "0", "0", "0", "highway=path surface=paved", "", "26595", "2414886"]
        ],
        "times": [0,17.19,23.262,35.482,41.785,51.309,61.666,77.316,84.7,111.304,130.197,149.134,181.133,202.409,216.101,250.204,260.956,277.338,296.139,311.643,332.125,341.797,397.158,431.204,478.603,493.434,508.101,534.859,541.717,554.78,574.77,584.379,612.222,633.836,699.512,729.338,759.811,786.697,812.998,857.973,883.123,909.82,933.917,953.49,969.839,991.237,1034.664,1094.04,1157.03,1181.124,1204.456,1252.855,1275.1,1305.172,1322.228,1340.906,1389.268,1410.782,1422.768,1434.387,1444.496,1456.772,1485.456,1493.615,1505.339,1525.699,1548.959,1582.57,1598.03,1617.64,1642.749,1667.832,1679.627,1700.743,1715.448,1723.31,1763.74,1793.515,1806.679,1831.025,1878.501,1903.501,1923.272,1944.193,1959.154,1977.252,1981.765,1993.428,2001.624,2022.807,2029.95,2046.138,2080.321,2087.167,2101.807,2135.28,2151.925,2167.199,2190.624,2214.306,2257.104,2282.462,2310.722,2335.852,2355.671,2387.809,2431.344,2450.562,2498.805,2517.925,2560.521,2607.988,2636.407,2668.164,2711.56,2743.317,2807.931,2862.73,2917.166,2949.823,2957.797,2968.263,2975.783,2994.457,3021.854,3029.342,3070.639,3120.706,3175.118,3194.392,3225.817,3250.01,3292.673,3330.628,3406.589,3428.296,3460.837,3524.768,3564.553,3612.93,3634.474,3659.636,3742.986,3776.304,3794.484,3813.903,3831.018,3848.899,3867.72,3886.776,3896.77,3916.268,3928.489,3953.729,3986.803,3997.297,4027.036,4044.006,4077.393,4107.661,4126.152,4137.378,4174.628,4190.557,4260.523,4285.46,4320.048,4361.436,4415.979,4492.95,4516.618,4543.279,4571.501,4595.498,4613.962,4641.12,4673.139,4730.621,4749.988,4765.392,4775.15,4791.223,4801.523,4815.25,4828.221,4837.039,4867.051,4891.853,4898.354,4903.312,4908.448,4911.534,4918.618,4925.3,4932.916,4941.585,4944.912,4949.164,4963.614,4969.816,4978.285,4982.809,5000.443,5040.373,5062.223,5094.327,5120.579,5145.834,5150.166,5155.694,5161.179,5174.644,5181.142,5187.538,5201.915,5229.013,5248.271,5263.659,5278.777,5292.826,5307.36,5333.943,5378.112,5396.842,5428.997,5450.391,5460.817,5479.049,5508.526,5523.093,5543.048,5554.932,5565.57,5572.402,5584.816,5601.539,5618.477,5636.184,5646.227,5655.009,5660.231,5673.511,5683.06,5689.251,5701.174,5706.973,5719.057,5724.789,5738.662,5747.141,5755.983,5766.398,5790.484,5814.141,5827.26,5836.783,5848.605,5860.059,5868.988,5876.677,5911.929,5934.722,5965.668,6014.547,6027.83,6068.669,6080.78,6088.087,6099.939,6184.908,6197.4,6224.117,6248.818,6260.49,6273.356,6318.679,6386.021,6394.978,6402.876,6412.691,6418.13,6429.013,6439.024,6445.739,6451.741,6466.792,6480.968,6484.906,6496.299,6505.416,6514.951,6525.659,6540.54,6551.5,6584.298,6587.534,6597.443,6617.174,6641.229,6671.455,6701.615,6730.293,6763.967,6807.226,6829.276,6849.364,6869.79,6895.78,6939.445,6955.529,7000.176,7021.386,7065.818,7078.962,7118.213,7139.925,7173.979,7236.803,7259.249,7280.407,7305.055,7336.856,7390.25,7405.673,7452.352,7470.901,7486.842,7500.459,7515.486,7528.239,7566.134,7577.149,7592.764,7604.324,7638.267,7658.193,7681.674,7689.905,7710.062,7726.192,7737.967,7755.664,7768.945,7790.265,7809.515,7827.269,7872.381,7962.517,7993.368,8013.809,8029.921,8046.929,8054.433,8071.301,8089.849,8157.709,8275.898,8307.096,8367.23,8393.263,8440.637,8457.341,8476.299,8495.085,8567.825,8596.681,8634.058,8648.137,8741.609,8809.722,8866.09,8909.892,8951.952,9029.271,9050.568,9074.339,9091.704,9112.511,9142.843,9162.693,9187.131,9269.419,9288.56,9295.355,9312.958,9319.262,9325.773,9363.234,9382.971,9392.345,9411.113,9418.313,9428.043,9482.771,9489.349,9498.43,9577.651,9591.264,9620.232,9721.071,9762.345,9798.249,9856.043,9916.064,9947.233,9967.241,10022.807,10028.953,10037.961,10044.644,10094.657,10100.034,10107.782,10118.803,10129.273,10145.676,10149.992,10155.745,10169.729,10179.735,10202.43,10207.017,10214.192,10221.188,10245.793,10258.199,10273.762,10277.297,10284.986,10300.953,10332.189,10344.16,10354.914,10370.243,10392.425,10402.751,10420.626,10431.449,10443.561,10455.861,10469.633,10520.484,10536.034,10548.502,10592.908,10610.661,10617.008,10628.452,10642.874,10658.053,10684.699,10713.859,10770.129,10778.373,10810.624,10821.992,10849.07,10897.741,10915.986,10939.225,10946.293,10961.797,10990.717,11007.439,11018.667,11029.285,11040.259,11071.178,11086.922,11103.032,11120.499,11130.841,11142.538,11155.203,11195.589,11204.016,11230.828,11259.535,11269.562,11287.365,11319.983,11334.567,11337.966,11351.667,11356.018,11363.496,11366.309,11377.306,11379.832,11394.463,11401.576,11410.551,11426.961,11442.081,11466.575,11471.139,11499.491,11507.287,11534.609,11549.245,11562.63,11578.062,11588.266,11598.751,11608.33,11618.095,11621.746,11637.267,11690.331,11698.292,11720.592,11745.481,11763.934,11769.172,11775.489,11800.401,11812.702,11820.896,11835.523,11843.762,11851.977,11869.967,11878.396,11889.108,11917.316,11926.24,11935.234,11957.827,11970.596,11980.032,11991.916,12009.142,12020.292,12034.96,12042.708,12050.27,12056.737,12063.941,12080.171,12093.56,12104.474,12108.578,12115.48,12122.791,12130.748,12139.933,12172.207,12177.893,12191.192,12197.457,12209.915,12238.019,12265.232,12294.062,12301.692,12314.029,12321.781,12341.908,12350.883,12361.023,12401.952,12420.549,12450.729,12469.227,12481.383,12522.139,12552.712,12569.047,12581.104,12592.054,12619.7,12630.001,12678.545,12689.703,12713.976,12724.689,12759.604,12774.854,12821.303,12869.54,12876.36,12886.732,12916.203,12955.439,12973.444,12978.046,12980.664,12982.634,12984.626,12987.405,12989.528,12991.67,12993.098,12995.222,13005.14,13012.172,13023.226,13034.576,13040.503,13048.874,13063.05,13066.699,13076.116,13080.146,13085.287,13093.427,13109.363,13115.157,13122.986,13145.79,13152.998,13167.615,13174.478,13180.297,13198.081,13207.372,13226.009,13253.861,13260.616,13269.956,13282.551,13284.43,13287.97,13296.2,13305.505,13317.345,13321.287,13349.522,13365.27,13373.821,13377.75,13383.494,13391.295,13401.677,13411.756,13417.233,13421.67,13428.144,13430.618,13433.104,13438.717,13453.189,13463.636,13471.274,13488,13500.835,13509.294,13537.946,13549.105,13558.217,13564.952,13579.078,13586.897,13592.724,13601.764,13611.76,13619.727,13632.512,13649.96,13658.934,13663.304,13667.79,13676.201,13691.143,13712.405,13726.607,13738.649,13760.22,13772.562,13819.478,13840.651,13883.688,13887.975,13894.498,13898.615,13907.855,13913.291,13929.259,13941.811,13962.193,13971.657,13979.74,13985.815,13995.641,14005.718,14015.995,14021.621,14027.701,14058.118,14076.228,14097.727,14103.85,14114.039,14134.463,14156.014,14168.238,14179.037,14186.396,14220.808,14232.139,14239.325,14249.671,14262.634,14271.333,14287.439,14296.177,14301.714,14307.489,14314.372,14320.56,14346.33,14351.563,14359.367,14366.195,14376.267,14385.723,14394.304,14402.494,14421.27,14437.388,14449.129,14455.47,14485.861,14506.311,14531.169,14537.514,14554.698,14565.294,14570.976,14582.106,14587.612,14594.759,14614.412,14623.445,14638.188,14650.32,14658.225,14680.146,14695.212,14711.553,14730.641,14735.381,14742.44,14744.001,14748.708,14764.736,14773.189,14781.143,14802.43,14844.341,14852.844,14864.806,14897.121,14906.925,14930.314,14938.012,14961.376,14974.909,14980.838,14998.836,15016.111,15024.779,15026.921,15032.201,15035.349,15040.695,15047.082,15052.52,15058.031,15077.454,15085.296,15099.719,15110.652,15118.107,15125.551,15130.88,15149.574,15165.823,15175.684,15183.359,15205.864,15245.627,15251.521,15261.297,15274.755,15282.022,15289.19,15312.171,15319.598,15338.734,15354.241,15366.277,15387.713,15398.019,15443.914,15452.938,15460.285,15468.487,15477.535,15485.782,15490.76,15495.736,15510.777,15514.094,15525.009,15537.748,15540.279,15546.139,15552.76,15578.682,15612.492,15634.358,15644.485,15652.849,15659.442,15676,15684.51,15693.353,15698.752,15715.591,15723.609,15729.795,15744.103,15753.046,15767.359,15787.843,15804.083,15812.307,15816.372,15820.466,15826.038,15834.697,15837.529,15843.374,15847.801,15855.158,15858.13,15864.149,15868.744,15876.567,15878.123,15884.227,15887.289,15893.382,15904.432,15913.913,15918.61,15926.203,15930.741,15949.734,15954.413,15965.754,15968.962,15973.886,15978.902,15985.625,15990.648,15998.678,16010.25,16013.52,16016.821,16023.375,16042.602,16059.977,16082.211,16090.854,16097.795,16108.559,16150.783,16190.167,16207.736,16247.128,16270.527,16280.809,16299.421,16322.31,16336.686,16353.373,16374.131,16384.279,16400.996,16422.65,16448.361,16498.574,16560.672,16595.525,16617.303,16626.002,16637.566,16644.16,16666.447,16692.258,16707.633,16742.445,16764.211,16796.344,16852.492,16927.879,16943.393,16988.105,17022.141,17054.178,17088.125,17106.936,17118.732,17126.959,17135.057,17148.51,17163.117,17179.479,17190.959,17213.678,17235.992,17254.195,17270.965,17290.613,17298.273,17310.711,17338.629,17352.627,17360.734,17373,17384.938,17399.027,17407.115,17420.848,17436.854,17464.072,17493.963,17525.688,17550.518,17556.465,17570.834,17604.705,17638.738,17667.133,17720.633,17758.943,17777.406,17792.346,17798.863,17805.412,17814.414,17825.295,17835.041,17870.387,17894.008,17903.076,17917.84,17929.199,17935.367,17939.512,17945.775,17948.936,17954.35,17958.713,17963.117,17968.754,17975.879,17983.475,17995.869,18008.02,18015.84,18026.148,18047.094,18061.029,18076.637,18109.648,18119.734,18130.289,18145.973,18153.902,18155.479,18170.076,18176.73,18226.084,18265.793,18289.414,18314.109,18344.326,18367.928,18376.859,18441.307,18467.047,18495.031,18649.229,18715.463,18745.689,18778.18,18784.893,18797.881,18810.695,18819.221,18858.5,18862.629,18873.561,18880.402,18896.822,18931.123,19004.998,19017.688,19023.16,19026.883,19075.5,19093.92,19097.592,19104.855,19139.43,19148.047,19154.793,19159.922,19187.277,19189.125,19205.273,19219.396,19228.4,19274.99,19289.871,19298.461,19331.424,19347.105,19350.902,19356.91,19365.191,19367.244,19377.275,19391.07,19424.029,19435.568,19448.654,19455.941,19474.844,19478.477,19504.182,19516.906,19531.203,19540.311,19551.531,19566.154,19599.807,19658.543,19719.377,19742.844,19766.768,19934.6,19999.127,20024.084,20039.141,20068.994,20150.205,20192.076,20206.617,20221.236,20233.555,20259.52,20307.811,20432.594,20457.977,20484.949,20501.076,20521.744,20537.32,20551.643,20583.354,20596.064,20614.477,20630.506,20645.33,20655.719,20685.199,20697.961,20713.82,20732.279,20759.088,20798.215,20821.203,20840.434,20857.668,20893.895,20917.768,20929.084,20936.66,20945.104,20956.225,20964.904,20979.172,21000.453,21011.404,21020.414,21029.117,21045.482,21068.641,21076.773,21095.586,21128.943,21146.172,21173.727,21191.639,21197.129,21203.678,21220.135,21230.672,21242.541,21261.018,21279.521,21294.982,21308.15,21328.52,21357.797,21387.266,21421.326,21442.451,21477.137,21513.354,21520.416,21535.783,21546.576,21560.219,21575.875,21592.053,21621.85,21638.766,21657.398,21665.582,21678.207,21691.721,21704.729,21721.221,21733.922,21753.18,21806.244,21837.822,21862.045,21881.768,21915.988,21948.73,21962.934,21975.004,21983.738,22013.746,22060.512,22081.029,22092.758,22104.605,22149.373,22203.074,22227.191,22251.525,22270.582,22292.123,22308.012,22329.938,22362.168,22457.008,22475.234,22497.539,22524.207,22533.436,22543.609,22554.656,22565.516,22577.709,22585.738,22602.727,22619.037,22636.219,22708.049,22721.963,22736.439,22746.088,22758.65,22775.684,22782.875,22793.518,22804.852,22815.242,22822.951,22846.877,22860.674,22877.705,22904.371,22930.566,22957.383,22973.17,22991.164,23030.656,23049.17,23072.48,23092.416,23109.742,23123.518,23134.281,23159.078,23187.35,23227.785,23248.338,23287.689,23304.324,23318.035,23342.943,23356.748,23361.609,23382.234,23409.42,23423.781,23434.766,23446.732,23485.678,23521.309,23549.006,23568.746,23585.219,23632.379,23666.336,23705.533,23828.371,23834.531,23871.215,23913.348,23942.309,23993.342,24024.766,24164.094,24260.611,24304.355,24353.854,24390.943,24556.992,24603.852,24717.869,24784.754,24854.797,25017.104,25102.018,25127.242,25210.402,25347.084,25398.594,25431.75,25585.842,25635.363,25664.951,25681.09,25706.152,25738.051,25786.396,25830.336,25857.303,25895.768,25920.502,25943.006,25967.207,25986.01,26006.711,26026.068,26043.971,26112.197,26205.777,26232.982,26257.451,26266.678,26294.209,26330.115,26358.475,26367.471,26388.648,26400.367,26417.312,26426.943,26439.162,26449.514,26465.664,26476.197,26478.725,26488.033,26490.293,26499.389,26506.115,26510.4,26518.697,26528.51,26535.891,26580.014,26595.158]
      },
      "geometry": {
        "type": "LineString",
        "coordinates": [
          [11.052582, 47.462939, 975.0],
          [11.052267, 47.462877, 970.75],
          [11.052158, 47.462851, 970.0],
          [11.052377, 47.462834, 974.75],
          [11.052372, 47.462759, 977.5],
          [11.052304, 47.462661, 981.0],
          [11.052383, 47.462580, 986.5],
          [11.052253, 47.462471, 988.75],
          [11.052314, 47.462425, 992.0],
          [11.052608, 47.462391, 998.0],
          [11.052575, 47.462259, 1002.0],
          [11.052462, 47.462150, 1004.5],
          [11.052189, 47.462015, 1008.25],
          [11.052208, 47.461860, 1011.0],
          [11.052246, 47.461754, 1010.5],
          [11.052430, 47.461505, 1012.25],
          [11.052476, 47.461423, 1014.0],
          [11.052636, 47.461362, 1018.0],
          [11.052844, 47.461407, 1020.25],
          [11.052937, 47.461525, 1018.5],
          [11.053178, 47.461548, 1023.25],
          [11.053206, 47.461480, 1026.75],
          [11.052996, 47.461162, 1036.0],
          [11.052934, 47.460952, 1042.0],
          [11.052805, 47.460682, 1049.0],
          [11.052825, 47.460594, 1053.25],
          [11.052763, 47.460516, 1055.0],
          [11.052599, 47.460386, 1056.75],
          [11.052581, 47.460339, 1058.25],
          [11.052698, 47.460313, 1061.25],
          [11.052864, 47.460301, 1065.25],
          [11.052933, 47.460266, 1068.5],
          [11.052942, 47.460133, 1075.5],
          [11.052857, 47.460043, 1078.25],
          [11.052679, 47.459791, 1089.5],
          [11.052877, 47.459768, 1094.5],
          [11.053036, 47.459696, 1101.5],
          [11.053069, 47.459590, 1106.5],
          [11.053032, 47.459482, 1109.75],
          [11.053295, 47.459510, 1115.75],
          [11.053350, 47.459421, 1121.25],
          [11.053304, 47.459319, 1124.25],
          [11.053216, 47.459215, 1122.75],
          [11.053275, 47.459138, 1127.5],
          [11.053309, 47.459062, 1128.0],
          [11.053396, 47.458973, 1130.25],
          [11.053599, 47.458831, 1138.0],
          [11.053828, 47.458550, 1140.5],
          [11.054129, 47.458200, 1144.5],
          [11.054249, 47.458037, 1145.75],
          [11.054267, 47.457847, 1146.25],
          [11.054457, 47.457449, 1148.0],
          [11.054626, 47.457277, 1149.5],
          [11.054933, 47.457109, 1153.0],
          [11.055139, 47.457059, 1155.25],
          [11.055373, 47.457032, 1158.0],
          [11.055961, 47.456992, 1162.75],
          [11.056248, 47.457002, 1163.5],
          [11.056413, 47.456962, 1163.25],
          [11.056549, 47.456894, 1163.25],
          [11.056462, 47.456803, 1162.25],
          [11.056524, 47.456673, 1162.0],
          [11.056562, 47.456368, 1164.0],
          [11.056631, 47.456294, 1164.0],
          [11.056788, 47.456234, 1165.25],
          [11.056827, 47.456013, 1165.25],
          [11.056951, 47.455798, 1169.25],
          [11.057133, 47.455563, 1178.5],
          [11.057304, 47.455536, 1183.0],
          [11.057325, 47.455383, 1184.25],
          [11.057252, 47.455180, 1185.25],
          [11.057113, 47.454991, 1188.0],
          [11.056987, 47.454934, 1189.5],
          [11.056941, 47.454791, 1197.5],
          [11.057056, 47.454742, 1203.0],
          [11.057089, 47.454699, 1206.5],
          [11.056860, 47.454523, 1209.75],
          [11.056867, 47.454333, 1212.0],
          [11.056913, 47.454249, 1212.75],
          [11.057043, 47.454119, 1217.75],
          [11.057100, 47.453825, 1223.0],
          [11.057071, 47.453650, 1223.75],
          [11.057065, 47.453504, 1226.25],
          [11.057092, 47.453365, 1230.5],
          [11.057143, 47.453269, 1234.0],
          [11.057273, 47.453200, 1239.25],
          [11.057318, 47.453193, 1240.75],
          [11.057313, 47.453121, 1241.0],
          [11.057288, 47.453073, 1240.5],
          [11.057253, 47.452941, 1243.5],
          [11.057316, 47.452945, 1245.75],
          [11.057378, 47.452862, 1251.0],
          [11.057329, 47.452695, 1257.75],
          [11.057383, 47.452703, 1259.25],
          [11.057351, 47.452635, 1262.75],
          [11.057192, 47.452502, 1265.25],
          [11.057181, 47.452419, 1270.25],
          [11.057288, 47.452406, 1273.5],
          [11.057231, 47.452308, 1277.0],
          [11.057245, 47.452213, 1283.25],
          [11.057393, 47.452111, 1294.25],
          [11.057521, 47.452101, 1297.5],
          [11.057657, 47.452163, 1299.25],
          [11.057686, 47.452279, 1297.5],
          [11.057787, 47.452326, 1304.5],
          [11.057940, 47.452261, 1309.5],
          [11.058174, 47.452217, 1316.5],
          [11.058284, 47.452206, 1320.75],
          [11.058290, 47.452034, 1327.25],
          [11.058391, 47.452018, 1330.25],
          [11.058577, 47.452126, 1334.5],
          [11.058673, 47.451952, 1339.75],
          [11.058801, 47.452030, 1344.25],
          [11.058844, 47.451900, 1347.75],
          [11.059028, 47.452035, 1354.0],
          [11.059139, 47.451920, 1358.75],
          [11.059400, 47.452056, 1371.5],
          [11.059489, 47.451850, 1376.5],
          [11.059710, 47.452008, 1384.25],
          [11.059743, 47.451868, 1387.5],
          [11.059775, 47.451844, 1389.75],
          [11.059835, 47.451860, 1392.5],
          [11.059820, 47.451895, 1390.75],
          [11.059875, 47.451975, 1392.5],
          [11.059986, 47.452073, 1397.25],
          [11.060006, 47.452037, 1398.5],
          [11.059995, 47.451829, 1401.0],
          [11.060033, 47.451593, 1409.75],
          [11.060359, 47.451688, 1418.75],
          [11.060357, 47.451792, 1417.5],
          [11.060540, 47.451878, 1425.25],
          [11.060629, 47.451973, 1429.5],
          [11.060678, 47.451751, 1432.0],
          [11.060849, 47.451605, 1439.5],
          [11.061266, 47.451414, 1451.0],
          [11.061401, 47.451360, 1455.0],
          [11.061489, 47.451512, 1459.0],
          [11.061588, 47.451802, 1468.25],
          [11.061804, 47.451667, 1473.75],
          [11.062050, 47.451491, 1480.0],
          [11.062163, 47.451402, 1482.75],
          [11.062286, 47.451291, 1486.5],
          [11.062519, 47.450847, 1493.5],
          [11.062640, 47.450662, 1498.5],
          [11.062728, 47.450566, 1501.0],
          [11.062899, 47.450539, 1505.5],
          [11.062898, 47.450444, 1509.25],
          [11.062806, 47.450356, 1510.5],
          [11.062696, 47.450268, 1512.25],
          [11.062567, 47.450190, 1515.25],
          [11.062495, 47.450154, 1516.5],
          [11.062371, 47.450069, 1520.0],
          [11.062319, 47.450008, 1522.75],
          [11.062515, 47.449967, 1528.25],
          [11.062766, 47.449941, 1533.5],
          [11.062762, 47.449889, 1536.75],
          [11.062573, 47.449811, 1539.75],
          [11.062461, 47.449757, 1542.25],
          [11.062216, 47.449685, 1545.5],
          [11.062000, 47.449604, 1548.75],
          [11.061884, 47.449529, 1551.25],
          [11.061875, 47.449466, 1554.5],
          [11.062157, 47.449454, 1561.0],
          [11.062229, 47.449392, 1564.75],
          [11.061959, 47.449113, 1573.25],
          [11.062152, 47.449107, 1576.25],
          [11.062405, 47.449070, 1581.75],
          [11.062715, 47.449037, 1587.25],
          [11.063118, 47.448954, 1594.0],
          [11.063737, 47.448860, 1602.0],
          [11.063951, 47.448844, 1606.5],
          [11.064203, 47.448876, 1608.5],
          [11.064452, 47.448950, 1611.0],
          [11.064672, 47.449007, 1614.25],
          [11.064855, 47.449046, 1616.75],
          [11.065120, 47.449148, 1616.5],
          [11.064908, 47.448948, 1620.25],
          [11.064500, 47.448650, 1628.25],
          [11.064312, 47.448533, 1626.25],
          [11.064131, 47.448455, 1626.25],
          [11.064015, 47.448414, 1627.75],
          [11.063827, 47.448362, 1631.75],
          [11.063793, 47.448271, 1632.0],
          [11.063717, 47.448155, 1631.75],
          [11.063657, 47.448044, 1633.5],
          [11.063630, 47.447965, 1634.0],
          [11.063603, 47.447662, 1632.5],
          [11.063569, 47.447397, 1632.25],
          [11.063545, 47.447330, 1632.5],
          [11.063505, 47.447283, 1633.25],
          [11.063554, 47.447232, 1630.0],
          [11.063544, 47.447193, 1628.5],
          [11.063435, 47.447152, 1629.25],
          [11.063347, 47.447092, 1627.75],
          [11.063254, 47.447015, 1625.75],
          [11.063132, 47.446937, 1624.5],
          [11.063089, 47.446900, 1624.25],
          [11.063061, 47.446854, 1623.0],
          [11.062976, 47.446649, 1617.5],
          [11.062908, 47.446575, 1617.75],
          [11.062839, 47.446457, 1616.0],
          [11.062831, 47.446397, 1613.5],
          [11.062856, 47.446169, 1609.5],
          [11.062871, 47.445668, 1605.0],
          [11.062931, 47.445385, 1602.25],
          [11.063151, 47.444995, 1598.0],
          [11.063463, 47.444746, 1592.75],
          [11.063665, 47.444480, 1587.5],
          [11.063620, 47.444424, 1591.5],
          [11.063683, 47.444358, 1591.25],
          [11.063770, 47.444324, 1587.5],
          [11.063893, 47.444179, 1585.25],
          [11.063884, 47.444086, 1591.25],
          [11.063969, 47.444017, 1590.5],
          [11.064206, 47.443955, 1580.75],
          [11.064468, 47.443700, 1576.75],
          [11.064428, 47.443449, 1585.75],
          [11.064651, 47.443327, 1576.25],
          [11.064773, 47.443149, 1574.75],
          [11.064657, 47.443002, 1586.75],
          [11.064625, 47.442833, 1588.0],
          [11.064804, 47.442513, 1585.5],
          [11.064754, 47.441961, 1589.5],
          [11.065014, 47.441821, 1587.75],
          [11.065617, 47.441727, 1585.0],
          [11.066008, 47.441618, 1583.75],
          [11.066224, 47.441674, 1576.25],
          [11.066568, 47.441584, 1573.0],
          [11.067037, 47.441379, 1567.75],
          [11.067186, 47.441232, 1563.75],
          [11.067263, 47.440976, 1563.0],
          [11.067358, 47.440835, 1560.5],
          [11.067527, 47.440787, 1556.5],
          [11.067629, 47.440789, 1551.75],
          [11.067792, 47.440756, 1546.75],
          [11.067968, 47.440648, 1544.75],
          [11.068179, 47.440613, 1537.75],
          [11.068358, 47.440448, 1543.75],
          [11.068517, 47.440413, 1541.5],
          [11.068647, 47.440436, 1536.25],
          [11.068722, 47.440418, 1535.25],
          [11.068837, 47.440273, 1538.5],
          [11.068991, 47.440184, 1541.25],
          [11.069107, 47.440148, 1541.25],
          [11.069315, 47.440132, 1534.75],
          [11.069389, 47.440075, 1534.25],
          [11.069476, 47.439903, 1538.5],
          [11.069561, 47.439840, 1539.75],
          [11.069811, 47.439839, 1531.25],
          [11.069944, 47.439862, 1525.25],
          [11.070060, 47.439820, 1522.5],
          [11.069972, 47.439684, 1533.0],
          [11.070308, 47.439413, 1532.0],
          [11.070809, 47.439335, 1529.75],
          [11.070986, 47.439215, 1532.5],
          [11.071170, 47.439174, 1529.75],
          [11.071386, 47.439101, 1530.25],
          [11.071548, 47.439012, 1535.5],
          [11.071717, 47.439012, 1534.25],
          [11.071840, 47.439083, 1529.0],
          [11.072464, 47.438882, 1530.0],
          [11.072934, 47.438882, 1528.0],
          [11.073581, 47.438820, 1525.75],
          [11.074580, 47.438639, 1519.5],
          [11.074836, 47.438545, 1518.25],
          [11.075583, 47.438517, 1508.75],
          [11.075816, 47.438450, 1509.25],
          [11.075859, 47.438350, 1510.5],
          [11.075760, 47.438204, 1512.25],
          [11.074990, 47.437280, 1520.75],
          [11.074831, 47.437177, 1521.5],
          [11.074471, 47.436984, 1523.0],
          [11.074288, 47.436722, 1524.0],
          [11.074287, 47.436590, 1521.75],
          [11.074264, 47.436429, 1519.5],
          [11.073644, 47.436049, 1519.75],
          [11.072994, 47.435321, 1516.25],
          [11.073148, 47.435249, 1513.0],
          [11.073304, 47.435199, 1511.0],
          [11.073521, 47.435204, 1509.25],
          [11.073544, 47.435128, 1509.0],
          [11.073571, 47.434969, 1508.75],
          [11.073635, 47.434832, 1509.0],
          [11.073775, 47.434831, 1507.75],
          [11.073907, 47.434801, 1506.75],
          [11.074194, 47.434682, 1505.75],
          [11.074433, 47.434554, 1505.5],
          [11.074430, 47.434500, 1506.75],
          [11.074507, 47.434362, 1509.0],
          [11.074662, 47.434285, 1509.25],
          [11.074842, 47.434257, 1510.25],
          [11.075039, 47.434310, 1509.5],
          [11.075305, 47.434300, 1512.5],
          [11.075485, 47.434318, 1514.25],
          [11.076028, 47.434373, 1518.75],
          [11.076078, 47.434353, 1519.75],
          [11.076252, 47.434365, 1518.25],
          [11.076544, 47.434218, 1517.25],
          [11.076800, 47.434015, 1520.5],
          [11.077278, 47.433937, 1522.25],
          [11.077519, 47.433662, 1524.5],
          [11.078006, 47.433603, 1523.5],
          [11.078436, 47.433334, 1524.0],
          [11.078902, 47.432959, 1526.0],
          [11.079080, 47.432763, 1529.5],
          [11.079382, 47.432662, 1529.0],
          [11.079544, 47.432492, 1533.0],
          [11.079811, 47.432720, 1531.75],
          [11.080119, 47.433186, 1531.25],
          [11.080352, 47.433310, 1530.5],
          [11.081094, 47.433352, 1534.0],
          [11.081392, 47.433216, 1534.75],
          [11.081809, 47.433556, 1541.0],
          [11.081923, 47.433669, 1542.0],
          [11.082422, 47.433684, 1549.25],
          [11.082723, 47.433714, 1549.5],
          [11.083148, 47.433796, 1554.75],
          [11.083944, 47.434074, 1556.0],
          [11.084256, 47.434222, 1550.5],
          [11.084594, 47.434196, 1555.75],
          [11.084818, 47.433956, 1555.0],
          [11.085079, 47.433587, 1549.0],
          [11.085543, 47.432883, 1540.75],
          [11.085640, 47.432688, 1541.25],
          [11.086550, 47.432427, 1537.25],
          [11.086723, 47.432199, 1536.25],
          [11.086752, 47.431997, 1538.0],
          [11.086921, 47.431855, 1537.25],
          [11.087241, 47.431838, 1534.25],
          [11.087471, 47.431752, 1534.0],
          [11.088091, 47.431431, 1527.75],
          [11.088218, 47.431298, 1528.0],
          [11.088506, 47.431230, 1522.5],
          [11.088607, 47.431084, 1522.5],
          [11.089041, 47.430740, 1518.0],
          [11.089314, 47.430566, 1513.25],
          [11.089570, 47.430345, 1508.25],
          [11.089660, 47.430267, 1506.25],
          [11.089828, 47.430042, 1505.25],
          [11.090089, 47.429993, 1499.25],
          [11.090235, 47.429900, 1497.75],
          [11.090429, 47.429725, 1497.25],
          [11.090545, 47.429592, 1493.25],
          [11.090609, 47.429367, 1487.75],
          [11.090557, 47.429165, 1484.75],
          [11.090669, 47.428994, 1481.25],
          [11.090887, 47.428578, 1472.75],
          [11.091337, 47.427854, 1455.25],
          [11.091572, 47.427615, 1446.5],
          [11.091750, 47.427458, 1442.75],
          [11.091961, 47.427401, 1438.75],
          [11.092183, 47.427427, 1434.0],
          [11.092249, 47.427373, 1433.5],
          [11.092372, 47.427245, 1429.5],
          [11.092514, 47.427351, 1421.5],
          [11.092568, 47.427774, 1405.75],
          [11.093445, 47.427287, 1386.25],
          [11.093536, 47.426931, 1389.5],
          [11.094170, 47.426626, 1373.0],
          [11.094279, 47.426801, 1359.25],
          [11.094741, 47.426659, 1351.25],
          [11.094752, 47.426772, 1344.0],
          [11.094927, 47.426703, 1340.75],
          [11.095022, 47.426799, 1333.0],
          [11.095379, 47.426453, 1321.0],
          [11.095592, 47.426356, 1311.5],
          [11.095779, 47.426168, 1305.0],
          [11.095820, 47.426249, 1301.5],
          [11.096240, 47.425849, 1284.25],
          [11.096437, 47.426194, 1268.75],
          [11.096632, 47.425889, 1258.5],
          [11.096852, 47.426082, 1246.5],
          [11.097054, 47.425890, 1237.75],
          [11.097069, 47.425427, 1226.75],
          [11.097228, 47.425503, 1219.0],
          [11.097319, 47.425375, 1213.0],
          [11.097410, 47.425460, 1209.5],
          [11.097467, 47.425338, 1204.75],
          [11.097444, 47.425139, 1201.5],
          [11.097455, 47.425000, 1197.5],
          [11.097491, 47.424851, 1190.5],
          [11.097410, 47.424402, 1175.0],
          [11.097406, 47.424275, 1170.5],
          [11.097417, 47.424233, 1168.0],
          [11.097410, 47.424128, 1163.25],
          [11.097443, 47.424103, 1158.75],
          [11.097436, 47.424066, 1156.5],
          [11.097288, 47.423856, 1155.25],
          [11.097236, 47.423727, 1152.0],
          [11.097235, 47.423665, 1148.5],
          [11.097183, 47.423541, 1145.5],
          [11.097144, 47.423494, 1146.0],
          [11.097070, 47.423428, 1147.25],
          [11.096822, 47.422976, 1142.25],
          [11.096768, 47.422910, 1142.75],
          [11.096746, 47.422821, 1138.5],
          [11.096650, 47.422135, 1125.25],
          [11.096775, 47.422059, 1116.5],
          [11.096650, 47.421826, 1112.5],
          [11.096264, 47.421023, 1097.0],
          [11.096128, 47.420633, 1088.75],
          [11.095961, 47.420303, 1081.5],
          [11.095710, 47.419761, 1072.5],
          [11.095401, 47.419228, 1060.75],
          [11.095132, 47.418925, 1057.5],
          [11.094810, 47.418774, 1059.0],
          [11.094129, 47.418209, 1053.0],
          [11.094146, 47.418121, 1052.75],
          [11.093943, 47.418107, 1052.75],
          [11.093846, 47.418037, 1051.75],
          [11.092862, 47.417930, 1057.0],
          [11.092759, 47.417900, 1056.5],
          [11.092663, 47.417828, 1054.75],
          [11.092487, 47.417741, 1054.0],
          [11.092275, 47.417745, 1055.25],
          [11.091974, 47.417698, 1057.5],
          [11.091897, 47.417694, 1057.75],
          [11.091795, 47.417675, 1057.75],
          [11.091546, 47.417680, 1058.5],
          [11.091395, 47.417733, 1060.0],
          [11.091013, 47.417678, 1061.0],
          [11.090942, 47.417656, 1060.75],
          [11.090843, 47.417590, 1059.0],
          [11.090731, 47.417541, 1058.25],
          [11.090353, 47.417398, 1060.25],
          [11.090154, 47.417348, 1061.75],
          [11.089908, 47.417259, 1060.75],
          [11.089856, 47.417226, 1059.5],
          [11.089723, 47.417243, 1062.0],
          [11.089473, 47.417144, 1063.5],
          [11.089076, 47.416874, 1061.5],
          [11.088897, 47.416789, 1062.0],
          [11.088718, 47.416755, 1063.0],
          [11.088438, 47.416737, 1064.75],
          [11.088095, 47.416795, 1068.75],
          [11.087921, 47.416782, 1068.5],
          [11.087646, 47.416669, 1064.0],
          [11.087446, 47.416653, 1066.25],
          [11.087264, 47.416589, 1069.75],
          [11.087070, 47.416584, 1070.75],
          [11.086843, 47.416613, 1071.0],
          [11.085969, 47.416468, 1069.5],
          [11.085710, 47.416419, 1068.25],
          [11.085492, 47.416425, 1068.75],
          [11.084802, 47.416573, 1074.0],
          [11.084548, 47.416663, 1075.25],
          [11.084438, 47.416671, 1075.25],
          [11.084257, 47.416647, 1076.5],
          [11.084056, 47.416579, 1078.25],
          [11.083861, 47.416473, 1077.25],
          [11.083625, 47.416197, 1076.5],
          [11.083229, 47.416021, 1079.25],
          [11.082585, 47.415502, 1078.25],
          [11.082472, 47.415439, 1078.75],
          [11.081964, 47.415365, 1082.5],
          [11.081794, 47.415316, 1083.0],
          [11.081492, 47.415089, 1083.25],
          [11.080836, 47.414749, 1084.25],
          [11.080592, 47.414655, 1088.5],
          [11.080285, 47.414494, 1087.25],
          [11.080175, 47.414462, 1087.25],
          [11.079939, 47.414428, 1090.5],
          [11.079605, 47.414229, 1091.5],
          [11.079463, 47.414063, 1090.75],
          [11.079282, 47.414025, 1091.5],
          [11.079105, 47.414022, 1092.5],
          [11.078957, 47.414080, 1094.0],
          [11.078541, 47.414273, 1094.0],
          [11.078292, 47.414321, 1094.0],
          [11.078087, 47.414448, 1093.75],
          [11.077862, 47.414539, 1098.25],
          [11.077708, 47.414544, 1098.75],
          [11.077522, 47.414524, 1098.5],
          [11.077322, 47.414475, 1097.5],
          [11.076892, 47.414131, 1099.25],
          [11.076775, 47.414091, 1101.5],
          [11.076385, 47.414082, 1105.5],
          [11.075968, 47.414002, 1105.75],
          [11.075810, 47.413999, 1105.75],
          [11.075519, 47.414025, 1105.5],
          [11.075012, 47.413969, 1107.75],
          [11.074790, 47.413926, 1109.75],
          [11.074741, 47.413904, 1110.0],
          [11.074598, 47.413798, 1110.75],
          [11.074536, 47.413781, 1111.75],
          [11.074434, 47.413784, 1114.25],
          [11.074395, 47.413769, 1114.75],
          [11.074412, 47.413651, 1112.25],
          [11.074388, 47.413628, 1112.5],
          [11.074197, 47.413575, 1115.5],
          [11.074123, 47.413522, 1115.5],
          [11.074117, 47.413419, 1113.5],
          [11.073998, 47.413252, 1112.75],
          [11.073854, 47.413128, 1115.5],
          [11.073604, 47.412973, 1120.25],
          [11.073570, 47.412931, 1120.5],
          [11.073297, 47.412741, 1124.0],
          [11.073198, 47.412709, 1125.5],
          [11.072867, 47.412638, 1129.5],
          [11.072700, 47.412578, 1131.5],
          [11.072574, 47.412494, 1132.5],
          [11.072410, 47.412440, 1136.0],
          [11.072315, 47.412392, 1138.25],
          [11.072244, 47.412329, 1140.25],
          [11.072154, 47.412294, 1142.25],
          [11.072054, 47.412297, 1144.0],
          [11.072017, 47.412292, 1144.75],
          [11.071901, 47.412219, 1147.75],
          [11.071549, 47.411920, 1151.0],
          [11.071481, 47.411877, 1152.25],
          [11.071255, 47.411798, 1155.0],
          [11.071005, 47.411692, 1156.75],
          [11.070793, 47.411635, 1158.0],
          [11.070729, 47.411629, 1158.25],
          [11.070644, 47.411632, 1159.0],
          [11.070355, 47.411551, 1160.25],
          [11.070230, 47.411487, 1161.75],
          [11.070138, 47.411457, 1162.75],
          [11.069959, 47.411453, 1164.5],
          [11.069868, 47.411424, 1165.25],
          [11.069768, 47.411412, 1166.0],
          [11.069587, 47.411324, 1168.25],
          [11.069484, 47.411294, 1169.5],
          [11.069412, 47.411222, 1171.0],
          [11.069287, 47.411009, 1174.75],
          [11.069227, 47.410949, 1176.5],
          [11.069157, 47.410901, 1177.75],
          [11.068930, 47.410812, 1179.75],
          [11.068776, 47.410774, 1180.0],
          [11.068659, 47.410765, 1180.75],
          [11.068525, 47.410792, 1182.75],
          [11.068321, 47.410820, 1184.25],
          [11.068177, 47.410817, 1184.0],
          [11.067976, 47.410784, 1182.25],
          [11.067872, 47.410754, 1181.25],
          [11.067758, 47.410750, 1181.0],
          [11.067657, 47.410769, 1180.25],
          [11.067560, 47.410813, 1180.25],
          [11.067326, 47.410871, 1182.75],
          [11.067115, 47.410846, 1183.0],
          [11.066950, 47.410873, 1183.75],
          [11.066889, 47.410864, 1183.5],
          [11.066807, 47.410804, 1181.75],
          [11.066683, 47.410770, 1180.5],
          [11.066536, 47.410797, 1180.25],
          [11.066401, 47.410740, 1179.0],
          [11.066001, 47.410432, 1176.5],
          [11.065899, 47.410416, 1176.75],
          [11.065653, 47.410428, 1176.25],
          [11.065537, 47.410416, 1176.0],
          [11.065327, 47.410364, 1177.5],
          [11.064820, 47.410274, 1176.25],
          [11.064366, 47.410225, 1182.5],
          [11.063947, 47.410114, 1186.25],
          [11.063828, 47.410119, 1187.25],
          [11.063644, 47.410143, 1189.0],
          [11.063526, 47.410127, 1189.0],
          [11.063229, 47.410030, 1187.75],
          [11.063083, 47.410004, 1188.75],
          [11.062928, 47.409996, 1190.25],
          [11.062414, 47.410017, 1199.0],
          [11.062189, 47.410044, 1203.25],
          [11.061900, 47.410129, 1210.25],
          [11.061695, 47.410133, 1212.75],
          [11.061557, 47.410123, 1214.25],
          [11.061119, 47.410038, 1217.25],
          [11.060776, 47.410019, 1221.0],
          [11.060589, 47.409966, 1221.5],
          [11.060449, 47.409958, 1223.25],
          [11.060331, 47.409927, 1224.5],
          [11.060017, 47.409900, 1228.25],
          [11.059893, 47.409908, 1230.25],
          [11.059337, 47.409753, 1232.0],
          [11.059197, 47.409748, 1233.25],
          [11.058891, 47.409710, 1236.25],
          [11.058767, 47.409681, 1238.5],
          [11.058362, 47.409491, 1237.0],
          [11.058146, 47.409441, 1237.5],
          [11.057508, 47.409341, 1241.75],
          [11.056729, 47.409175, 1238.75],
          [11.056631, 47.409137, 1238.75],
          [11.056489, 47.409055, 1238.25],
          [11.055981, 47.408856, 1232.0],
          [11.055231, 47.408699, 1230.75],
          [11.054885, 47.408649, 1230.0],
          [11.054789, 47.408645, 1229.25],
          [11.054735, 47.408653, 1229.0],
          [11.054701, 47.408672, 1229.0],
          [11.054680, 47.408695, 1229.25],
          [11.054681, 47.408734, 1230.5],
          [11.054672, 47.408756, 1231.0],
          [11.054645, 47.408775, 1231.25],
          [11.054618, 47.408783, 1231.25],
          [11.054578, 47.408784, 1231.0],
          [11.054407, 47.408740, 1228.0],
          [11.054276, 47.408722, 1227.75],
          [11.054054, 47.408706, 1228.25],
          [11.053851, 47.408660, 1227.5],
          [11.053735, 47.408630, 1228.25],
          [11.053588, 47.408583, 1229.75],
          [11.053414, 47.408460, 1231.75],
          [11.053345, 47.408448, 1234.25],
          [11.053186, 47.408466, 1236.5],
          [11.053126, 47.408483, 1237.5],
          [11.053077, 47.408522, 1239.5],
          [11.052979, 47.408564, 1241.5],
          [11.052774, 47.408625, 1243.5],
          [11.052711, 47.408664, 1245.25],
          [11.052614, 47.408687, 1246.25],
          [11.052303, 47.408611, 1245.5],
          [11.052197, 47.408597, 1246.25],
          [11.052046, 47.408675, 1251.5],
          [11.052000, 47.408720, 1255.25],
          [11.051929, 47.408723, 1256.5],
          [11.051724, 47.408654, 1254.75],
          [11.051613, 47.408634, 1255.75],
          [11.051388, 47.408611, 1259.0],
          [11.051039, 47.408549, 1259.75],
          [11.050945, 47.408543, 1259.5],
          [11.050813, 47.408550, 1259.25],
          [11.050677, 47.408621, 1261.25],
          [11.050645, 47.408623, 1261.0],
          [11.050591, 47.408613, 1259.5],
          [11.050487, 47.408552, 1257.75],
          [11.050352, 47.408504, 1259.0],
          [11.050208, 47.408407, 1257.5],
          [11.050144, 47.408390, 1257.75],
          [11.049660, 47.408319, 1257.25],
          [11.049380, 47.408260, 1255.75],
          [11.049245, 47.408221, 1255.25],
          [11.049183, 47.408221, 1255.75],
          [11.049074, 47.408240, 1256.25],
          [11.048935, 47.408245, 1255.75],
          [11.048751, 47.408226, 1254.5],
          [11.048600, 47.408285, 1256.0],
          [11.048537, 47.408335, 1256.5],
          [11.048513, 47.408384, 1258.0],
          [11.048494, 47.408458, 1260.75],
          [11.048468, 47.408480, 1261.5],
          [11.048429, 47.408490, 1261.75],
          [11.048339, 47.408482, 1261.0],
          [11.048141, 47.408389, 1261.5],
          [11.047990, 47.408328, 1262.0],
          [11.047867, 47.408314, 1264.0],
          [11.047623, 47.408315, 1267.5],
          [11.047456, 47.408341, 1270.5],
          [11.047367, 47.408383, 1273.5],
          [11.047040, 47.408433, 1278.0],
          [11.046909, 47.408440, 1279.5],
          [11.046808, 47.408460, 1281.25],
          [11.046726, 47.408461, 1281.75],
          [11.046553, 47.408432, 1282.0],
          [11.046460, 47.408441, 1284.0],
          [11.046400, 47.408455, 1286.0],
          [11.046306, 47.408420, 1286.0],
          [11.046224, 47.408348, 1283.5],
          [11.046135, 47.408311, 1284.25],
          [11.045985, 47.408288, 1287.25],
          [11.045788, 47.408267, 1291.5],
          [11.045692, 47.408246, 1292.0],
          [11.045650, 47.408231, 1292.0],
          [11.045592, 47.408234, 1293.25],
          [11.045507, 47.408264, 1296.0],
          [11.045348, 47.408281, 1298.5],
          [11.045132, 47.408279, 1302.75],
          [11.045003, 47.408243, 1304.25],
          [11.044886, 47.408246, 1307.0],
          [11.044680, 47.408205, 1309.5],
          [11.044561, 47.408203, 1312.25],
          [11.044116, 47.408106, 1315.75],
          [11.043898, 47.408093, 1318.0],
          [11.043501, 47.407889, 1319.25],
          [11.043448, 47.407876, 1320.25],
          [11.043382, 47.407843, 1321.25],
          [11.043381, 47.407811, 1320.25],
          [11.043420, 47.407729, 1317.75],
          [11.043414, 47.407671, 1317.75],
          [11.043314, 47.407546, 1321.5],
          [11.043271, 47.407439, 1324.25],
          [11.043279, 47.407266, 1326.75],
          [11.043299, 47.407189, 1327.75],
          [11.043350, 47.407127, 1327.5],
          [11.043373, 47.407071, 1328.25],
          [11.043375, 47.406986, 1331.25],
          [11.043425, 47.406898, 1330.0],
          [11.043461, 47.406801, 1328.75],
          [11.043452, 47.406747, 1329.5],
          [11.043392, 47.406717, 1332.25],
          [11.043073, 47.406642, 1339.75],
          [11.042875, 47.406609, 1342.5],
          [11.042615, 47.406532, 1340.0],
          [11.042521, 47.406511, 1336.75],
          [11.042374, 47.406530, 1339.0],
          [11.042103, 47.406508, 1341.75],
          [11.041802, 47.406457, 1342.5],
          [11.041611, 47.406443, 1341.75],
          [11.041433, 47.406440, 1341.0],
          [11.041314, 47.406452, 1341.0],
          [11.040828, 47.406589, 1343.75],
          [11.040646, 47.406583, 1343.25],
          [11.040527, 47.406588, 1343.25],
          [11.040361, 47.406610, 1343.5],
          [11.040145, 47.406618, 1344.5],
          [11.040011, 47.406584, 1344.25],
          [11.039764, 47.406505, 1343.75],
          [11.039613, 47.406478, 1342.5],
          [11.039522, 47.406472, 1342.0],
          [11.039414, 47.406490, 1342.5],
          [11.039339, 47.406554, 1344.25],
          [11.039236, 47.406571, 1344.75],
          [11.038857, 47.406539, 1349.75],
          [11.038787, 47.406514, 1350.25],
          [11.038699, 47.406466, 1350.5],
          [11.038619, 47.406413, 1350.5],
          [11.038535, 47.406322, 1350.5],
          [11.038449, 47.406239, 1351.75],
          [11.038397, 47.406155, 1352.25],
          [11.038284, 47.406125, 1354.5],
          [11.038025, 47.406087, 1356.5],
          [11.037790, 47.406056, 1356.5],
          [11.037617, 47.406053, 1357.75],
          [11.037530, 47.406031, 1358.5],
          [11.037265, 47.405831, 1363.5],
          [11.037131, 47.405668, 1364.75],
          [11.037000, 47.405450, 1366.25],
          [11.036991, 47.405386, 1366.0],
          [11.036901, 47.405215, 1365.25],
          [11.036797, 47.405123, 1364.5],
          [11.036709, 47.405094, 1364.75],
          [11.036527, 47.405080, 1364.5],
          [11.036431, 47.405096, 1364.5],
          [11.036324, 47.405129, 1365.0],
          [11.036004, 47.405134, 1366.5],
          [11.035861, 47.405135, 1367.25],
          [11.035621, 47.405165, 1367.75],
          [11.035438, 47.405217, 1368.0],
          [11.035315, 47.405241, 1367.75],
          [11.034947, 47.405273, 1368.0],
          [11.034697, 47.405281, 1369.0],
          [11.034422, 47.405277, 1369.0],
          [11.034109, 47.405230, 1370.25],
          [11.034065, 47.405190, 1370.5],
          [11.034063, 47.405112, 1370.5],
          [11.034046, 47.405102, 1370.5],
          [11.033969, 47.405101, 1370.75],
          [11.033720, 47.405007, 1370.25],
          [11.033616, 47.404939, 1370.75],
          [11.033560, 47.404856, 1372.0],
          [11.033433, 47.404653, 1374.75],
          [11.033161, 47.404279, 1379.0],
          [11.033080, 47.404208, 1378.75],
          [11.032943, 47.404125, 1379.5],
          [11.032719, 47.403836, 1382.5],
          [11.032633, 47.403757, 1383.75],
          [11.032578, 47.403542, 1387.75],
          [11.032545, 47.403477, 1388.75],
          [11.032304, 47.403327, 1389.25],
          [11.032218, 47.403212, 1391.75],
          [11.032159, 47.403178, 1393.25],
          [11.031926, 47.403168, 1394.75],
          [11.031761, 47.403075, 1398.75],
          [11.031690, 47.403018, 1400.25],
          [11.031666, 47.403018, 1400.5],
          [11.031624, 47.403052, 1400.5],
          [11.031581, 47.403063, 1400.75],
          [11.031513, 47.403049, 1401.75],
          [11.031438, 47.403055, 1402.25],
          [11.031396, 47.403022, 1403.5],
          [11.031331, 47.403004, 1404.5],
          [11.031105, 47.403010, 1407.0],
          [11.031011, 47.403025, 1408.0],
          [11.030853, 47.403081, 1409.0],
          [11.030729, 47.403103, 1410.0],
          [11.030650, 47.403135, 1410.25],
          [11.030556, 47.403139, 1411.0],
          [11.030495, 47.403122, 1411.75],
          [11.030306, 47.403044, 1414.0],
          [11.030119, 47.402987, 1415.5],
          [11.030062, 47.402917, 1417.25],
          [11.029980, 47.402890, 1418.25],
          [11.029769, 47.402784, 1420.75],
          [11.029486, 47.402574, 1427.5],
          [11.029419, 47.402562, 1428.75],
          [11.029334, 47.402522, 1430.75],
          [11.029297, 47.402429, 1432.25],
          [11.029229, 47.402402, 1433.25],
          [11.029149, 47.402410, 1433.75],
          [11.028893, 47.402492, 1433.0],
          [11.028801, 47.402510, 1433.75],
          [11.028600, 47.402598, 1435.25],
          [11.028412, 47.402649, 1436.25],
          [11.028276, 47.402708, 1436.75],
          [11.028078, 47.402857, 1437.5],
          [11.027962, 47.402913, 1437.75],
          [11.027470, 47.403249, 1437.5],
          [11.027353, 47.403313, 1437.5],
          [11.027250, 47.403345, 1437.75],
          [11.027123, 47.403344, 1438.25],
          [11.026980, 47.403329, 1438.75],
          [11.026863, 47.403376, 1439.25],
          [11.026781, 47.403392, 1439.75],
          [11.026709, 47.403381, 1440.0],
          [11.026522, 47.403287, 1440.75],
          [11.026473, 47.403268, 1441.0],
          [11.026308, 47.403249, 1441.75],
          [11.026116, 47.403204, 1442.75],
          [11.026080, 47.403192, 1443.0],
          [11.025989, 47.403194, 1443.0],
          [11.025881, 47.403180, 1443.0],
          [11.025570, 47.403018, 1445.25],
          [11.025107, 47.402913, 1449.0],
          [11.024787, 47.402877, 1451.0],
          [11.024664, 47.402817, 1452.5],
          [11.024603, 47.402748, 1453.5],
          [11.024521, 47.402713, 1454.5],
          [11.024351, 47.402613, 1456.5],
          [11.024238, 47.402608, 1456.75],
          [11.024175, 47.402692, 1455.5],
          [11.024090, 47.402690, 1456.5],
          [11.023886, 47.402616, 1460.25],
          [11.023829, 47.402555, 1461.75],
          [11.023758, 47.402535, 1463.25],
          [11.023706, 47.402421, 1466.25],
          [11.023612, 47.402397, 1468.0],
          [11.023514, 47.402316, 1471.25],
          [11.023395, 47.402198, 1475.5],
          [11.023282, 47.402116, 1479.5],
          [11.023244, 47.402068, 1481.5],
          [11.023203, 47.402077, 1482.0],
          [11.023169, 47.402076, 1482.75],
          [11.023135, 47.402053, 1484.0],
          [11.023067, 47.402025, 1486.0],
          [11.023041, 47.402036, 1486.25],
          [11.022989, 47.402028, 1487.75],
          [11.022974, 47.401999, 1488.75],
          [11.022974, 47.401958, 1489.5],
          [11.022946, 47.401950, 1490.5],
          [11.022899, 47.401958, 1491.5],
          [11.022859, 47.401950, 1492.75],
          [11.022792, 47.401957, 1494.25],
          [11.022779, 47.401947, 1494.75],
          [11.022806, 47.401918, 1494.75],
          [11.022787, 47.401905, 1495.5],
          [11.022742, 47.401918, 1496.0],
          [11.022701, 47.401857, 1498.25],
          [11.022679, 47.401804, 1499.75],
          [11.022646, 47.401807, 1500.5],
          [11.022603, 47.401843, 1500.5],
          [11.022557, 47.401844, 1501.25],
          [11.022536, 47.401737, 1504.25],
          [11.022501, 47.401719, 1505.5],
          [11.022414, 47.401744, 1507.75],
          [11.022387, 47.401746, 1508.5],
          [11.022361, 47.401729, 1509.75],
          [11.022329, 47.401722, 1511.0],
          [11.022283, 47.401740, 1512.0],
          [11.022289, 47.401709, 1512.75],
          [11.022325, 47.401673, 1512.5],
          [11.022316, 47.401613, 1514.75],
          [11.022303, 47.401599, 1515.5],
          [11.022274, 47.401599, 1516.25],
          [11.022239, 47.401620, 1516.75],
          [11.022098, 47.401651, 1520.5],
          [11.021984, 47.401700, 1523.0],
          [11.021840, 47.401737, 1527.75],
          [11.021811, 47.401778, 1528.0],
          [11.021764, 47.401802, 1529.25],
          [11.021695, 47.401821, 1531.5],
          [11.021466, 47.401926, 1538.75],
          [11.021369, 47.402099, 1542.75],
          [11.021298, 47.402160, 1548.0],
          [11.021175, 47.402302, 1555.5],
          [11.021166, 47.402407, 1556.75],
          [11.021214, 47.402455, 1555.5],
          [11.021335, 47.402527, 1554.75],
          [11.021410, 47.402645, 1559.25],
          [11.021469, 47.402715, 1561.25],
          [11.021566, 47.402790, 1562.0],
          [11.021562, 47.402920, 1564.0],
          [11.021500, 47.402874, 1565.5],
          [11.021473, 47.402972, 1568.75],
          [11.021331, 47.402896, 1572.0],
          [11.021128, 47.402870, 1576.5],
          [11.021278, 47.403149, 1580.5],
          [11.020846, 47.403098, 1594.75],
          [11.020881, 47.403272, 1599.5],
          [11.020725, 47.403274, 1604.75],
          [11.020674, 47.403243, 1605.75],
          [11.020641, 47.403183, 1605.75],
          [11.020601, 47.403166, 1607.0],
          [11.020575, 47.403279, 1610.25],
          [11.020687, 47.403415, 1610.25],
          [11.020568, 47.403385, 1613.5],
          [11.020339, 47.403286, 1620.75],
          [11.020206, 47.403332, 1628.5],
          [11.020173, 47.403468, 1634.75],
          [11.020154, 47.403714, 1640.5],
          [11.019926, 47.403930, 1655.5],
          [11.019948, 47.404013, 1651.0],
          [11.019763, 47.404190, 1657.75],
          [11.019619, 47.404300, 1667.25],
          [11.019479, 47.404435, 1667.0],
          [11.019314, 47.404551, 1673.5],
          [11.019266, 47.404471, 1677.25],
          [11.019200, 47.404493, 1680.75],
          [11.019156, 47.404474, 1683.5],
          [11.019139, 47.404512, 1684.25],
          [11.019061, 47.404502, 1688.75],
          [11.019052, 47.404569, 1688.75],
          [11.018957, 47.404552, 1694.25],
          [11.018925, 47.404590, 1695.75],
          [11.018924, 47.404690, 1695.25],
          [11.018793, 47.404659, 1700.75],
          [11.018693, 47.404658, 1704.25],
          [11.018597, 47.404643, 1708.25],
          [11.018589, 47.404737, 1705.25],
          [11.018541, 47.404728, 1706.5],
          [11.018477, 47.404692, 1710.25],
          [11.018359, 47.404771, 1714.25],
          [11.018306, 47.404722, 1715.25],
          [11.018266, 47.404742, 1717.25],
          [11.018247, 47.404792, 1719.0],
          [11.018209, 47.404749, 1720.0],
          [11.018167, 47.404806, 1722.25],
          [11.018120, 47.404792, 1724.0],
          [11.018095, 47.404851, 1724.75],
          [11.018016, 47.404809, 1727.5],
          [11.017852, 47.404836, 1732.0],
          [11.017684, 47.404794, 1736.75],
          [11.017489, 47.404827, 1741.0],
          [11.017334, 47.404850, 1744.5],
          [11.017317, 47.404830, 1745.5],
          [11.017231, 47.404825, 1748.0],
          [11.017036, 47.404896, 1750.75],
          [11.016811, 47.404950, 1754.25],
          [11.016685, 47.405061, 1757.0],
          [11.016321, 47.405104, 1765.25],
          [11.016036, 47.405085, 1769.25],
          [11.015898, 47.405135, 1769.75],
          [11.015809, 47.405217, 1768.5],
          [11.015743, 47.405234, 1768.75],
          [11.015682, 47.405220, 1769.75],
          [11.015594, 47.405226, 1770.25],
          [11.015493, 47.405261, 1769.75],
          [11.015466, 47.405333, 1771.25],
          [11.015148, 47.405463, 1775.25],
          [11.014926, 47.405565, 1777.0],
          [11.014831, 47.405586, 1777.75],
          [11.014651, 47.405566, 1777.0],
          [11.014541, 47.405506, 1777.75],
          [11.014467, 47.405516, 1778.5],
          [11.014415, 47.405503, 1779.25],
          [11.014367, 47.405463, 1780.0],
          [11.014333, 47.405455, 1780.75],
          [11.014277, 47.405482, 1782.0],
          [11.014232, 47.405464, 1782.75],
          [11.014210, 47.405428, 1783.5],
          [11.014154, 47.405410, 1784.75],
          [11.014081, 47.405436, 1787.0],
          [11.014000, 47.405424, 1789.75],
          [11.013882, 47.405452, 1793.5],
          [11.013781, 47.405444, 1798.0],
          [11.013748, 47.405408, 1800.25],
          [11.013663, 47.405408, 1804.25],
          [11.013536, 47.405457, 1809.5],
          [11.013479, 47.405513, 1809.5],
          [11.013455, 47.405606, 1808.5],
          [11.013454, 47.405793, 1812.25],
          [11.013483, 47.405854, 1812.75],
          [11.013480, 47.405916, 1815.5],
          [11.013497, 47.406004, 1818.5],
          [11.013496, 47.406051, 1820.5],
          [11.013478, 47.406056, 1821.0],
          [11.013361, 47.406035, 1823.0],
          [11.013321, 47.406063, 1825.25],
          [11.013235, 47.406261, 1836.75],
          [11.013221, 47.406426, 1844.0],
          [11.013150, 47.406507, 1850.5],
          [11.013039, 47.406556, 1855.25],
          [11.012933, 47.406639, 1859.75],
          [11.012821, 47.406692, 1861.75],
          [11.012765, 47.406692, 1862.5],
          [11.012611, 47.406862, 1875.5],
          [11.012505, 47.406931, 1875.25],
          [11.012468, 47.407025, 1881.5],
          [11.012036, 47.407345, 1901.25],
          [11.011756, 47.407491, 1908.0],
          [11.011809, 47.407601, 1913.25],
          [11.011937, 47.407686, 1917.75],
          [11.011950, 47.407715, 1919.5],
          [11.011877, 47.407717, 1920.0],
          [11.011794, 47.407732, 1921.5],
          [11.011833, 47.407757, 1923.0],
          [11.012061, 47.407812, 1927.25],
          [11.012063, 47.407828, 1928.75],
          [11.012011, 47.407861, 1931.5],
          [11.012008, 47.407888, 1934.0],
          [11.012086, 47.407919, 1936.5],
          [11.012278, 47.407965, 1939.5],
          [11.012660, 47.408112, 1947.0],
          [11.012748, 47.408117, 1947.0],
          [11.012779, 47.408139, 1948.5],
          [11.012756, 47.408153, 1949.75],
          [11.012431, 47.408196, 1955.0],
          [11.012311, 47.408225, 1958.25],
          [11.012304, 47.408244, 1959.75],
          [11.012358, 47.408258, 1960.25],
          [11.012565, 47.408339, 1965.0],
          [11.012629, 47.408343, 1965.0],
          [11.012679, 47.408356, 1965.5],
          [11.012697, 47.408381, 1966.75],
          [11.012739, 47.408505, 1973.0],
          [11.012721, 47.408510, 1973.5],
          [11.012603, 47.408492, 1974.0],
          [11.012497, 47.408499, 1975.75],
          [11.012437, 47.408525, 1978.0],
          [11.012500, 47.408702, 1989.5],
          [11.012408, 47.408717, 1991.25],
          [11.012430, 47.408748, 1993.25],
          [11.012598, 47.408822, 1997.0],
          [11.012701, 47.408835, 1997.25],
          [11.012729, 47.408845, 1997.75],
          [11.012725, 47.408874, 2000.0],
          [11.012692, 47.408905, 2002.0],
          [11.012699, 47.408917, 2002.5],
          [11.012758, 47.408941, 2002.75],
          [11.012803, 47.408996, 2004.0],
          [11.012818, 47.409139, 2008.75],
          [11.012855, 47.409182, 2010.0],
          [11.012931, 47.409219, 2011.0],
          [11.012964, 47.409248, 2011.75],
          [11.012975, 47.409340, 2014.75],
          [11.012994, 47.409353, 2015.25],
          [11.013153, 47.409413, 2017.75],
          [11.013208, 47.409469, 2020.25],
          [11.013114, 47.409503, 2021.75],
          [11.013089, 47.409543, 2024.0],
          [11.013146, 47.409586, 2026.25],
          [11.013243, 47.409610, 2027.5],
          [11.013454, 47.409676, 2031.75],
          [11.013154, 47.409853, 2040.0],
          [11.012950, 47.410069, 2050.75],
          [11.012883, 47.410167, 2054.75],
          [11.012735, 47.410229, 2056.5],
          [11.012293, 47.410699, 2082.25],
          [11.012178, 47.410908, 2096.25],
          [11.012157, 47.410995, 2101.5],
          [11.012130, 47.411043, 2104.5],
          [11.011983, 47.411077, 2107.5],
          [11.011701, 47.411269, 2118.0],
          [11.011569, 47.411387, 2125.5],
          [11.011513, 47.411427, 2127.25],
          [11.011520, 47.411478, 2129.5],
          [11.011515, 47.411522, 2131.75],
          [11.011400, 47.411565, 2136.0],
          [11.011203, 47.411656, 2142.25],
          [11.010664, 47.411862, 2154.75],
          [11.010497, 47.411890, 2156.0],
          [11.010326, 47.411961, 2157.5],
          [11.010240, 47.412027, 2157.5],
          [11.010285, 47.412137, 2159.75],
          [11.010350, 47.412218, 2161.75],
          [11.010421, 47.412284, 2164.5],
          [11.010376, 47.412451, 2169.25],
          [11.010412, 47.412520, 2171.0],
          [11.010369, 47.412611, 2174.75],
          [11.010244, 47.412578, 2176.0],
          [11.010123, 47.412571, 2179.0],
          [11.010053, 47.412597, 2182.25],
          [11.009844, 47.412599, 2187.0],
          [11.009760, 47.412617, 2189.75],
          [11.009759, 47.412689, 2194.25],
          [11.009821, 47.412761, 2197.75],
          [11.009644, 47.412776, 2201.25],
          [11.009371, 47.412766, 2203.25],
          [11.009203, 47.412779, 2206.25],
          [11.009070, 47.412827, 2209.0],
          [11.008946, 47.412853, 2211.25],
          [11.008669, 47.412885, 2215.25],
          [11.008480, 47.412888, 2219.25],
          [11.008394, 47.412866, 2220.25],
          [11.008349, 47.412830, 2219.75],
          [11.008310, 47.412782, 2218.75],
          [11.008214, 47.412756, 2219.75],
          [11.008134, 47.412768, 2222.25],
          [11.008026, 47.412802, 2226.5],
          [11.007849, 47.412812, 2230.0],
          [11.007757, 47.412800, 2231.0],
          [11.007683, 47.412778, 2231.25],
          [11.007609, 47.412765, 2231.5],
          [11.007477, 47.412809, 2234.0],
          [11.007339, 47.412914, 2236.0],
          [11.007264, 47.412920, 2236.25],
          [11.007141, 47.413007, 2240.0],
          [11.006825, 47.412990, 2242.5],
          [11.006653, 47.413010, 2244.5],
          [11.006471, 47.413177, 2244.5],
          [11.006273, 47.413216, 2245.25],
          [11.006215, 47.413241, 2246.0],
          [11.006133, 47.413257, 2246.5],
          [11.006021, 47.413357, 2250.0],
          [11.005912, 47.413386, 2251.5],
          [11.005783, 47.413410, 2253.25],
          [11.005619, 47.413468, 2258.25],
          [11.005436, 47.413499, 2260.75],
          [11.005280, 47.413518, 2262.25],
          [11.005161, 47.413548, 2264.75],
          [11.004952, 47.413529, 2266.0],
          [11.004662, 47.413466, 2269.25],
          [11.004379, 47.413386, 2273.25],
          [11.004060, 47.413320, 2279.25],
          [11.003872, 47.413254, 2282.0],
          [11.003546, 47.413254, 2287.25],
          [11.003256, 47.413093, 2290.0],
          [11.003178, 47.413104, 2290.0],
          [11.003038, 47.413168, 2291.5],
          [11.002989, 47.413244, 2293.5],
          [11.003024, 47.413339, 2296.0],
          [11.002860, 47.413360, 2297.0],
          [11.002674, 47.413365, 2297.75],
          [11.002310, 47.413388, 2298.0],
          [11.002105, 47.413434, 2300.25],
          [11.001863, 47.413446, 2301.5],
          [11.001758, 47.413468, 2302.5],
          [11.001598, 47.413419, 2302.0],
          [11.001415, 47.413426, 2303.0],
          [11.001267, 47.413484, 2305.25],
          [11.001160, 47.413598, 2309.5],
          [11.001009, 47.413628, 2310.0],
          [11.001029, 47.413776, 2313.75],
          [11.000624, 47.413919, 2328.0],
          [11.000429, 47.414035, 2334.25],
          [11.000258, 47.414125, 2337.0],
          [11.000168, 47.414230, 2338.0],
          [11.000004, 47.414439, 2339.75],
          [10.999696, 47.414505, 2345.25],
          [10.999552, 47.414484, 2346.75],
          [10.999450, 47.414428, 2346.5],
          [10.999365, 47.414412, 2348.75],
          [10.999123, 47.414452, 2358.25],
          [10.998807, 47.414513, 2368.75],
          [10.998698, 47.414431, 2371.0],
          [10.998651, 47.414378, 2372.75],
          [10.998554, 47.414381, 2374.75],
          [10.998347, 47.414563, 2379.5],
          [10.997988, 47.414724, 2386.0],
          [10.997797, 47.414761, 2390.25],
          [10.997598, 47.414782, 2394.0],
          [10.997445, 47.414810, 2396.5],
          [10.997251, 47.414800, 2396.5],
          [10.997111, 47.414829, 2399.25],
          [10.996947, 47.414895, 2404.25],
          [10.996713, 47.414972, 2409.0],
          [10.996245, 47.415201, 2427.0],
          [10.996120, 47.415236, 2430.0],
          [10.995984, 47.415162, 2431.25],
          [10.995777, 47.415141, 2434.0],
          [10.995717, 47.415179, 2434.25],
          [10.995656, 47.415230, 2434.0],
          [10.995563, 47.415265, 2434.0],
          [10.995465, 47.415246, 2435.0],
          [10.995376, 47.415188, 2436.5],
          [10.995294, 47.415172, 2437.5],
          [10.995126, 47.415183, 2438.5],
          [10.994951, 47.415207, 2439.5],
          [10.994771, 47.415220, 2441.0],
          [10.994042, 47.415228, 2449.0],
          [10.993890, 47.415188, 2450.75],
          [10.993718, 47.415172, 2451.25],
          [10.993617, 47.415135, 2451.5],
          [10.993555, 47.415038, 2452.0],
          [10.993582, 47.414874, 2450.5],
          [10.993543, 47.414806, 2450.0],
          [10.993395, 47.414774, 2450.25],
          [10.993223, 47.414753, 2450.5],
          [10.993063, 47.414758, 2451.0],
          [10.992938, 47.414755, 2451.25],
          [10.992650, 47.414840, 2457.0],
          [10.992506, 47.414895, 2463.0],
          [10.992322, 47.414922, 2466.5],
          [10.992186, 47.415080, 2472.0],
          [10.992014, 47.415220, 2475.0],
          [10.991761, 47.415294, 2477.75],
          [10.991597, 47.415320, 2479.0],
          [10.991402, 47.415325, 2480.75],
          [10.990965, 47.415233, 2482.5],
          [10.990755, 47.415209, 2486.5],
          [10.990478, 47.415204, 2487.75],
          [10.990181, 47.415211, 2484.0],
          [10.989936, 47.415286, 2484.0],
          [10.989764, 47.415354, 2486.75],
          [10.989616, 47.415389, 2487.0],
          [10.989285, 47.415336, 2490.25],
          [10.988922, 47.415426, 2493.25],
          [10.988400, 47.415589, 2495.25],
          [10.988115, 47.415618, 2497.5],
          [10.987666, 47.415529, 2506.0],
          [10.987565, 47.415428, 2510.75],
          [10.987546, 47.415333, 2514.0],
          [10.987444, 47.415178, 2518.0],
          [10.987374, 47.415096, 2519.25],
          [10.987335, 47.415069, 2519.5],
          [10.987104, 47.414992, 2517.75],
          [10.986816, 47.414856, 2519.25],
          [10.986647, 47.414858, 2523.0],
          [10.986521, 47.414829, 2524.25],
          [10.986381, 47.414822, 2525.25],
          [10.985929, 47.414924, 2528.0],
          [10.985502, 47.414974, 2532.0],
          [10.985153, 47.414997, 2535.0],
          [10.984911, 47.415026, 2536.75],
          [10.984705, 47.415080, 2536.5],
          [10.984025, 47.415170, 2537.25],
          [10.983561, 47.415226, 2541.5],
          [10.983024, 47.415335, 2544.25],
          [10.981769, 47.415480, 2564.0],
          [10.981708, 47.415511, 2564.75],
          [10.981425, 47.415688, 2573.5],
          [10.981191, 47.415856, 2586.0],
          [10.981212, 47.415998, 2594.25],
          [10.981210, 47.416206, 2606.0],
          [10.981034, 47.416233, 2612.25],
          [10.980579, 47.416448, 2635.5],
          [10.980331, 47.416632, 2651.75],
          [10.980250, 47.416735, 2660.0],
          [10.980321, 47.416852, 2667.5],
          [10.980392, 47.416934, 2671.75],
          [10.980565, 47.417255, 2692.0],
          [10.980381, 47.417275, 2696.75],
          [10.980214, 47.417471, 2715.5],
          [10.980376, 47.417567, 2723.5],
          [10.980202, 47.417655, 2733.0],
          [10.980745, 47.417765, 2743.75],
          [10.980426, 47.417865, 2754.0],
          [10.980420, 47.417934, 2761.25],
          [10.980598, 47.418077, 2774.75],
          [10.980942, 47.418281, 2789.0],
          [10.980803, 47.418355, 2799.75],
          [10.980826, 47.418443, 2800.0],
          [10.981402, 47.418787, 2807.75],
          [10.981635, 47.418988, 2809.75],
          [10.981827, 47.419094, 2811.75],
          [10.981890, 47.419170, 2816.0],
          [10.982011, 47.419281, 2820.0],
          [10.982190, 47.419373, 2827.5],
          [10.982461, 47.419478, 2835.5],
          [10.982718, 47.419588, 2840.75],
          [10.982793, 47.419679, 2850.5],
          [10.982911, 47.419792, 2859.0],
          [10.983060, 47.419802, 2859.75],
          [10.983177, 47.419858, 2860.5],
          [10.983221, 47.419952, 2866.0],
          [10.983114, 47.419974, 2871.0],
          [10.983128, 47.420053, 2873.25],
          [10.983214, 47.420110, 2874.25],
          [10.983118, 47.420152, 2874.75],
          [10.983411, 47.420275, 2889.0],
          [10.983913, 47.420374, 2898.25],
          [10.983694, 47.420384, 2895.0],
          [10.983872, 47.420427, 2901.25],
          [10.983800, 47.420445, 2900.0],
          [10.983964, 47.420507, 2909.75],
          [10.984113, 47.420593, 2920.0],
          [10.984272, 47.420609, 2924.25],
          [10.984267, 47.420642, 2925.5],
          [10.984359, 47.420687, 2929.0],
          [10.984401, 47.420716, 2931.25],
          [10.984483, 47.420752, 2934.25],
          [10.984537, 47.420763, 2936.0],
          [10.984599, 47.420778, 2938.0],
          [10.984608, 47.420817, 2941.25],
          [10.984669, 47.420846, 2944.25],
          [10.984711, 47.420868, 2945.5],
          [10.984704, 47.420876, 2945.25],
          [10.984654, 47.420857, 2943.75],
          [10.984647, 47.420865, 2943.75],
          [10.984688, 47.420888, 2944.75],
          [10.984718, 47.420902, 2945.5],
          [10.984699, 47.420916, 2945.0],
          [10.984748, 47.420933, 2945.0],
          [10.984795, 47.420961, 2944.75],
          [10.984850, 47.420965, 2944.25],
          [10.985110, 47.421122, 2945.75],
          [10.985283, 47.421147, 2935.75]
        ]
      }
    }
  ]
}
