{
  "type": "FeatureCollection",
  "features": [
    {
      "type": "Feature",
      "properties": {
        "creator": "BRouter-1.7.10",
        "name": "brouter_mtb_0",
        "track-length": "8251",
        "filtered ascend": "988",
        "plain-ascend": "900",
        "total-time": "8835",
        "total-energy": "879953",
        "cost": "89293",
        "messages": [
          ["Longitude", "Latitude", "Elevation", "Distance", "CostPerKm", "ElevCost", "TurnCost", "NodeCost", "InitialCost", "WayTags", "NodeTags", "Time", "Energy"],
          ["10841659", "45885487", "71", "5", "16575", "0", "0", "0", "0", "reversedirection=yes highway=pedestrian surface=sett smoothness=intermediate", "", "0", "84"],
          ["10841690", "45885630", "72", "16", "16575", "0", "31", "0", "0", "reversedirection=yes highway=pedestrian surface=sett smoothness=good", "", "4", "409"],
          ["10841705", "45885677", "72", "5", "16575", "0", "0", "0", "0", "highway=pedestrian surface=sett smoothness=intermediate", "", "5", "516"],
          ["10841715", "45885675", "72", "1", "14575", "0", "31", "0", "0", "highway=pedestrian surface=sett bicycle=yes smoothness=good cycleway:both=no oneway=yes", "", "5", "538"],
          ["10841934", "45886083", "73", "50", "14575", "0", "34", "0", "0", "highway=pedestrian surface=sett bicycle=yes smoothness=intermediate cycleway:both=no oneway=yes", "", "16", "1654"],
          ["10841970", "45886205", "73", "14", "14575", "0", "0", "0", "0", "reversedirection=yes highway=pedestrian surface=sett bicycle=yes smoothness=good", "barrier=sally_port wheelchair=yes", "19", "1956"],
          ["10842059", "45886470", "74", "30", "14575", "0", "0", "0", "0", "reversedirection=yes highway=pedestrian surface=sett bicycle=yes smoothness=intermediate", "", "26", "2699"],
          ["10839860", "45886736", "75", "173", "14575", "0", "31", "0", "0", "reversedirection=yes highway=pedestrian surface=sett bicycle=yes smoothness=good", "", "65", "6575"],
          ["10839776", "45886763", "76", "7", "12335", "0", "0", "0", "0", "reversedirection=yes highway=pedestrian surface=sett bicycle=yes smoothness=good cycleway:both=no route_bicycle_lcn=yes", "", "67", "6752"],
          ["10839808", "45886824", "76", "8", "11495", "0", "69", "0", "30", "highway=residential surface=asphalt smoothness=excellent oneway=yes route_bicycle_lcn=yes", "nodeaccessgranted=yes highway=crossing crossing=uncontrolled", "69", "6956"],
          ["10839775", "45887302", "77", "53", "11495", "0", "2", "0", "0", "highway=residential surface=asphalt smoothness=excellent oneway=yes route_bicycle_lcn=yes", "nodeaccessgranted=yes highway=crossing crossing=uncontrolled", "84", "8427"],
          ["10839747", "45887640", "78", "37", "11495", "0", "0", "0", "0", "highway=residential surface=asphalt smoothness=excellent oneway=yes route_bicycle_lcn=yes", "nodeaccessgranted=yes highway=crossing crossing=uncontrolled", "94", "9491"],
          ["10839665", "45888485", "80", "95", "11495", "0", "0", "0", "0", "highway=residential surface=asphalt smoothness=excellent oneway=yes route_bicycle_lcn=yes", "nodeaccessgranted=yes highway=crossing crossing=uncontrolled", "125", "12520"],
          ["10839577", "45888547", "81", "10", "11495", "0", "12", "0", "0", "highway=residential surface=asphalt oneway=yes route_bicycle_lcn=yes", "nodeaccessgranted=yes barrier=jersey_barrier", "128", "12840"],
          ["10839448", "45888583", "81", "11", "11495", "0", "2", "0", "0", "highway=residential surface=asphalt oneway=yes route_bicycle_lcn=yes", "nodeaccessgranted=yes estimated_crossing_class=0", "132", "13213"],
          ["10839338", "45888547", "82", "9", "21950", "0", "20", "0", "80", "highway=secondary surface=asphalt estimated_traffic_class=5 smoothness=good cycleway:both=no oneway=yes", "estimated_crossing_class=3", "133", "13390"],
          ["10839337", "45888587", "83", "4", "13800", "0", "42", "0", "30", "reversedirection=yes highway=service", "highway=crossing crossing=unmarked", "134", "13473"],
          ["10839555", "45888677", "81", "21", "13275", "0", "61", "0", "30", "highway=footway surface=asphalt smoothness=intermediate", "kerb=flush", "141", "14142"],
          ["10839552", "45888801", "82", "14", "16575", "0", "0", "0", "30", "reversedirection=yes highway=pedestrian surface=sett smoothness=intermediate", "", "145", "14566"],
          ["10839549", "45888975", "82", "19", "16575", "0", "0", "0", "0", "reversedirection=yes highway=pedestrian surface=sett", "", "151", "15155"],
          ["10839539", "45889103", "82", "14", "13275", "0", "0", "0", "30", "reversedirection=yes highway=footway surface=asphalt", "highway=crossing", "155", "15577"],
          ["10839536", "45889167", "83", "7", "13275", "0", "0", "0", "0", "reversedirection=yes highway=footway surface=asphalt", "highway=crossing", "157", "15789"],
          ["10839457", "45889343", "83", "21", "13275", "0", "2", "0", "0", "reversedirection=yes highway=footway surface=asphalt", "highway=crossing crossing=uncontrolled", "164", "16454"],
          ["10839370", "45889515", "84", "20", "13275", "0", "0", "0", "0", "reversedirection=yes highway=footway surface=asphalt", "highway=crossing crossing=unmarked", "170", "17090"],
          ["10839189", "45889925", "85", "48", "13275", "0", "0", "0", "0", "reversedirection=yes highway=footway surface=asphalt", "highway=crossing crossing=unmarked", "180", "18069"],
          ["10839101", "45890133", "86", "24", "13275", "0", "0", "0", "0", "reversedirection=yes highway=footway surface=asphalt", "highway=crossing crossing=unmarked", "186", "18625"],
          ["10838992", "45890367", "87", "27", "13150", "0", "0", "0", "0", "reversedirection=yes highway=footway surface=asphalt", "highway=crossing crossing=unmarked", "194", "19409"],
          ["10838892", "45890591", "88", "26", "13150", "0", "0", "0", "0", "reversedirection=yes highway=footway surface=asphalt", "barrier=kerb", "202", "20222"],
          ["10838877", "45890623", "89", "4", "13150", "0", "0", "0", "0", "reversedirection=yes highway=footway surface=asphalt", "highway=crossing crossing=unmarked", "203", "20349"],
          ["10838863", "45890654", "89", "4", "13150", "0", "0", "0", "0", "reversedirection=yes highway=footway surface=asphalt", "barrier=kerb", "204", "20473"],
          ["10838745", "45890893", "89", "28", "13150", "0", "0", "0", "0", "reversedirection=yes highway=footway surface=asphalt", "barrier=kerb", "213", "21366"],
          ["10838719", "45890948", "90", "6", "13150", "0", "0", "0", "0", "reversedirection=yes highway=footway surface=asphalt", "highway=crossing crossing=unmarked", "215", "21562"],
          ["10838698", "45890990", "90", "5", "13150", "0", "0", "0", "0", "reversedirection=yes highway=footway surface=asphalt", "barrier=kerb", "217", "21730"],
          ["10836286", "45894374", "106", "423", "13150", "0", "0", "0", "0", "reversedirection=yes highway=footway surface=asphalt", "highway=crossing crossing=uncontrolled", "398", "39829"],
          ["10835875", "45895000", "110", "82", "13150", "0", "127", "0", "0", "reversedirection=yes highway=footway surface=asphalt", "highway=crossing", "435", "43518"],
          ["10835800", "45895096", "110", "12", "13150", "0", "0", "0", "0", "reversedirection=yes highway=footway surface=asphalt", "", "440", "44047"],
          ["10835838", "45895112", "110", "3", "13150", "0", "57", "0", "0", "highway=footway surface=asphalt", "highway=crossing", "441", "44172"],
          ["10835877", "45895127", "110", "3", "13150", "0", "0", "0", "0", "highway=footway surface=asphalt", "", "442", "44294"],
          ["10835387", "45895718", "115", "76", "10400", "0", "30", "0", "0", "reversedirection=yes highway=footway surface=sett", "barrier=kerb", "482", "48239"],
          ["10835363", "45895709", "115", "2", "13150", "0", "57", "0", "0", "highway=footway surface=asphalt", "", "483", "48329"],
          ["10835082", "45896078", "117", "46", "18115", "0", "90", "0", "50", "reversedirection=yes highway=unclassified surface=asphalt cycleway:both=no route_bicycle_lcn=yes", "", "506", "50616"],
          ["10831764", "45896819", "156", "305", "13450", "0", "76", "0", "30", "reversedirection=yes highway=residential surface=asphalt cycleway:both=no", "", "787", "78798"],
          ["10832210", "45897155", "164", "56", "9600", "0", "79", "0", "30", "reversedirection=yes highway=track surface=asphalt tracktype=grade1", "", "876", "87685"],
          ["10833635", "45899827", "175", "363", "7900", "0", "31", "0", "0", "reversedirection=yes highway=track surface=pebblestone tracktype=grade3", "", "1081", "108182"],
          ["10833748", "45900118", "176", "34", "13450", "0", "0", "0", "30", "reversedirection=yes highway=residential surface=asphalt", "", "1100", "110070"],
          ["10832673", "45902951", "216", "338", "7900", "0", "50", "0", "30", "highway=track surface=ground tracktype=grade3", "estimated_crossing_class=4", "1448", "144816"],
          ["10833779", "45906367", "260", "399", "7900", "0", "14", "0", "0", "highway=track surface=ground tracktype=grade3", "estimated_crossing_class=4", "1856", "185629"],
          ["10833605", "45908418", "272", "232", "18238", "0", "18", "0", "80", "highway=secondary surface=asphalt estimated_traffic_class=4 cycleway:both=no route_bicycle_lcn=yes", "nodeaccessgranted=yes estimated_crossing_class=3", "2026", "202705"],
          ["10833377", "45908573", "277", "25", "11454", "0", "25", "0", "30", "highway=service surface=asphalt route_bicycle_lcn=yes", "nodeaccessgranted=yes estimated_crossing_class=3", "2047", "204759"],
          ["10832099", "45909868", "294", "199", "13450", "0", "39", "0", "30", "highway=residential surface=asphalt cycleway:both=no", "", "2252", "225299"],
          ["10831444", "45912908", "264", "393", "4444", "0", "24", "0", "30", "reversedirection=yes highway=path surface=dirt foot=yes bicycle=yes mtb:scale=1", "", "2294", "228151"],
          ["10831449", "45912943", "263", "4", "9730", "0", "5", "0", "0", "reversedirection=yes highway=path surface=concrete foot=yes", "highway=crossing", "2294", "228151"],
          ["10831868", "45913084", "259", "37", "9730", "0", "17", "0", "0", "reversedirection=yes highway=path surface=concrete foot=yes", "", "2297", "228151"],
          ["10832020", "45913132", "263", "13", "7545", "0", "0", "0", "0", "reversedirection=yes highway=path surface=dirt foot=yes", "", "2298", "228207"],
          ["10834049", "45913308", "360", "596", "7800", "0", "297", "0", "0", "reversedirection=yes highway=path surface=ground mtb:scale=1", "", "3021", "300506"],
          ["10834192", "45913839", "372", "65", "7900", "0", "32", "0", "0", "reversedirection=yes highway=track surface=dirt tracktype=grade3", "", "3114", "309795"],
          ["10834612", "45913734", "375", "50", "7900", "0", "73", "0", "0", "highway=track surface=dirt tracktype=grade3", "", "3170", "315371"],
          ["10834455", "45915064", "401", "197", "4545", "0", "55", "0", "0", "reversedirection=yes highway=path surface=dirt foot=yes bicycle=yes mtb:scale=0", "", "3477", "346098"],
          ["10835771", "45914693", "360", "134", "7545", "0", "89", "0", "0", "highway=path surface=dirt foot=yes", "", "3496", "347183"],
          ["10834270", "45916425", "374", "234", "9700", "0", "17", "0", "0", "reversedirection=yes highway=track surface=ground tracktype=grade5", "", "3528", "349284"],
          ["10833062", "45917309", "410", "142", "11800", "0", "24", "0", "0", "highway=path surface=sett foot=yes bicycle=no smoothness=very_bad mtb:scale=1", "", "3778", "374318"],
          ["10832998", "45917374", "411", "9", "13150", "0", "17", "0", "30", "reversedirection=yes highway=footway surface=asphalt", "", "3791", "375633"],
          ["10832966", "45917608", "411", "28", "13150", "0", "36", "0", "0", "highway=footway surface=paving_stones", "", "3827", "379142"],
          ["10832935", "45917669", "411", "7", "13150", "0", "0", "0", "0", "highway=footway surface=asphalt", "", "3834", "379916"],
          ["10833020", "45917633", "411", "8", "13800", "0", "53", "0", "30", "highway=service", "estimated_crossing_class=5", "3843", "380742"],
          ["10832967", "45917999", "415", "41", "16700", "0", "44", "0", "30", "highway=pedestrian surface=sett oneway=yes", "", "3885", "385029"],
          ["10832946", "45918087", "416", "10", "10400", "0", "0", "0", "30", "reversedirection=yes highway=footway surface=sett", "", "3895", "385966"],
          ["10832845", "45919759", "429", "187", "16700", "0", "1", "0", "30", "reversedirection=yes highway=pedestrian surface=sett", "", "4041", "400614"],
          ["10832777", "45919918", "430", "18", "16700", "0", "0", "0", "0", "highway=pedestrian surface=sett", "", "4055", "402012"],
          ["10832687", "45920168", "434", "29", "16700", "0", "0", "0", "0", "reversedirection=yes highway=pedestrian surface=sett", "", "4081", "404628"],
          ["10832919", "45920799", "449", "77", "10400", "0", "18", "0", "30", "reversedirection=yes highway=footway surface=cobblestone", "", "4187", "415166"],
          ["10833655", "45921183", "458", "79", "21775", "0", "75", "0", "50", "reversedirection=yes highway=unclassified", "", "4294", "425922"],
          ["10832724", "45921221", "460", "74", "21775", "0", "83", "0", "0", "reversedirection=yes highway=unclassified surface=asphalt", "", "4356", "432070"],
          ["10832929", "45921276", "466", "19", "13800", "0", "61", "0", "30", "reversedirection=yes highway=service surface=cobblestone mtb:scale=0", "", "4372", "433696"],
          ["10831351", "45923851", "546", "342", "10300", "0", "23", "0", "30", "reversedirection=yes highway=path surface=cobblestone mtb:scale=0", "", "5003", "496801"],
          ["10830742", "45925059", "574", "145", "7800", "0", "4", "0", "0", "highway=path surface=ground foot=yes mtb:scale=0", "", "5296", "526046"],
          ["10831772", "45925700", "607", "113", "7300", "0", "7", "0", "0", "reversedirection=yes highway=track surface=dirt tracktype=grade2", "", "5547", "551228"],
          ["10831834", "45926020", "616", "36", "6600", "0", "5", "0", "0", "reversedirection=yes highway=track surface=sett tracktype=grade1", "", "5632", "559688"],
          ["10832014", "45926472", "629", "63", "16700", "0", "61", "0", "30", "reversedirection=yes highway=pedestrian surface=sett", "", "5770", "573499"],
          ["10831908", "45926525", "629", "10", "16700", "0", "32", "0", "0", "reversedirection=yes highway=pedestrian", "", "5790", "575466"],
          ["10831886", "45926544", "629", "3", "10400", "0", "2", "0", "30", "highway=footway surface=sett", "", "5795", "576024"],
          ["10832011", "45926526", "631", "10", "21860", "0", "159", "0", "50", "reversedirection=yes highway=tertiary surface=asphalt estimated_traffic_class=2 cycleway:both=no", "", "5814", "577898"],
          ["10831679", "45927118", "651", "79", "7700", "0", "50", "0", "30", "highway=track", "", "5967", "593217"],
          ["10830942", "45928264", "679", "159", "8700", "0", "35", "0", "0", "reversedirection=yes highway=track surface=dirt tracktype=grade4", "", "6271", "623628"],
          ["10831116", "45928213", "681", "15", "21775", "0", "1", "0", "50", "reversedirection=yes highway=unclassified surface=asphalt cycleway:both=no", "", "6297", "626169"],
          ["10830552", "45929227", "707", "121", "9600", "0", "89", "0", "30", "highway=track surface=concrete tracktype=grade1", "", "6537", "650170"],
          ["10830711", "45930172", "746", "110", "19800", "0", "25", "0", "0", "highway=path surface=dirt mtb:scale=3", "", "6805", "676966"],
          ["10831232", "45931623", "796", "259", "4800", "0", "31", "0", "0", "reversedirection=yes highway=path surface=ground bicycle=yes mtb:scale=1", "", "7349", "731406"],
          ["10832612", "45934711", "854", "372", "6800", "0", "14", "0", "0", "reversedirection=yes highway=path surface=dirt foot=yes bicycle=yes mtb:scale=2", "", "7962", "792659"],
          ["10831045", "45934751", "852", "124", "7300", "0", "23", "0", "0", "highway=track surface=ground tracktype=grade2", "", "8034", "799870"],
          ["10831984", "45935358", "870", "105", "7800", "0", "52", "0", "0", "highway=path surface=dirt foot=yes mtb:scale=1", "", "8124", "808900"],
          ["10831540", "45937600", "971", "320", "9800", "0", "104", "0", "0", "highway=path surface=dirt foot=yes mtb:scale=2", "", "8835", "879953"]
        ],
        "times": [0,0.84,4.099,5.169,5.381,7.845,10.628,12.649,16.545,18.015,19.565,22.76,26.986,28.65,38.761,44.148,46.795,48.861,55.346,58.181,61.547,65.74,67.007,67.507,68.249,69.552,82.138,84.26,89.912,94.331,94.895,97.992,106.022,107.33,107.973,112.215,121.134,125.176,126.749,128.373,130.046,132.104,133.872,134.705,137.769,140.21,140.804,141.391,144.125,145.008,145.626,150.919,151.511,155.73,157.854,164.504,165.098,169.893,170.862,180.649,186.208,194.046,196.463,202.174,203.443,204.683,213.603,215.566,217.246,230.687,231.703,238.419,240.15,246.28,254.176,264.568,272.717,279.091,284.399,292.289,301.056,310.6,314.624,339.851,340.665,352.684,359.526,369.087,381.74,398.201,424.512,426.044,426.795,427.187,428.729,429.919,431.085,432.227,435.083,440.372,441.624,442.85,457.063,482.292,483.196,492.622,496.051,506.061,507.968,509.487,514.985,518.97,522.713,525.192,527.348,529.541,537.267,541.007,551.876,558.478,572.126,578.926,584.68,592.054,599.745,617.058,624.536,649.754,655.297,670.372,687.219,714.368,731.916,740.097,744.28,749.937,756.932,787.87,799.187,809.338,848.781,857.994,863.855,876.742,893.473,917.374,941.939,947.295,951.128,961.829,971.937,973.101,975.215,976.338,978.284,993.869,1000.381,1011.735,1016.902,1021.707,1031.332,1032.782,1043.912,1046.214,1062.533,1081.694,1100.576,1109.718,1135.642,1152.882,1173.228,1209,1218.208,1251.91,1266.683,1288.796,1350.032,1424.066,1448.029,1463.882,1532.433,1644.775,1672.573,1716.04,1760.833,1829.191,1849.216,1856.16,1892.62,1921.782,1935.062,1950.528,1964.443,1979.814,2005.799,2026.922,2037.207,2047.455,2056.856,2066.621,2073.258,2081.13,2091.451,2118.454,2210.375,2231.794,2245.957,2252.855,2256.262,2259.986,2262.667,2263.227,2265.787,2267.395,2268.835,2271.137,2273.035,2275.83,2279.893,2282.991,2285.278,2287.758,2288.958,2291.918,2292.558,2293.438,2294.238,2294.558,2294.878,2297.198,2297.518,2298.078,2298.642,2303.403,2304.488,2307.499,2307.85,2313.558,2314.19,2317.908,2342.107,2359.019,2390.972,2415.772,2419.972,2427.146,2441.332,2470.146,2481.981,2491.771,2507.004,2529.418,2552.181,2592.348,2605.114,2618.021,2620.939,2637.269,2663.411,2689.509,2738.988,2756.451,2772.564,2794.49,2810.22,2816.227,2823.789,2838.437,2860.562,2874.13,2915.616,2936.078,2972.353,2986.523,3007.676,3015.483,3021.62,3026.935,3031.118,3044.317,3052.904,3063.799,3080.938,3095.504,3105.813,3114.513,3124.871,3137.23,3142.343,3146.183,3149.974,3152.859,3161.704,3170.269,3187.962,3204.2,3216.032,3260.098,3265.065,3270.153,3285.581,3297.304,3308.505,3315.711,3321.135,3332.428,3346.158,3356.064,3365.94,3391.135,3403.762,3412.605,3417.648,3446.227,3449.562,3453.783,3457.854,3465.925,3467.589,3469.18,3471.516,3477.545,3481.261,3483.045,3484.226,3485.646,3487.757,3488.387,3490.387,3490.867,3491.587,3492.147,3493.107,3493.507,3493.906,3494.146,3494.626,3495.586,3496.306,3497.026,3497.426,3498.466,3499.266,3500.386,3501.667,3502.947,3504.728,3505.208,3508.648,3510.648,3517.778,3521.882,3528.472,3536.273,3545.054,3562.412,3602.066,3683.968,3705.465,3771.123,3778.813,3786.259,3791.969,3798.813,3802.769,3811.582,3827.049,3834.793,3843.058,3853.21,3885.919,3895.289,3924.466,3934.156,3942.006,3965.881,3977.857,4009.304,4027.417,4037.93,4041.772,4054.302,4055.749,4072.492,4081.907,4112.378,4116.025,4141.12,4187.287,4207.29,4236.248,4275.459,4279.928,4284.926,4286.317,4294.854,4325.626,4332.292,4343.461,4350.854,4356.328,4359.356,4363.316,4367.748,4370.573,4372.588,4376.943,4391.856,4401.815,4434.261,4467.714,4509.964,4544.49,4575.547,4624.963,4660.371,4716.245,4742.548,4780.705,4806.227,4831.728,4878.257,4926.777,4964.677,4986.563,5003.643,5031.446,5052.282,5075.086,5098.375,5144.76,5222.931,5274.926,5289.128,5296.094,5320.763,5330.006,5419.027,5440.487,5484.042,5490.482,5508.477,5531.634,5547.913,5574.143,5602.263,5632.514,5648.499,5659.815,5664.322,5708.827,5717.379,5736.036,5754.295,5766.524,5770.623,5780.747,5790.291,5795.869,5814.613,5827.907,5835.375,5859.39,5881.074,5889.728,5894.857,5910.05,5922.123,5957.336,5961.501,5967.797,6007.563,6106.296,6132.78,6141.631,6201.466,6224.187,6231.602,6237.548,6248.625,6253.348,6260.048,6263.391,6271.908,6297.326,6307.426,6328.233,6424.196,6537.332,6544.227,6560.311,6587.739,6606.213,6633.893,6652.688,6712.042,6747.429,6805.29,6951.512,7127.15,7200.326,7217.741,7225.192,7236.694,7244.995,7270.005,7291.452,7304.962,7337.33,7349.693,7393.934,7426.737,7451.825,7521.82,7602.046,7652.798,7683.456,7708.082,7765.43,7828.205,7855.254,7878.088,7897.575,7942.792,7962.22,7968.958,8006.082,8028.38,8030.957,8034.327,8036.477,8058.334,8065.681,8074.443,8091.762,8103.024,8108.474,8116.313,8124.622,8126.694,8129.992,8132.228,8139.08,8143.702,8148.761,8151.309,8156.523,8165.941,8171.572,8191.994,8225.862,8237.722,8249.821,8263.686,8275.368,8328.062,8353.579,8392.079,8410.917,8432.729,8478.371,8512.247,8532.687,8558.584,8625.866,8645.046,8652.127,8661.689,8682.286,8693.306,8712.42,8733.173,8752.601,8760.858,8775.068,8780.825,8786.733,8795.71,8813.541,8825.73,8835.154]
      },
      "geometry": {
        "type": "LineString",
        "coordinates": [
          [10.841598, 45.885495, 71.5],
          [10.841659, 45.885487, 71.5],
          [10.841690, 45.885630, 72.25],
          [10.841705, 45.885677, 72.5],
          [10.841715, 45.885675, 72.5],
          [10.841756, 45.885768, 72.75],
          [10.841853, 45.885849, 73.0],
          [10.841880, 45.885927, 73.0],
          [10.841934, 45.886083, 73.0],
          [10.841951, 45.886146, 73.0],
          [10.841970, 45.886205, 73.25],
          [10.842011, 45.886321, 73.75],
          [10.842059, 45.886470, 74.0],
          [10.841974, 45.886481, 74.0],
          [10.841384, 45.886547, 74.0],
          [10.841062, 45.886583, 74.25],
          [10.840904, 45.886603, 74.5],
          [10.840791, 45.886616, 74.75],
          [10.840431, 45.886658, 75.0],
          [10.840267, 45.886678, 75.0],
          [10.840067, 45.886701, 75.0],
          [10.839860, 45.886736, 75.75],
          [10.839799, 45.886756, 76.0],
          [10.839776, 45.886763, 76.0],
          [10.839794, 45.886784, 76.0],
          [10.839808, 45.886824, 76.25],
          [10.839782, 45.887226, 77.0],
          [10.839775, 45.887302, 77.25],
          [10.839760, 45.887486, 77.75],
          [10.839749, 45.887625, 78.25],
          [10.839747, 45.887640, 78.25],
          [10.839740, 45.887728, 78.75],
          [10.839718, 45.887946, 79.5],
          [10.839715, 45.887978, 79.75],
          [10.839713, 45.888000, 79.75],
          [10.839703, 45.888115, 80.0],
          [10.839677, 45.888372, 80.25],
          [10.839665, 45.888485, 80.75],
          [10.839622, 45.888521, 81.0],
          [10.839577, 45.888547, 81.25],
          [10.839522, 45.888570, 81.5],
          [10.839448, 45.888583, 81.75],
          [10.839338, 45.888547, 82.75],
          [10.839337, 45.888587, 83.0],
          [10.839444, 45.888622, 82.0],
          [10.839539, 45.888643, 81.75],
          [10.839557, 45.888658, 81.75],
          [10.839555, 45.888677, 81.75],
          [10.839555, 45.888754, 82.0],
          [10.839554, 45.888779, 82.0],
          [10.839552, 45.888801, 82.25],
          [10.839551, 45.888953, 82.5],
          [10.839549, 45.888975, 82.5],
          [10.839539, 45.889103, 82.75],
          [10.839536, 45.889167, 83.0],
          [10.839457, 45.889343, 83.5],
          [10.839448, 45.889360, 83.5],
          [10.839383, 45.889489, 84.0],
          [10.839370, 45.889515, 84.25],
          [10.839189, 45.889925, 85.75],
          [10.839101, 45.890133, 86.5],
          [10.838992, 45.890367, 87.75],
          [10.838964, 45.890433, 88.25],
          [10.838892, 45.890591, 88.75],
          [10.838877, 45.890623, 89.0],
          [10.838863, 45.890654, 89.0],
          [10.838745, 45.890893, 89.5],
          [10.838719, 45.890948, 90.0],
          [10.838698, 45.890990, 90.25],
          [10.838555, 45.891292, 91.5],
          [10.838542, 45.891316, 91.5],
          [10.838453, 45.891468, 92.25],
          [10.838430, 45.891513, 92.25],
          [10.838345, 45.891658, 92.75],
          [10.838244, 45.891827, 93.75],
          [10.838130, 45.892025, 95.0],
          [10.838042, 45.892180, 95.75],
          [10.837950, 45.892313, 96.0],
          [10.837876, 45.892426, 96.25],
          [10.837764, 45.892575, 97.25],
          [10.837645, 45.892736, 98.25],
          [10.837517, 45.892903, 99.25],
          [10.837461, 45.892972, 99.75],
          [10.837049, 45.893350, 101.5],
          [10.837035, 45.893362, 101.75],
          [10.836834, 45.893552, 103.0],
          [10.836734, 45.893663, 103.75],
          [10.836612, 45.893820, 104.75],
          [10.836470, 45.894061, 105.25],
          [10.836286, 45.894374, 106.5],
          [10.836004, 45.894828, 109.0],
          [10.835947, 45.894827, 109.0],
          [10.835921, 45.894834, 109.0],
          [10.835910, 45.894845, 109.25],
          [10.835886, 45.894880, 109.25],
          [10.835879, 45.894904, 109.5],
          [10.835891, 45.894930, 109.5],
          [10.835919, 45.894943, 109.5],
          [10.835875, 45.895000, 110.0],
          [10.835800, 45.895096, 110.75],
          [10.835838, 45.895112, 110.75],
          [10.835877, 45.895127, 110.75],
          [10.835688, 45.895365, 112.25],
          [10.835387, 45.895718, 115.0],
          [10.835363, 45.895709, 115.0],
          [10.835249, 45.895859, 116.0],
          [10.835206, 45.895917, 116.5],
          [10.835082, 45.896078, 117.25],
          [10.835038, 45.896069, 117.5],
          [10.834999, 45.896074, 118.0],
          [10.834869, 45.896114, 118.25],
          [10.834780, 45.896159, 118.0],
          [10.834700, 45.896229, 117.5],
          [10.834647, 45.896277, 117.5],
          [10.834604, 45.896317, 117.75],
          [10.834561, 45.896360, 118.0],
          [10.834470, 45.896445, 121.75],
          [10.834422, 45.896479, 123.5],
          [10.834277, 45.896533, 125.25],
          [10.834184, 45.896556, 126.0],
          [10.834005, 45.896575, 128.75],
          [10.833917, 45.896573, 129.75],
          [10.833843, 45.896563, 130.25],
          [10.833746, 45.896544, 130.5],
          [10.833636, 45.896507, 130.5],
          [10.833364, 45.896406, 130.25],
          [10.833236, 45.896391, 131.75],
          [10.832902, 45.896384, 136.0],
          [10.832826, 45.896401, 137.0],
          [10.832658, 45.896461, 139.0],
          [10.832503, 45.896539, 142.0],
          [10.832330, 45.896676, 147.0],
          [10.832216, 45.896767, 149.25],
          [10.832165, 45.896808, 150.75],
          [10.832131, 45.896824, 151.75],
          [10.832082, 45.896834, 152.5],
          [10.832014, 45.896838, 153.0],
          [10.831764, 45.896819, 156.75],
          [10.831765, 45.896886, 159.75],
          [10.831786, 45.896940, 161.75],
          [10.831983, 45.897100, 164.75],
          [10.832044, 45.897129, 165.25],
          [10.832086, 45.897141, 165.25],
          [10.832210, 45.897155, 164.25],
          [10.832370, 45.897207, 164.75],
          [10.832534, 45.897355, 166.25],
          [10.832763, 45.897513, 167.0],
          [10.832852, 45.897530, 166.0],
          [10.832918, 45.897557, 165.0],
          [10.833158, 45.897721, 163.0],
          [10.833441, 45.898038, 161.5],
          [10.833449, 45.898091, 161.0],
          [10.833411, 45.898168, 161.75],
          [10.833382, 45.898197, 162.5],
          [10.833336, 45.898226, 164.0],
          [10.833085, 45.898342, 168.25],
          [10.833049, 45.898425, 169.0],
          [10.833039, 45.898600, 169.25],
          [10.833056, 45.898679, 169.75],
          [10.833091, 45.898758, 169.75],
          [10.833227, 45.898980, 168.25],
          [10.833237, 45.899019, 168.75],
          [10.833231, 45.899191, 172.0],
          [10.833246, 45.899230, 172.5],
          [10.833551, 45.899534, 171.25],
          [10.833635, 45.899827, 175.0],
          [10.833748, 45.900118, 176.5],
          [10.833595, 45.900155, 179.5],
          [10.833589, 45.900454, 182.25],
          [10.833548, 45.900630, 185.25],
          [10.833578, 45.900841, 187.0],
          [10.833537, 45.901181, 191.0],
          [10.833478, 45.901275, 192.0],
          [10.833263, 45.901487, 198.0],
          [10.833166, 45.901572, 201.25],
          [10.833082, 45.901713, 204.0],
          [10.832906, 45.902150, 207.75],
          [10.832734, 45.902724, 214.0],
          [10.832673, 45.902951, 216.25],
          [10.832649, 45.903117, 217.25],
          [10.832649, 45.903669, 225.25],
          [10.832790, 45.904478, 236.5],
          [10.833000, 45.904749, 238.25],
          [10.833246, 45.905153, 242.75],
          [10.833360, 45.905537, 248.75],
          [10.833732, 45.906096, 254.5],
          [10.833834, 45.906312, 256.5],
          [10.833779, 45.906367, 260.0],
          [10.833741, 45.906771, 260.25],
          [10.833668, 45.907108, 263.0],
          [10.833623, 45.907276, 264.25],
          [10.833536, 45.907431, 267.0],
          [10.833492, 45.907593, 268.0],
          [10.833482, 45.907799, 268.25],
          [10.833569, 45.908133, 270.5],
          [10.833605, 45.908418, 272.5],
          [10.833479, 45.908492, 275.5],
          [10.833377, 45.908573, 277.25],
          [10.833317, 45.908662, 278.25],
          [10.833289, 45.908768, 278.75],
          [10.833240, 45.908831, 279.75],
          [10.833170, 45.908890, 281.0],
          [10.833051, 45.908973, 281.0],
          [10.832763, 45.909101, 285.75],
          [10.832074, 45.909419, 297.0],
          [10.831949, 45.909596, 297.25],
          [10.831975, 45.909778, 296.0],
          [10.832099, 45.909868, 294.5],
          [10.832293, 45.909919, 291.25],
          [10.832456, 45.910017, 288.5],
          [10.832750, 45.910236, 280.0],
          [10.832759, 45.910300, 279.0],
          [10.832686, 45.910587, 277.25],
          [10.832637, 45.910751, 277.5],
          [10.832578, 45.910909, 274.0],
          [10.832299, 45.911075, 275.25],
          [10.832143, 45.911120, 278.0],
          [10.831960, 45.911320, 276.25],
          [10.831775, 45.911560, 277.0],
          [10.831692, 45.911760, 276.75],
          [10.831662, 45.911930, 276.0],
          [10.831685, 45.912206, 271.5],
          [10.831677, 45.912344, 267.5],
          [10.831555, 45.912663, 265.25],
          [10.831511, 45.912725, 265.5],
          [10.831481, 45.912826, 264.5],
          [10.831444, 45.912908, 264.0],
          [10.831449, 45.912943, 263.25],
          [10.831482, 45.912968, 262.5],
          [10.831825, 45.913072, 259.5],
          [10.831868, 45.913084, 259.5],
          [10.831951, 45.913112, 260.25],
          [10.832020, 45.913132, 263.25],
          [10.832234, 45.913125, 271.0],
          [10.832266, 45.913111, 272.25],
          [10.832310, 45.913017, 271.25],
          [10.832329, 45.913023, 272.75],
          [10.832361, 45.913106, 278.25],
          [10.832373, 45.913110, 279.25],
          [10.832420, 45.913075, 280.75],
          [10.832468, 45.913218, 291.0],
          [10.832408, 45.913321, 292.0],
          [10.832278, 45.913516, 293.75],
          [10.832192, 45.913668, 297.25],
          [10.832212, 45.913692, 299.0],
          [10.832271, 45.913671, 300.0],
          [10.832388, 45.913686, 302.75],
          [10.832570, 45.913735, 309.0],
          [10.832642, 45.913740, 311.75],
          [10.832695, 45.913714, 312.75],
          [10.832771, 45.913663, 313.5],
          [10.832859, 45.913563, 313.5],
          [10.832951, 45.913433, 312.5],
          [10.833198, 45.913207, 314.0],
          [10.833257, 45.913104, 314.5],
          [10.833224, 45.912889, 309.75],
          [10.833265, 45.912853, 311.0],
          [10.833353, 45.912981, 317.0],
          [10.833387, 45.913158, 322.5],
          [10.833316, 45.913378, 322.25],
          [10.833148, 45.913696, 329.25],
          [10.833032, 45.913823, 329.5],
          [10.832951, 45.913958, 331.0],
          [10.832889, 45.914133, 334.0],
          [10.832835, 45.914252, 336.25],
          [10.832837, 45.914298, 338.25],
          [10.832903, 45.914312, 342.5],
          [10.832995, 45.914264, 345.0],
          [10.833118, 45.914156, 345.25],
          [10.833212, 45.914108, 347.5],
          [10.833449, 45.913951, 352.25],
          [10.833532, 45.913835, 353.25],
          [10.833620, 45.913561, 353.0],
          [10.833714, 45.913451, 353.75],
          [10.833904, 45.913343, 356.75],
          [10.833984, 45.913308, 358.25],
          [10.834049, 45.913308, 360.25],
          [10.834085, 45.913327, 362.0],
          [10.834103, 45.913353, 363.25],
          [10.834130, 45.913431, 365.0],
          [10.834131, 45.913486, 365.75],
          [10.834076, 45.913542, 366.0],
          [10.834137, 45.913640, 368.25],
          [10.834204, 45.913722, 370.25],
          [10.834210, 45.913787, 371.75],
          [10.834192, 45.913839, 372.5],
          [10.834245, 45.913773, 371.75],
          [10.834324, 45.913695, 371.0],
          [10.834369, 45.913666, 370.75],
          [10.834415, 45.913645, 370.5],
          [10.834462, 45.913632, 370.75],
          [10.834499, 45.913634, 371.25],
          [10.834587, 45.913672, 373.5],
          [10.834612, 45.913734, 375.75],
          [10.834646, 45.913843, 380.0],
          [10.834637, 45.913933, 383.5],
          [10.834616, 45.913994, 385.75],
          [10.834491, 45.914187, 390.5],
          [10.834488, 45.914211, 391.0],
          [10.834514, 45.914229, 392.0],
          [10.834621, 45.914237, 395.75],
          [10.834687, 45.914218, 397.5],
          [10.834757, 45.914188, 397.75],
          [10.834804, 45.914185, 398.0],
          [10.834830, 45.914200, 398.75],
          [10.834853, 45.914249, 400.5],
          [10.834880, 45.914310, 402.75],
          [10.834888, 45.914354, 404.25],
          [10.834873, 45.914395, 405.25],
          [10.834799, 45.914502, 406.75],
          [10.834752, 45.914555, 407.25],
          [10.834733, 45.914595, 408.0],
          [10.834705, 45.914608, 407.75],
          [10.834518, 45.914761, 405.25],
          [10.834499, 45.914784, 404.75],
          [10.834493, 45.914822, 404.5],
          [10.834498, 45.914856, 404.5],
          [10.834554, 45.914928, 403.75],
          [10.834560, 45.914946, 403.5],
          [10.834555, 45.914967, 403.25],
          [10.834538, 45.914988, 403.25],
          [10.834455, 45.915064, 401.0],
          [10.834534, 45.915033, 401.25],
          [10.834584, 45.915028, 400.5],
          [10.834634, 45.915036, 398.75],
          [10.834711, 45.915025, 398.0],
          [10.834799, 45.914994, 395.5],
          [10.834875, 45.914976, 391.75],
          [10.835160, 45.914867, 382.5],
          [10.835219, 45.914835, 380.75],
          [10.835319, 45.914798, 377.0],
          [10.835374, 45.914752, 376.5],
          [10.835424, 45.914648, 374.0],
          [10.835431, 45.914599, 372.75],
          [10.835455, 45.914556, 370.25],
          [10.835496, 45.914552, 367.5],
          [10.835571, 45.914578, 363.5],
          [10.835693, 45.914637, 361.0],
          [10.835771, 45.914693, 360.0],
          [10.835774, 45.914778, 353.75],
          [10.835749, 45.914819, 350.25],
          [10.835619, 45.914890, 353.75],
          [10.835530, 45.914951, 358.0],
          [10.835433, 45.915057, 354.75],
          [10.835263, 45.915142, 354.5],
          [10.835083, 45.915218, 361.75],
          [10.834925, 45.915338, 363.25],
          [10.834892, 45.915382, 361.25],
          [10.834637, 45.915728, 355.75],
          [10.834554, 45.915941, 356.5],
          [10.834400, 45.916281, 367.0],
          [10.834346, 45.916359, 370.5],
          [10.834270, 45.916425, 374.75],
          [10.834191, 45.916473, 378.25],
          [10.834133, 45.916532, 380.5],
          [10.834007, 45.916626, 383.5],
          [10.833791, 45.916650, 399.0],
          [10.833532, 45.916979, 401.5],
          [10.833434, 45.917061, 405.0],
          [10.833121, 45.917302, 410.25],
          [10.833062, 45.917309, 410.75],
          [10.833028, 45.917342, 411.0],
          [10.832998, 45.917374, 411.0],
          [10.833028, 45.917417, 411.0],
          [10.833034, 45.917442, 411.0],
          [10.833031, 45.917501, 411.0],
          [10.832966, 45.917608, 411.5],
          [10.832935, 45.917669, 411.75],
          [10.833020, 45.917633, 411.75],
          [10.833030, 45.917725, 412.5],
          [10.832967, 45.917999, 415.25],
          [10.832946, 45.918087, 416.0],
          [10.832886, 45.918372, 417.75],
          [10.832864, 45.918490, 417.75],
          [10.832866, 45.918591, 418.25],
          [10.832877, 45.918883, 420.25],
          [10.832907, 45.919034, 421.5],
          [10.832932, 45.919415, 424.25],
          [10.832922, 45.919614, 427.5],
          [10.832864, 45.919720, 428.75],
          [10.832845, 45.919759, 429.0],
          [10.832785, 45.919901, 430.0],
          [10.832777, 45.919918, 430.0],
          [10.832724, 45.920081, 432.75],
          [10.832687, 45.920168, 434.75],
          [10.832890, 45.920323, 441.25],
          [10.832904, 45.920347, 441.75],
          [10.832905, 45.920514, 444.5],
          [10.832919, 45.920799, 449.75],
          [10.833082, 45.920842, 453.0],
          [10.833277, 45.920910, 458.75],
          [10.833602, 45.921027, 459.0],
          [10.833638, 45.921047, 458.0],
          [10.833678, 45.921091, 455.25],
          [10.833681, 45.921113, 454.0],
          [10.833655, 45.921183, 458.75],
          [10.833217, 45.921143, 459.0],
          [10.833118, 45.921142, 460.0],
          [10.832938, 45.921154, 460.5],
          [10.832819, 45.921184, 460.75],
          [10.832724, 45.921221, 460.75],
          [10.832763, 45.921246, 462.0],
          [10.832823, 45.921240, 462.75],
          [10.832890, 45.921245, 464.25],
          [10.832920, 45.921256, 465.25],
          [10.832929, 45.921276, 466.25],
          [10.832913, 45.921307, 467.5],
          [10.832806, 45.921403, 468.25],
          [10.832755, 45.921476, 470.0],
          [10.832670, 45.921675, 475.75],
          [10.832610, 45.921870, 480.5],
          [10.832593, 45.922096, 486.5],
          [10.832554, 45.922272, 491.0],
          [10.832498, 45.922426, 494.5],
          [10.832476, 45.922653, 501.75],
          [10.832380, 45.922811, 505.0],
          [10.832251, 45.923061, 510.0],
          [10.832263, 45.923186, 514.5],
          [10.832303, 45.923341, 520.75],
          [10.832279, 45.923444, 524.25],
          [10.832192, 45.923533, 527.0],
          [10.831961, 45.923633, 532.0],
          [10.831689, 45.923665, 538.25],
          [10.831482, 45.923717, 542.0],
          [10.831387, 45.923780, 544.75],
          [10.831351, 45.923851, 546.25],
          [10.831277, 45.923959, 548.75],
          [10.831238, 45.924044, 550.75],
          [10.831214, 45.924143, 553.0],
          [10.831221, 45.924238, 556.0],
          [10.831169, 45.924429, 559.75],
          [10.830928, 45.924735, 565.5],
          [10.830778, 45.924950, 571.5],
          [10.830740, 45.925021, 573.25],
          [10.830742, 45.925059, 574.0],
          [10.830806, 45.925171, 577.5],
          [10.830836, 45.925207, 578.75],
          [10.831244, 45.925401, 590.0],
          [10.831355, 45.925440, 593.5],
          [10.831591, 45.925493, 598.75],
          [10.831623, 45.925506, 599.75],
          [10.831678, 45.925562, 602.25],
          [10.831725, 45.925644, 605.25],
          [10.831772, 45.925700, 607.5],
          [10.831765, 45.925803, 610.5],
          [10.831783, 45.925910, 613.0],
          [10.831834, 45.926020, 616.0],
          [10.831925, 45.926040, 618.0],
          [10.831964, 45.926071, 619.25],
          [10.831970, 45.926092, 620.0],
          [10.832015, 45.926259, 623.75],
          [10.832011, 45.926292, 624.25],
          [10.831971, 45.926372, 625.0],
          [10.831917, 45.926443, 626.5],
          [10.831991, 45.926457, 628.25],
          [10.832014, 45.926472, 629.25],
          [10.831967, 45.926502, 629.75],
          [10.831908, 45.926525, 629.5],
          [10.831886, 45.926544, 629.75],
          [10.832011, 45.926526, 631.25],
          [10.831987, 45.926589, 633.25],
          [10.831960, 45.926618, 634.0],
          [10.831851, 45.926706, 635.5],
          [10.831744, 45.926780, 637.5],
          [10.831696, 45.926806, 638.25],
          [10.831668, 45.926821, 638.75],
          [10.831625, 45.926885, 642.0],
          [10.831621, 45.926935, 644.75],
          [10.831647, 45.927076, 649.5],
          [10.831657, 45.927097, 650.25],
          [10.831679, 45.927118, 651.0],
          [10.831543, 45.927258, 653.5],
          [10.831318, 45.927631, 662.5],
          [10.831255, 45.927750, 665.5],
          [10.831222, 45.927784, 666.0],
          [10.830956, 45.928000, 671.0],
          [10.830820, 45.928089, 672.5],
          [10.830781, 45.928127, 672.5],
          [10.830773, 45.928165, 673.25],
          [10.830786, 45.928228, 675.25],
          [10.830801, 45.928252, 676.0],
          [10.830849, 45.928272, 677.75],
          [10.830880, 45.928275, 678.25],
          [10.830942, 45.928264, 679.25],
          [10.831116, 45.928213, 681.0],
          [10.831107, 45.928267, 682.75],
          [10.831067, 45.928370, 685.0],
          [10.830845, 45.928784, 694.25],
          [10.830552, 45.929227, 707.25],
          [10.830559, 45.929262, 709.0],
          [10.830644, 45.929306, 713.5],
          [10.830657, 45.929412, 719.0],
          [10.830639, 45.929487, 721.75],
          [10.830582, 45.929584, 724.25],
          [10.830573, 45.929656, 727.25],
          [10.830581, 45.929862, 734.25],
          [10.830628, 45.929988, 738.75],
          [10.830711, 45.930172, 746.5],
          [10.830583, 45.930649, 757.75],
          [10.830426, 45.931310, 772.0],
          [10.830317, 45.931685, 777.0],
          [10.830350, 45.931795, 778.75],
          [10.830399, 45.931830, 780.5],
          [10.830491, 45.931832, 783.25],
          [10.830545, 45.931803, 784.5],
          [10.830706, 45.931755, 787.75],
          [10.830842, 45.931697, 790.25],
          [10.830915, 45.931650, 791.0],
          [10.831138, 45.931613, 794.75],
          [10.831232, 45.931623, 796.75],
          [10.831475, 45.931715, 803.75],
          [10.831577, 45.931845, 807.25],
          [10.831617, 45.931954, 809.0],
          [10.831866, 45.932200, 816.5],
          [10.831989, 45.932520, 825.25],
          [10.832031, 45.932751, 829.75],
          [10.832050, 45.932914, 831.25],
          [10.832107, 45.933047, 833.5],
          [10.832299, 45.933332, 838.0],
          [10.832387, 45.933694, 843.25],
          [10.832341, 45.933905, 843.25],
          [10.832378, 45.934085, 846.0],
          [10.832437, 45.934228, 848.25],
          [10.832594, 45.934551, 852.25],
          [10.832612, 45.934711, 854.25],
          [10.832534, 45.934739, 854.25],
          [10.831901, 45.934748, 854.25],
          [10.831297, 45.934803, 853.75],
          [10.831213, 45.934796, 853.5],
          [10.831045, 45.934751, 852.0],
          [10.831065, 45.934803, 853.75],
          [10.831247, 45.935005, 860.25],
          [10.831336, 45.935053, 861.75],
          [10.831442, 45.935099, 863.25],
          [10.831661, 45.935166, 865.0],
          [10.831792, 45.935228, 866.75],
          [10.831863, 45.935250, 867.25],
          [10.831932, 45.935300, 868.75],
          [10.831984, 45.935358, 870.25],
          [10.831989, 45.935378, 870.75],
          [10.831964, 45.935401, 871.75],
          [10.831940, 45.935408, 872.25],
          [10.831863, 45.935409, 873.0],
          [10.831816, 45.935418, 873.75],
          [10.831779, 45.935447, 875.5],
          [10.831755, 45.935452, 876.0],
          [10.831708, 45.935459, 876.75],
          [10.831614, 45.935456, 878.0],
          [10.831558, 45.935466, 879.5],
          [10.831432, 45.935521, 884.25],
          [10.831279, 45.935636, 890.5],
          [10.831291, 45.935692, 892.75],
          [10.831336, 45.935740, 894.5],
          [10.831405, 45.935783, 895.5],
          [10.831456, 45.935829, 896.5],
          [10.831555, 45.936028, 904.0],
          [10.831560, 45.936127, 908.5],
          [10.831607, 45.936268, 913.0],
          [10.831614, 45.936338, 915.5],
          [10.831641, 45.936421, 918.5],
          [10.831725, 45.936585, 922.0],
          [10.831728, 45.936712, 926.5],
          [10.831747, 45.936791, 927.75],
          [10.831789, 45.936895, 929.0],
          [10.831787, 45.937135, 938.0],
          [10.831769, 45.937209, 941.5],
          [10.831774, 45.937235, 942.5],
          [10.831797, 45.937272, 943.75],
          [10.831875, 45.937336, 944.25],
          [10.831905, 45.937373, 945.0],
          [10.831890, 45.937445, 948.75],
          [10.831856, 45.937511, 953.25],
          [10.831789, 45.937557, 957.5],
          [10.831782, 45.937588, 958.75],
          [10.831757, 45.937625, 961.0],
          [10.831732, 45.937639, 962.5],
          [10.831705, 45.937642, 964.0],
          [10.831673, 45.937630, 965.25],
          [10.831624, 45.937584, 966.5],
          [10.831572, 45.937579, 969.0],
          [10.831540, 45.937600, 971.25]
        ]
      }
    }
  ]
}
