{
  "type": "FeatureCollection",
  "features": [
    {
      "type": "Feature",
      "properties": {
        "creator": "BRouter-1.7.10",
        "name": "brouter_trekking_0",
        "track-length": "15005",
        "filtered ascend": "24",
        "plain-ascend": "22",
        "total-time": "2660",
        "total-energy": "266043",
        "cost": "15560",
        "messages": [
          ["Longitude", "Latitude", "Elevation", "Distance", "CostPerKm", "ElevCost", "TurnCost", "NodeCost", "InitialCost", "WayTags", "NodeTags", "Time", "Energy"],
          ["13044235", "47799297", "423", "35", "2250", "0", "0", "0", "0", "reversedirection=yes highway=pedestrian surface=paving_stones bicycle=yes smoothness=excellent", "", "6", "660"],
          ["13044276", "47799289", "423", "3", "2250", "0", "0", "0", "0", "reversedirection=yes highway=pedestrian surface=paving_stones bicycle=yes smoothness=good", "", "7", "715"],
          ["13044916", "47799140", "423", "51", "2250", "0", "0", "0", "0", "highway=pedestrian surface=paving_stones bicycle=yes smoothness=good", "", "16", "1638"],
          ["13045022", "47799117", "423", "8", "2250", "0", "0", "0", "0", "reversedirection=yes highway=pedestrian surface=sett bicycle=yes smoothness=intermediate", "", "17", "1779"],
          ["13045308", "47798951", "423", "28", "2250", "0", "7", "0", "0", "highway=pedestrian surface=sett bicycle=yes smoothness=intermediate", "", "22", "2271"],
          ["13045427", "47798882", "423", "12", "2250", "0", "0", "0", "0", "highway=pedestrian surface=sett bicycle=yes smoothness=good", "", "24", "2481"],
          ["13045928", "47798797", "423", "39", "2250", "0", "9", "0", "0", "highway=pedestrian surface=paving_stones bicycle=yes smoothness=good", "", "31", "3194"],
          ["13047322", "47798719", "424", "105", "2250", "0", "5", "0", "0", "highway=pedestrian surface=paving_stones bicycle=yes", "", "52", "5248"],
          ["13048361", "47798779", "423", "78", "2250", "0", "1", "0", "0", "highway=pedestrian surface=asphalt bicycle=yes", "", "66", "6664"],
          ["13048435", "47798922", "423", "16", "1150", "0", "54", "0", "0", "highway=living_street surface=asphalt bicycle=yes", "", "69", "6919"],
          ["13048551", "47799037", "422", "15", "1150", "0", "3", "0", "0", "reversedirection=yes highway=living_street surface=asphalt bicycle=yes", "barrier=bollard bicycle=yes foot=yes motor_vehicle=permit horse=unknown", "71", "7120"],
          ["13048687", "47799170", "421", "18", "1150", "0", "0", "0", "0", "reversedirection=yes highway=living_street surface=asphalt foot=yes bicycle=yes", "", "73", "7324"],
          ["13048742", "47799235", "421", "8", "1150", "0", "0", "0", "0", "highway=living_street surface=asphalt foot=yes bicycle=yes", "highway=crossing crossing=uncontrolled", "74", "7407"],
          ["13048803", "47799307", "419", "9", "1150", "0", "0", "0", "0", "highway=living_street surface=asphalt foot=yes bicycle=yes", "estimated_crossing_class=0", "75", "7545"],
          ["13048913", "47799344", "418", "9", "1050", "0", "15", "0", "0", "highway=cycleway surface=asphalt smoothness=excellent", "", "76", "7651"],
          ["13052792", "47797962", "417", "330", "1000", "0", "0", "0", "0", "highway=cycleway surface=asphalt foot=designated bicycle=designated route_bicycle_icn=yes route_bicycle_ncn=yes route_bicycle_rcn=yes", "", "117", "11784"],
          ["13054163", "47797366", "419", "126", "1000", "0", "0", "0", "0", "reversedirection=yes highway=cycleway surface=asphalt foot=designated bicycle=designated route_bicycle_icn=yes route_bicycle_ncn=yes route_bicycle_rcn=yes", "", "141", "14106"],
          ["13054130", "47797303", "420", "7", "1000", "0", "0", "0", "0", "highway=cycleway surface=asphalt foot=designated bicycle=designated smoothness=excellent route_bicycle_icn=yes route_bicycle_ncn=yes route_bicycle_rcn=yes", "", "142", "14282"],
          ["13054437", "47797169", "421", "27", "1000", "0", "0", "0", "0", "highway=residential surface=asphalt bicycle=yes smoothness=good cycleway:both=no oneway=yes oneway:bicycle=no route_bicycle_icn=yes route_bicycle_ncn=yes route_bicycle_rcn=yes", "", "150", "15003"],
          ["13054557", "47797181", "420", "9", "1000", "0", "0", "0", "0", "highway=residential surface=asphalt bicycle=designated smoothness=intermediate vehicle=destination oneway=yes oneway:bicycle=no route_bicycle_icn=yes route_bicycle_rcn=yes bicycle_road=yes", "nodeaccessgranted=yes highway=crossing crossing=unmarked kerb=flush", "151", "15173"],
          ["13055941", "47796553", "419", "125", "1000", "0", "0", "0", "0", "highway=residential surface=asphalt bicycle=designated smoothness=intermediate vehicle=destination oneway=yes oneway:bicycle=no route_bicycle_icn=yes route_bicycle_rcn=yes bicycle_road=yes", "", "173", "17377"],
          ["13058514", "47795269", "420", "240", "1000", "0", "0", "0", "0", "highway=residential surface=asphalt bicycle=designated smoothness=good vehicle=destination oneway=yes oneway:bicycle=no route_bicycle_icn=yes route_bicycle_rcn=yes bicycle_road=yes", "", "215", "21558"],
          ["13058586", "47795154", "420", "14", "1000", "0", "0", "0", "0", "highway=residential surface=asphalt smoothness=good route_bicycle_icn=yes route_bicycle_rcn=yes", "", "218", "21809"],
          ["13058713", "47795077", "420", "13", "1000", "0", "0", "0", "0", "highway=residential surface=asphalt bicycle=designated smoothness=good route_bicycle_icn=yes route_bicycle_rcn=yes bicycle_road=yes", "", "220", "22072"],
          ["13059679", "47794601", "419", "90", "1000", "0", "0", "0", "0", "highway=residential surface=asphalt bicycle=designated smoothness=good vehicle=destination route_bicycle_icn=yes route_bicycle_rcn=yes bicycle_road=yes", "", "239", "23947"],
          ["13061401", "47793602", "421", "171", "1000", "0", "0", "0", "0", "highway=residential surface=asphalt bicycle=designated smoothness=excellent vehicle=destination route_bicycle_icn=yes route_bicycle_rcn=yes bicycle_road=yes", "nodeaccessgranted=yes highway=crossing crossing=uncontrolled", "270", "27093"],
          ["13062622", "47792923", "420", "118", "1000", "0", "0", "0", "0", "highway=residential surface=asphalt bicycle=designated smoothness=excellent vehicle=destination route_bicycle_icn=yes route_bicycle_rcn=yes bicycle_road=yes", "nodeaccessgranted=yes highway=crossing crossing=uncontrolled", "289", "28925"],
          ["13065115", "47791544", "421", "242", "1000", "0", "0", "0", "0", "highway=residential surface=asphalt bicycle=designated smoothness=excellent vehicle=destination route_bicycle_icn=yes route_bicycle_rcn=yes bicycle_road=yes", "nodeaccessgranted=yes highway=crossing crossing=marked kerb=lowered", "333", "33308"],
          ["13068033", "47789798", "422", "293", "1000", "0", "0", "0", "0", "highway=residential surface=asphalt bicycle=designated smoothness=excellent vehicle=destination route_bicycle_icn=yes route_bicycle_rcn=yes bicycle_road=yes", "nodeaccessgranted=yes highway=crossing crossing=uncontrolled kerb=lowered", "385", "38543"],
          ["13068949", "47789103", "422", "103", "1000", "0", "0", "0", "0", "highway=residential surface=asphalt bicycle=designated smoothness=excellent vehicle=destination route_bicycle_icn=yes route_bicycle_rcn=yes bicycle_road=yes", "", "405", "40510"],
          ["13073833", "47785318", "421", "564", "1000", "0", "0", "0", "0", "highway=service surface=asphalt route_bicycle_icn=yes route_bicycle_rcn=yes", "", "493", "49335"],
          ["13073887", "47785273", "422", "6", "1000", "0", "0", "0", "0", "highway=cycleway surface=asphalt foot=designated bicycle=designated smoothness=good route_bicycle_icn=yes route_bicycle_rcn=yes", "nodeaccessgranted=yes barrier=lift_gate bicycle=yes foot=yes motor_vehicle=no", "494", "49481"],
          ["13074203", "47770786", "423", "1643", "1000", "0", "0", "0", "0", "highway=cycleway surface=asphalt foot=designated bicycle=designated smoothness=good route_bicycle_icn=yes route_bicycle_rcn=yes", "", "783", "78353"],
          ["13074227", "47770722", "423", "7", "1000", "0", "0", "0", "0", "reversedirection=yes highway=cycleway surface=asphalt foot=designated bicycle=designated smoothness=good oneway=no route_bicycle_icn=yes route_bicycle_rcn=yes", "nodeaccessgranted=yes barrier=lift_gate bicycle=yes foot=yes", "784", "78485"],
          ["13073996", "47768573", "424", "240", "1000", "0", "0", "0", "0", "reversedirection=yes highway=cycleway surface=asphalt foot=designated bicycle=designated smoothness=good oneway=no route_bicycle_icn=yes route_bicycle_rcn=yes", "nodeaccessgranted=yes barrier=swing_gate bicycle=yes foot=yes", "830", "83026"],
          ["13074021", "47768149", "424", "47", "1000", "0", "0", "0", "0", "reversedirection=yes highway=cycleway surface=asphalt foot=designated bicycle=designated smoothness=good oneway=no route_bicycle_icn=yes route_bicycle_rcn=yes", "", "838", "83880"],
          ["13074089", "47767066", "424", "121", "1000", "0", "0", "0", "0", "reversedirection=yes highway=track surface=fine_gravel tracktype=grade3 foot=designated bicycle=designated smoothness=good route_bicycle_icn=yes route_bicycle_rcn=yes", "", "858", "85905"],
          ["13074004", "47766782", "424", "40", "1000", "0", "0", "0", "0", "reversedirection=yes highway=path surface=fine_gravel foot=designated bicycle=designated smoothness=good route_bicycle_icn=yes route_bicycle_rcn=yes", "", "867", "86781"],
          ["13074174", "47766734", "423", "14", "1000", "0", "0", "0", "0", "reversedirection=yes highway=path surface=wood foot=designated bicycle=designated route_bicycle_icn=yes route_bicycle_rcn=yes", "", "869", "86972"],
          ["13081839", "47733728", "429", "3728", "1000", "0", "0", "0", "0", "reversedirection=yes highway=path surface=fine_gravel foot=designated bicycle=designated smoothness=good route_bicycle_icn=yes route_bicycle_rcn=yes", "", "1522", "152293"],
          ["13081761", "47732880", "434", "98", "1000", "0", "0", "0", "0", "reversedirection=yes highway=track surface=asphalt tracktype=grade1 foot=yes bicycle=designated route_bicycle_icn=yes route_bicycle_rcn=yes", "", "1544", "154461"],
          ["13081850", "47732703", "434", "21", "1000", "0", "0", "0", "0", "reversedirection=yes highway=service surface=asphalt bicycle=yes route_bicycle_icn=yes route_bicycle_rcn=yes", "", "1548", "154886"],
          ["13081518", "47730999", "433", "231", "1000", "0", "0", "0", "0", "reversedirection=yes highway=cycleway surface=asphalt foot=designated bicycle=designated smoothness=excellent route_bicycle_icn=yes route_bicycle_rcn=yes", "", "1601", "160160"],
          ["13082293", "47726327", "434", "578", "1000", "0", "0", "0", "0", "highway=cycleway surface=fine_gravel foot=designated bicycle=designated smoothness=intermediate oneway=no route_bicycle_icn=yes route_bicycle_rcn=yes", "", "1706", "170666"],
          ["13082269", "47725118", "434", "135", "1000", "0", "0", "0", "0", "highway=cycleway surface=asphalt foot=designated bicycle=designated smoothness=intermediate oneway=no route_bicycle_icn=yes route_bicycle_rcn=yes", "", "1729", "172972"],
          ["13078657", "47711358", "436", "1573", "1000", "0", "0", "0", "0", "highway=cycleway surface=compacted foot=designated bicycle=designated smoothness=intermediate route_bicycle_icn=yes route_bicycle_rcn=yes", "", "2000", "200109"],
          ["13077050", "47707097", "438", "493", "1000", "0", "0", "0", "0", "highway=cycleway surface=compacted foot=designated bicycle=designated route_bicycle_icn=yes route_bicycle_rcn=yes", "", "2091", "209168"],
          ["13076191", "47702302", "437", "541", "1000", "0", "0", "0", "0", "highway=residential surface=asphalt foot=yes bicycle=yes smoothness=good cycleway:both=no oneway=no route_bicycle_icn=yes route_bicycle_rcn=yes", "", "2186", "218677"],
          ["13082256", "47693123", "441", "1125", "1000", "0", "0", "0", "0", "reversedirection=yes highway=cycleway surface=asphalt foot=designated bicycle=designated smoothness=excellent route_bicycle_icn=yes route_bicycle_rcn=yes", "", "2388", "238819"],
          ["13082344", "47692839", "440", "32", "1000", "0", "0", "0", "0", "reversedirection=yes highway=unclassified surface=asphalt foot=yes bicycle=yes smoothness=good cycleway:both=no route_bicycle_icn=yes route_bicycle_rcn=yes", "", "2393", "239405"],
          ["13084447", "47689499", "441", "404", "1000", "0", "0", "0", "0", "reversedirection=yes highway=residential surface=asphalt bicycle=yes smoothness=excellent cycleway:both=no route_bicycle_icn=yes route_bicycle_rcn=yes", "", "2467", "246733"],
          ["13088140", "47686134", "443", "467", "1000", "0", "0", "0", "0", "reversedirection=yes highway=cycleway surface=asphalt foot=designated bicycle=designated smoothness=excellent route_bicycle_icn=yes route_bicycle_rcn=yes", "nodeaccessgranted=yes barrier=bollard bicycle=yes foot=yes", "2564", "256491"],
          ["13088950", "47685421", "443", "100", "1000", "0", "0", "0", "0", "reversedirection=yes highway=residential surface=asphalt foot=designated bicycle=designated smoothness=excellent route_bicycle_icn=yes route_bicycle_rcn=yes", "nodeaccessgranted=yes highway=mini_roundabout", "2577", "257807"],
          ["13090162", "47684587", "442", "133", "1000", "0", "0", "0", "0", "reversedirection=yes highway=residential surface=asphalt foot=designated bicycle=designated smoothness=excellent route_bicycle_icn=yes route_bicycle_rcn=yes", "", "2601", "260210"],
          ["13090754", "47684281", "442", "56", "1000", "0", "0", "0", "0", "highway=residential surface=asphalt smoothness=good cycleway:both=no route_bicycle_icn=yes route_bicycle_rcn=yes", "nodeaccessgranted=yes kerb=flush", "2610", "261042"],
          ["13090643", "47683955", "444", "38", "1000", "0", "0", "0", "0", "highway=residential surface=asphalt smoothness=excellent cycleway:both=no route_bicycle_icn=yes route_bicycle_rcn=yes", "", "2618", "261821"],
          ["13090909", "47683912", "443", "20", "1000", "0", "0", "0", "0", "reversedirection=yes highway=residential surface=asphalt cycleway:both=no route_bicycle_icn=yes route_bicycle_rcn=yes", "nodeaccessgranted=yes highway=crossing crossing=uncontrolled kerb=lowered", "2621", "262199"],
          ["13090976", "47683899", "443", "5", "1000", "0", "0", "0", "0", "reversedirection=yes highway=residential surface=asphalt cycleway:both=no route_bicycle_icn=yes route_bicycle_rcn=yes", "", "2622", "262289"],
          ["13091582", "47683728", "444", "50", "1000", "0", "0", "0", "0", "highway=residential surface=asphalt cycleway:both=no route_bicycle_icn=yes route_bicycle_rcn=yes", "", "2632", "263224"],
          ["13091822", "47683657", "443", "19", "1000", "0", "0", "0", "0", "reversedirection=yes highway=residential surface=asphalt cycleway:both=no route_bicycle_icn=yes route_bicycle_rcn=yes", "nodeaccessgranted=yes highway=crossing crossing=marked kerb=lowered", "2635", "263552"],
          ["13092612", "47683501", "444", "62", "1000", "0", "0", "0", "0", "reversedirection=yes highway=residential surface=asphalt cycleway:both=no route_bicycle_icn=yes route_bicycle_rcn=yes", "", "2646", "264713"],
          ["13093474", "47683255", "444", "72", "1000", "0", "0", "0", "0", "highway=residential surface=asphalt smoothness=excellent cycleway:both=no route_bicycle_icn=yes route_bicycle_rcn=yes", "", "2660", "266043"]
        ],
        "times": [0,6.605,7.159,7.712,10.999,16.379,17.798,22.718,24.81,31.948,33.102,41.57,42.874,50.934,52.482,59.6,66.639,67.142,69.19,71.198,73.244,74.074,75.454,76.513,81.07,82.267,86.154,90.593,99.502,109.784,117.838,119.149,123.028,126.473,129.672,136.385,140.144,141.045,142.808,150.014,151.717,156.986,170.28,173.748,183.034,206.134,215.552,218.06,220.695,234.899,237.687,238.501,239.441,241.226,247.506,250.282,255.05,270.895,271.762,275.604,281.264,282.011,289.217,333.04,334.748,338.712,342.012,345.12,349.415,355.192,366.243,372.798,384.323,385.392,387.288,392.355,398.114,405.056,406.597,407.638,415.44,440.461,475.518,483.504,493.303,494.759,510.741,521.311,531.418,542.957,552.178,567.187,572.49,573.481,577.672,612.732,623.733,666.545,678.127,708.158,718.833,731.511,735.618,760.546,772.233,774.56,776.703,778.227,781.62,783.459,784.775,787.357,830.183,838.726,858.975,863.641,866.687,867.73,869.643,870.622,872.849,877.401,883.206,895.082,972.965,986.386,1011.294,1062.901,1084.238,1092.087,1099.368,1124.874,1126.987,1133.739,1164.264,1189.479,1235.479,1316.332,1353.505,1360.12,1387.347,1409.548,1430.074,1460.36,1476.15,1500.157,1508.718,1522.823,1525.022,1527.022,1534.184,1535.267,1539.625,1542.102,1543.203,1544.504,1547.083,1548.752,1550.509,1561.568,1562.925,1564.078,1565.601,1567.671,1572.901,1577.226,1588.81,1601.478,1606.367,1608.901,1610.617,1612.526,1613.461,1614.614,1615.973,1629.089,1670.282,1706.539,1725.718,1726.9,1728.702,1729.599,1730.67,1732.17,1733.837,1762.51,1788.045,1799.267,1804.392,1820.259,1846.145,1864.451,1868.512,1873.366,1955.938,1992.413,2000.957,2003.934,2013.278,2027.563,2037.152,2055.325,2088.258,2090.163,2091.547,2095.361,2122.54,2133.676,2141.737,2149.324,2157.238,2166.613,2170.778,2172.791,2174.637,2179.376,2186.631,2194.935,2199.033,2207.072,2218.698,2232.221,2247.236,2293.846,2321.332,2327.232,2333.294,2340.793,2360.558,2382.77,2388.029,2391.542,2393.89,2396.257,2397.528,2407.247,2413.64,2434.771,2456.105,2467.155,2472.437,2478.628,2490.79,2495.366,2508.107,2517.459,2541.667,2543.858,2551.13,2557.571,2564.718,2570.859,2576.245,2577.874,2578.979,2591.807,2593.955,2595.472,2598.017,2601.9,2603.571,2610.223,2615.818,2618.013,2620.17,2621.795,2622.694,2630.39,2632.036,2632.946,2634.132,2635.318,2639.811,2643.773,2646.931,2647.32,2651.887,2653.844,2656.719,2656.888,2659.429,2660.228]
      },
      "geometry": {
        "type": "LineString",
        "coordinates": [
          [13.043794, 47.799388, 422.5],
          [13.044235, 47.799297, 423.0],
          [13.044276, 47.799289, 423.0],
          [13.044313, 47.799280, 423.0],
          [13.044540, 47.799223, 423.0],
          [13.044916, 47.799140, 423.0],
          [13.045022, 47.799117, 423.0],
          [13.045308, 47.798951, 423.0],
          [13.045427, 47.798882, 423.0],
          [13.045928, 47.798797, 423.25],
          [13.046007, 47.798783, 423.5],
          [13.046646, 47.798729, 423.25],
          [13.046740, 47.798721, 423.5],
          [13.047231, 47.798701, 424.25],
          [13.047322, 47.798719, 424.5],
          [13.047799, 47.798750, 424.25],
          [13.048361, 47.798779, 423.75],
          [13.048376, 47.798808, 423.75],
          [13.048435, 47.798922, 423.5],
          [13.048551, 47.799037, 422.75],
          [13.048687, 47.799170, 421.75],
          [13.048742, 47.799235, 421.0],
          [13.048803, 47.799307, 419.75],
          [13.048913, 47.799344, 418.5],
          [13.049268, 47.799222, 419.5],
          [13.049425, 47.799190, 420.25],
          [13.049769, 47.799075, 418.5],
          [13.050233, 47.798918, 420.25],
          [13.051097, 47.798625, 419.75],
          [13.052008, 47.798294, 419.25],
          [13.052792, 47.797962, 417.75],
          [13.052905, 47.797939, 418.25],
          [13.053105, 47.797856, 419.75],
          [13.053412, 47.797785, 418.25],
          [13.053689, 47.797675, 417.75],
          [13.053887, 47.797535, 421.0],
          [13.054148, 47.797413, 418.75],
          [13.054163, 47.797366, 419.25],
          [13.054130, 47.797303, 420.5],
          [13.054437, 47.797169, 421.0],
          [13.054557, 47.797181, 420.0],
          [13.054912, 47.797028, 419.5],
          [13.055673, 47.796678, 420.25],
          [13.055941, 47.796553, 419.25],
          [13.056629, 47.796220, 419.0],
          [13.057922, 47.795582, 420.25],
          [13.058514, 47.795269, 420.0],
          [13.058586, 47.795154, 420.25],
          [13.058713, 47.795077, 420.75],
          [13.059324, 47.794732, 421.75],
          [13.059512, 47.794656, 421.0],
          [13.059590, 47.794632, 420.0],
          [13.059679, 47.794601, 419.25],
          [13.059821, 47.794520, 419.5],
          [13.060234, 47.794268, 420.0],
          [13.060376, 47.794189, 421.0],
          [13.060656, 47.794024, 420.5],
          [13.061401, 47.793602, 421.75],
          [13.061455, 47.793569, 421.25],
          [13.061717, 47.793423, 420.75],
          [13.062087, 47.793217, 420.75],
          [13.062136, 47.793191, 420.5],
          [13.062622, 47.792923, 420.5],
          [13.065115, 47.791544, 421.5],
          [13.065224, 47.791487, 421.5],
          [13.065404, 47.791386, 422.5],
          [13.065602, 47.791278, 421.75],
          [13.065790, 47.791173, 421.75],
          [13.066043, 47.791033, 421.75],
          [13.066347, 47.790863, 422.25],
          [13.067078, 47.790471, 421.5],
          [13.067402, 47.790261, 422.25],
          [13.067973, 47.789840, 422.25],
          [13.068033, 47.789798, 422.25],
          [13.068120, 47.789731, 422.5],
          [13.068373, 47.789535, 422.25],
          [13.068607, 47.789358, 423.25],
          [13.068949, 47.789103, 422.75],
          [13.069097, 47.789124, 421.75],
          [13.069212, 47.789098, 420.75],
          [13.069791, 47.788648, 420.25],
          [13.071191, 47.787502, 420.5],
          [13.073045, 47.785986, 420.25],
          [13.073460, 47.785659, 420.25],
          [13.073833, 47.785318, 421.25],
          [13.073887, 47.785273, 422.0],
          [13.074459, 47.784692, 421.75],
          [13.074774, 47.784229, 421.75],
          [13.075089, 47.783699, 421.25],
          [13.075329, 47.783123, 421.5],
          [13.075452, 47.782620, 421.25],
          [13.075517, 47.781909, 422.0],
          [13.075455, 47.781682, 422.5],
          [13.075451, 47.781633, 422.5],
          [13.075484, 47.781427, 422.25],
          [13.075289, 47.779722, 422.75],
          [13.075212, 47.779152, 422.75],
          [13.074949, 47.776939, 423.0],
          [13.074868, 47.776122, 421.25],
          [13.074713, 47.774737, 423.0],
          [13.074647, 47.774136, 422.5],
          [13.074566, 47.773409, 422.25],
          [13.074541, 47.773197, 422.5],
          [13.074412, 47.772021, 423.25],
          [13.074328, 47.771304, 422.25],
          [13.074308, 47.771157, 422.0],
          [13.074240, 47.771059, 422.75],
          [13.074198, 47.771005, 423.5],
          [13.074177, 47.770867, 423.75],
          [13.074203, 47.770786, 423.5],
          [13.074227, 47.770722, 423.25],
          [13.074226, 47.770605, 423.5],
          [13.073996, 47.768573, 424.0],
          [13.074021, 47.768149, 424.25],
          [13.074089, 47.767066, 424.0],
          [13.073917, 47.766939, 425.5],
          [13.073930, 47.766803, 425.0],
          [13.074004, 47.766782, 424.5],
          [13.074174, 47.766734, 423.5],
          [13.074260, 47.766676, 422.25],
          [13.074295, 47.766528, 423.0],
          [13.074366, 47.766307, 424.25],
          [13.074431, 47.766064, 425.0],
          [13.074573, 47.765472, 424.5],
          [13.075722, 47.761602, 425.25],
          [13.075982, 47.760938, 425.5],
          [13.076508, 47.759778, 426.0],
          [13.077683, 47.757175, 426.0],
          [13.078070, 47.756340, 427.5],
          [13.078216, 47.755939, 427.0],
          [13.078328, 47.755628, 427.75],
          [13.078671, 47.754151, 426.5],
          [13.078697, 47.754038, 426.5],
          [13.078777, 47.753695, 426.75],
          [13.079066, 47.752201, 427.25],
          [13.079329, 47.750839, 427.0],
          [13.079723, 47.748563, 427.75],
          [13.080337, 47.744457, 428.5],
          [13.080646, 47.742426, 428.25],
          [13.080725, 47.742035, 427.75],
          [13.080935, 47.740663, 428.5],
          [13.081062, 47.739677, 429.5],
          [13.081224, 47.738474, 428.5],
          [13.081482, 47.736831, 428.5],
          [13.081572, 47.736098, 429.25],
          [13.081741, 47.734924, 429.5],
          [13.081788, 47.734453, 429.25],
          [13.081839, 47.733728, 429.5],
          [13.081817, 47.733620, 429.75],
          [13.081795, 47.733537, 430.5],
          [13.081658, 47.733249, 433.5],
          [13.081646, 47.733202, 433.75],
          [13.081644, 47.733062, 434.75],
          [13.081685, 47.732969, 434.25],
          [13.081716, 47.732925, 434.25],
          [13.081761, 47.732880, 434.25],
          [13.081832, 47.732774, 434.0],
          [13.081850, 47.732703, 434.25],
          [13.081891, 47.732632, 434.5],
          [13.082068, 47.732165, 434.5],
          [13.082078, 47.732106, 434.5],
          [13.082071, 47.732049, 434.5],
          [13.082027, 47.731980, 434.5],
          [13.081987, 47.731889, 434.5],
          [13.081784, 47.731712, 435.0],
          [13.081572, 47.731611, 435.5],
          [13.081147, 47.731440, 434.25],
          [13.081518, 47.730999, 433.75],
          [13.081771, 47.731086, 434.25],
          [13.081891, 47.731116, 434.75],
          [13.081986, 47.731119, 434.75],
          [13.082079, 47.731091, 434.75],
          [13.082120, 47.731064, 434.75],
          [13.082160, 47.731026, 434.75],
          [13.082178, 47.730972, 434.75],
          [13.082202, 47.730408, 434.75],
          [13.082255, 47.728160, 434.0],
          [13.082293, 47.726327, 434.5],
          [13.082329, 47.725308, 434.5],
          [13.082318, 47.725249, 434.5],
          [13.082277, 47.725166, 434.75],
          [13.082269, 47.725118, 434.75],
          [13.082279, 47.725062, 434.75],
          [13.082319, 47.724988, 434.5],
          [13.082340, 47.724895, 434.5],
          [13.082387, 47.723256, 434.0],
          [13.082373, 47.721785, 433.5],
          [13.082359, 47.721203, 433.75],
          [13.082333, 47.720936, 433.75],
          [13.082248, 47.720242, 434.75],
          [13.082057, 47.718909, 434.5],
          [13.081915, 47.717946, 434.5],
          [13.081869, 47.717709, 434.0],
          [13.081778, 47.717466, 434.5],
          [13.079655, 47.713374, 434.75],
          [13.078834, 47.711738, 435.75],
          [13.078657, 47.711358, 436.25],
          [13.078626, 47.711210, 436.0],
          [13.078493, 47.710733, 436.0],
          [13.078277, 47.710065, 436.5],
          [13.078115, 47.709619, 436.75],
          [13.077803, 47.708760, 437.0],
          [13.077218, 47.707196, 437.5],
          [13.077130, 47.707121, 437.5],
          [13.077050, 47.707097, 438.0],
          [13.077013, 47.706911, 437.75],
          [13.076583, 47.705441, 437.25],
          [13.076449, 47.705021, 438.75],
          [13.076358, 47.704679, 438.75],
          [13.076287, 47.704240, 437.75],
          [13.076227, 47.703816, 438.0],
          [13.076141, 47.703368, 438.5],
          [13.076077, 47.703170, 438.5],
          [13.076070, 47.703058, 438.25],
          [13.076103, 47.702964, 438.25],
          [13.076121, 47.702737, 438.75],
          [13.076191, 47.702302, 437.75],
          [13.076338, 47.701812, 437.5],
          [13.076449, 47.701568, 437.25],
          [13.076673, 47.701147, 437.5],
          [13.077128, 47.700454, 436.5],
          [13.077653, 47.699782, 436.75],
          [13.078194, 47.699130, 437.25],
          [13.079872, 47.697158, 438.0],
          [13.080938, 47.695890, 438.0],
          [13.081137, 47.695606, 438.0],
          [13.081327, 47.695305, 438.0],
          [13.081543, 47.694913, 437.75],
          [13.081925, 47.694123, 439.25],
          [13.082269, 47.693335, 440.75],
          [13.082256, 47.693123, 441.0],
          [13.082289, 47.692961, 440.75],
          [13.082344, 47.692839, 440.25],
          [13.082430, 47.692722, 440.0],
          [13.082464, 47.692652, 440.0],
          [13.082743, 47.692064, 439.25],
          [13.082921, 47.691728, 439.5],
          [13.083567, 47.690746, 440.0],
          [13.084126, 47.689927, 441.25],
          [13.084447, 47.689499, 441.75],
          [13.084626, 47.689321, 442.25],
          [13.084839, 47.689092, 442.25],
          [13.085397, 47.688541, 441.5],
          [13.085588, 47.688342, 441.75],
          [13.086077, 47.687881, 442.5],
          [13.086340, 47.687621, 444.0],
          [13.087021, 47.687023, 445.5],
          [13.087106, 47.686959, 445.25],
          [13.087376, 47.686703, 445.25],
          [13.087640, 47.686492, 445.5],
          [13.088140, 47.686134, 443.5],
          [13.088546, 47.685765, 442.5],
          [13.088908, 47.685497, 442.5],
          [13.088950, 47.685421, 443.5],
          [13.089029, 47.685397, 443.0],
          [13.089493, 47.685020, 444.75],
          [13.089625, 47.684935, 443.5],
          [13.089733, 47.684874, 443.0],
          [13.089894, 47.684756, 443.0],
          [13.090162, 47.684587, 442.75],
          [13.090285, 47.684527, 443.0],
          [13.090754, 47.684281, 442.75],
          [13.090659, 47.684049, 444.0],
          [13.090643, 47.683955, 444.0],
          [13.090788, 47.683931, 444.0],
          [13.090909, 47.683912, 443.75],
          [13.090976, 47.683899, 443.75],
          [13.091477, 47.683763, 444.0],
          [13.091582, 47.683728, 444.0],
          [13.091643, 47.683707, 444.0],
          [13.091729, 47.683679, 443.75],
          [13.091822, 47.683657, 443.75],
          [13.092136, 47.683592, 444.0],
          [13.092416, 47.683555, 444.25],
          [13.092612, 47.683501, 444.5],
          [13.092633, 47.683495, 444.5],
          [13.092889, 47.683422, 445.0],
          [13.093011, 47.683395, 444.75],
          [13.093222, 47.683348, 444.25],
          [13.093234, 47.683345, 444.25],
          [13.093422, 47.683284, 444.0],
          [13.093474, 47.683255, 444.0]
        ]
      }
    }
  ]
}
