{
  "type": "FeatureCollection",
  "features": [
    {
      "type": "Feature",
      "properties": {
        "creator": "BRouter-1.7.10",
        "name": "brouter_trekking_0",
        "track-length": "26893",
        "filtered ascend": "142",
        "plain-ascend": "85",
        "total-time": "5141",
        "total-energy": "512354",
        "cost": "31179",
        "messages": [
          ["Longitude", "Latitude", "Elevation", "Distance", "CostPerKm", "ElevCost", "TurnCost", "NodeCost", "InitialCost", "WayTags", "NodeTags", "Time", "Energy"],
          ["11575554", "48137418", "516", "3", "5050", "0", "0", "0", "0", "highway=footway surface=paving_stones", "", "0", "50"],
          ["11575984", "48137257", "516", "43", "3050", "0", "179", "0", "0", "highway=pedestrian surface=paving_stones smoothness=good", "", "7", "772"],
          ["11575812", "48137020", "516", "29", "5050", "0", "0", "0", "0", "reversedirection=yes highway=footway surface=paving_stones", "", "12", "1253"],
          ["11575536", "48136742", "516", "37", "7050", "0", "6", "0", "0", "reversedirection=yes highway=pedestrian surface=paving_stones bicycle=no smoothness=good vehicle=no", "", "19", "1923"],
          ["11574791", "48136278", "517", "77", "7050", "0", "0", "0", "0", "reversedirection=yes highway=pedestrian surface=paving_stones foot=designated bicycle=no smoothness=good vehicle=no", "", "34", "3469"],
          ["11574744", "48136256", "517", "4", "7050", "0", "0", "0", "0", "reversedirection=yes highway=pedestrian surface=asphalt foot=designated bicycle=no smoothness=good vehicle=no", "", "35", "3544"],
          ["11574395", "48136109", "516", "31", "1150", "0", "0", "0", "0", "reversedirection=yes highway=residential surface=asphalt smoothness=good cycleway:both=no", "highway=crossing crossing=unmarked", "41", "4105"],
          ["11573523", "48135801", "514", "73", "1150", "0", "0", "0", "0", "reversedirection=yes highway=residential surface=asphalt smoothness=good cycleway:both=no", "highway=crossing crossing=unmarked kerb=lowered", "50", "5089"],
          ["11573445", "48135765", "514", "7", "1150", "0", "0", "0", "0", "reversedirection=yes highway=residential surface=asphalt smoothness=good cycleway:both=no", "", "51", "5176"],
          ["11573281", "48135686", "515", "15", "1000", "0", "0", "0", "0", "reversedirection=yes highway=residential surface=asphalt bicycle=yes smoothness=good cycleway:both=lane route_bicycle_rcn=yes route_bicycle_lcn=yes", "nodeaccessgranted=yes highway=crossing crossing=uncontrolled", "53", "5379"],
          ["11572245", "48135276", "514", "90", "1000", "0", "0", "20", "0", "reversedirection=yes highway=residential surface=asphalt bicycle=yes smoothness=good cycleway:both=lane route_bicycle_rcn=yes route_bicycle_lcn=yes", "nodeaccessgranted=yes highway=traffic_signals traffic_signals:direction=backward", "66", "6662"],
          ["11572107", "48135256", "514", "11", "1000", "0", "0", "20", "0", "reversedirection=yes highway=residential surface=asphalt bicycle=yes smoothness=good cycleway:both=lane route_bicycle_rcn=yes route_bicycle_lcn=yes", "nodeaccessgranted=yes highway=crossing crossing=traffic_signals kerb=lowered", "68", "6827"],
          ["11571996", "48135238", "514", "8", "1000", "0", "0", "20", "0", "reversedirection=yes highway=residential surface=asphalt bicycle=yes smoothness=good cycleway:both=lane route_bicycle_rcn=yes route_bicycle_lcn=yes", "nodeaccessgranted=yes highway=traffic_signals traffic_signals:direction=forward", "69", "6948"],
          ["11571142", "48134853", "515", "77", "1000", "0", "0", "0", "0", "reversedirection=yes highway=residential surface=asphalt bicycle=yes smoothness=good cycleway:both=lane route_bicycle_rcn=yes route_bicycle_lcn=yes", "nodeaccessgranted=yes highway=crossing crossing=unmarked kerb=lowered", "82", "8211"],
          ["11570277", "48134172", "515", "100", "1000", "0", "0", "0", "0", "reversedirection=yes highway=residential surface=asphalt bicycle=yes smoothness=good cycleway:both=lane route_bicycle_rcn=yes route_bicycle_lcn=yes", "nodeaccessgranted=yes highway=crossing crossing=unmarked", "98", "9809"],
          ["11570202", "48134124", "515", "8", "1000", "0", "0", "0", "0", "reversedirection=yes highway=residential surface=asphalt bicycle=yes smoothness=good cycleway:both=lane route_bicycle_rcn=yes route_bicycle_lcn=yes", "", "99", "9949"],
          ["11570143", "48134095", "515", "5", "1000", "0", "0", "0", "0", "reversedirection=yes highway=residential surface=asphalt smoothness=good cycleway:both=lane route_bicycle_rcn=yes route_bicycle_lcn=yes", "nodeaccessgranted=yes highway=crossing crossing=unmarked", "100", "10036"],
          ["11568617", "48133789", "516", "122", "1000", "0", "0", "0", "0", "reversedirection=yes highway=residential surface=asphalt smoothness=good cycleway:both=lane route_bicycle_rcn=yes route_bicycle_lcn=yes", "", "122", "12289"],
          ["11568341", "48133789", "516", "21", "1000", "0", "0", "20", "0", "reversedirection=yes highway=residential surface=asphalt smoothness=good cycleway:right=lane cycleway:left=lane route_bicycle_rcn=yes route_bicycle_lcn=yes", "nodeaccessgranted=yes highway=traffic_signals traffic_signals:direction=backward", "128", "12803"],
          ["11568291", "48133788", "517", "4", "1000", "0", "0", "20", "0", "reversedirection=yes highway=residential surface=asphalt smoothness=good cycleway:right=lane cycleway:left=lane route_bicycle_rcn=yes route_bicycle_lcn=yes", "nodeaccessgranted=yes highway=crossing crossing=traffic_signals", "129", "12903"],
          ["11568178", "48133785", "517", "8", "1000", "0", "0", "0", "0", "reversedirection=yes highway=residential surface=asphalt smoothness=good cycleway:right=lane cycleway:left=lane route_bicycle_rcn=yes route_bicycle_lcn=yes", "", "131", "13112"],
          ["11568011", "48133829", "517", "13", "1000", "0", "0", "0", "0", "highway=cycleway surface=asphalt foot=no bicycle=designated smoothness=excellent oneway=yes route_bicycle_rcn=yes route_bicycle_lcn=yes", "", "134", "13481"],
          ["11567646", "48133761", "518", "28", "1000", "0", "0", "0", "0", "highway=path surface=paved foot=designated bicycle=designated oneway=yes route_bicycle_rcn=yes route_bicycle_lcn=yes", "", "142", "14259"],
          ["11566847", "48133551", "520", "64", "1000", "0", "0", "0", "0", "highway=cycleway surface=asphalt foot=no bicycle=designated oneway=yes route_bicycle_rcn=yes route_bicycle_lcn=yes", "", "155", "15580"],
          ["11566720", "48133516", "520", "10", "1000", "0", "0", "20", "0", "highway=path surface=asphalt foot=designated bicycle=designated smoothness=excellent cycleway=unknown oneway=yes route_bicycle_rcn=yes route_bicycle_lcn=yes", "nodeaccessgranted=yes highway=crossing estimated_crossing_class=0 crossing=traffic_signals bicycle=yes", "157", "15753"],
          ["11566597", "48133477", "520", "10", "1000", "0", "0", "20", "0", "highway=path surface=asphalt foot=designated bicycle=designated smoothness=excellent cycleway=unknown oneway=yes route_bicycle_rcn=yes route_bicycle_lcn=yes", "nodeaccessgranted=yes highway=crossing estimated_crossing_class=0 crossing=traffic_signals bicycle=yes", "159", "15926"],
          ["11566504", "48133447", "520", "8", "1000", "0", "0", "0", "0", "highway=path surface=asphalt foot=designated bicycle=designated smoothness=excellent cycleway=unknown oneway=yes route_bicycle_rcn=yes route_bicycle_lcn=yes", "", "160", "16063"],
          ["11566412", "48133414", "520", "8", "1000", "0", "0", "0", "0", "highway=path surface=paved foot=designated bicycle=designated oneway=yes route_bicycle_rcn=yes route_bicycle_lcn=yes", "nodeaccessgranted=yes crossing=traffic_signals wheelchair=yes railway=unknown", "162", "16210"],
          ["11566379", "48133403", "520", "3", "1000", "0", "0", "0", "0", "highway=path surface=paved foot=designated bicycle=designated oneway=yes route_bicycle_rcn=yes route_bicycle_lcn=yes", "nodeaccessgranted=yes crossing=traffic_signals wheelchair=yes railway=unknown", "162", "16265"],
          ["11566304", "48133375", "520", "7", "1000", "0", "0", "0", "0", "highway=path surface=paved foot=designated bicycle=designated oneway=yes route_bicycle_rcn=yes route_bicycle_lcn=yes", "nodeaccessgranted=yes wheelchair=yes railway=unknown", "163", "16393"],
          ["11566184", "48133332", "520", "10", "1000", "0", "0", "0", "0", "highway=path surface=paved foot=designated bicycle=designated oneway=yes route_bicycle_rcn=yes route_bicycle_lcn=yes", "nodeaccessgranted=yes wheelchair=limited railway=unknown", "165", "16585"],
          ["11565470", "48133064", "520", "62", "1000", "0", "0", "0", "0", "highway=path surface=paved foot=designated bicycle=designated oneway=yes route_bicycle_rcn=yes route_bicycle_lcn=yes", "", "182", "18227"],
          ["11565432", "48132949", "520", "13", "1000", "0", "0", "0", "0", "highway=cycleway surface=asphalt foot=no bicycle=designated smoothness=excellent oneway=yes route_bicycle_rcn=yes route_bicycle_lcn=yes", "nodeaccessgranted=yes estimated_crossing_class=4", "185", "18596"],
          ["11563191", "48131849", "521", "207", "1000", "0", "0", "20", "0", "highway=secondary surface=asphalt foot=use_sidepath smoothness=good oneway=yes cycleway:right=lane cycleway:left=no route_bicycle_rcn=yes route_bicycle_lcn=yes", "nodeaccessgranted=yes highway=traffic_signals", "233", "23339"],
          ["11563175", "48131841", "521", "1", "1000", "0", "0", "20", "0", "highway=secondary surface=asphalt foot=use_sidepath smoothness=good oneway=yes cycleway:right=lane cycleway:left=no route_bicycle_rcn=yes route_bicycle_lcn=yes", "nodeaccessgranted=yes highway=crossing estimated_crossing_class=0 crossing=traffic_signals", "233", "23358"],
          ["11563072", "48131730", "521", "15", "1000", "0", "0", "0", "0", "highway=secondary surface=asphalt foot=use_sidepath smoothness=good oneway=yes cycleway:right=lane cycleway:left=no route_bicycle_rcn=yes route_bicycle_lcn=yes", "nodeaccessgranted=yes estimated_crossing_class=0", "236", "23644"],
          ["11562870", "48131632", "521", "19", "1150", "0", "6", "20", "0", "reversedirection=yes highway=secondary surface=asphalt foot=use_sidepath smoothness=good cycleway:both=lane", "highway=crossing estimated_crossing_class=0 crossing=traffic_signals", "239", "23999"],
          ["11562828", "48131612", "521", "4", "1150", "0", "0", "20", "0", "reversedirection=yes highway=secondary surface=asphalt foot=use_sidepath smoothness=good cycleway:both=lane", "highway=traffic_signals traffic_signals:direction=forward", "240", "24073"],
          ["11562317", "48131362", "521", "47", "1150", "0", "0", "0", "0", "reversedirection=yes highway=secondary surface=asphalt foot=use_sidepath smoothness=good cycleway:both=lane", "estimated_crossing_class=4", "249", "24923"],
          ["11561003", "48130749", "521", "119", "1150", "0", "0", "0", "0", "reversedirection=yes highway=secondary surface=asphalt foot=use_sidepath smoothness=good cycleway:both=lane", "estimated_crossing_class=4", "269", "26991"],
          ["11559954", "48130261", "521", "95", "1150", "0", "0", "0", "0", "reversedirection=yes highway=secondary surface=asphalt foot=use_sidepath smoothness=good cycleway:both=lane", "estimated_crossing_class=5", "286", "28605"],
          ["11559385", "48129986", "521", "52", "1150", "0", "0", "0", "0", "reversedirection=yes highway=secondary surface=asphalt foot=use_sidepath smoothness=good cycleway:both=lane", "estimated_crossing_class=5", "294", "29483"],
          ["11558644", "48129786", "521", "59", "1050", "0", "2", "0", "0", "highway=cycleway surface=asphalt smoothness=excellent oneway=yes", "", "304", "30477"],
          ["11558461", "48129687", "521", "18", "1050", "0", "4", "20", "0", "highway=cycleway surface=asphalt foot=no bicycle=designated smoothness=good cycleway=unknown oneway=yes", "highway=crossing crossing=traffic_signals", "307", "30780"],
          ["11558303", "48129615", "521", "14", "1050", "0", "0", "20", "0", "highway=cycleway surface=paved foot=no bicycle=designated smoothness=good cycleway=unknown oneway=yes", "highway=crossing crossing=traffic_signals", "310", "31016"],
          ["11558158", "48129547", "521", "13", "1050", "0", "0", "0", "0", "highway=cycleway surface=paved foot=no bicycle=designated smoothness=good cycleway=unknown oneway=yes", "", "312", "31235"],
          ["11555845", "48128461", "522", "210", "1050", "0", "0", "20", "0", "highway=path surface=paved foot=designated bicycle=designated smoothness=good cycleway=unknown oneway=yes", "highway=crossing estimated_crossing_class=0 crossing=traffic_signals bicycle=yes", "351", "35146"],
          ["11554100", "48127571", "522", "164", "1050", "0", "0", "0", "0", "highway=path surface=paved foot=designated bicycle=designated smoothness=good cycleway=unknown oneway=yes", "highway=crossing crossing=unmarked", "379", "37987"],
          ["11552680", "48126785", "522", "136", "1050", "0", "0", "20", "0", "highway=path surface=paved foot=designated bicycle=designated smoothness=good cycleway=unknown oneway=yes", "highway=crossing crossing=traffic_signals", "405", "40505"],
          ["11551715", "48126333", "522", "88", "1050", "0", "0", "0", "0", "highway=path surface=paved foot=designated bicycle=designated smoothness=good cycleway=unknown oneway=yes", "", "420", "42056"],
          ["11551223", "48126109", "523", "46", "1050", "0", "22", "0", "0", "highway=cycleway surface=asphalt foot=no bicycle=designated smoothness=intermediate cycleway=unknown oneway=yes", "", "429", "42905"],
          ["11550658", "48125843", "523", "51", "1050", "0", "5", "0", "0", "highway=path surface=paved foot=designated bicycle=designated smoothness=good cycleway=unknown oneway=yes", "highway=crossing crossing=unmarked", "438", "43813"],
          ["11549601", "48125202", "522", "107", "1050", "0", "11", "0", "0", "highway=path surface=paved foot=designated bicycle=designated smoothness=good cycleway=unknown oneway=yes", "", "456", "45633"],
          ["11549546", "48125147", "522", "7", "1050", "0", "1", "20", "0", "highway=path surface=asphalt foot=designated bicycle=designated cycleway=crossing oneway=yes", "highway=crossing estimated_crossing_class=0 crossing=traffic_signals", "457", "45728"],
          ["11549467", "48125069", "521", "10", "1050", "0", "0", "0", "0", "highway=path surface=asphalt foot=designated bicycle=designated cycleway=crossing oneway=yes", "", "458", "45852"],
          ["11548096", "48124176", "521", "144", "1050", "0", "1", "0", "0", "highway=path surface=paved foot=designated bicycle=designated smoothness=good cycleway=unknown oneway=yes", "", "481", "48120"],
          ["11545039", "48122625", "524", "287", "1050", "0", "0", "20", "0", "highway=path surface=paved foot=designated bicycle=designated smoothness=good oneway=yes", "highway=crossing crossing=traffic_signals", "539", "53939"],
          ["11542966", "48122263", "528", "162", "1050", "0", "2", "0", "0", "highway=path surface=paved foot=designated bicycle=designated smoothness=good oneway=yes", "", "570", "57076"],
          ["11541203", "48121734", "533", "147", "1050", "0", "29", "0", "0", "highway=path surface=asphalt foot=designated bicycle=designated smoothness=good oneway=yes", "", "619", "61955"],
          ["11541070", "48121734", "534", "10", "1000", "0", "0", "20", "0", "highway=path surface=asphalt foot=designated bicycle=designated smoothness=intermediate oneway=yes route_bicycle_lcn=yes", "nodeaccessgranted=yes highway=crossing estimated_crossing_class=0 crossing=traffic_signals bicycle=yes", "622", "62267"],
          ["11540950", "48121517", "534", "30", "1000", "0", "0", "20", "0", "highway=path surface=asphalt foot=designated bicycle=designated smoothness=intermediate oneway=yes route_bicycle_lcn=yes", "nodeaccessgranted=yes highway=traffic_signals traffic_signals:direction=forward", "631", "63181"],
          ["11540936", "48121467", "534", "6", "1000", "0", "0", "0", "0", "highway=path surface=asphalt foot=designated bicycle=designated smoothness=intermediate oneway=yes route_bicycle_lcn=yes", "", "633", "63353"],
          ["11540132", "48121532", "535", "60", "1000", "0", "0", "0", "0", "reversedirection=yes highway=path surface=asphalt foot=designated bicycle=designated smoothness=excellent route_bicycle_lcn=yes", "nodeaccessgranted=yes barrier=bollard bicycle=yes foot=yes", "650", "65079"],
          ["11538932", "48121292", "534", "122", "1000", "0", "0", "0", "0", "reversedirection=yes highway=path surface=asphalt foot=designated bicycle=designated smoothness=excellent route_bicycle_lcn=yes", "", "675", "67541"],
          ["11538857", "48121109", "534", "21", "1000", "0", "0", "0", "0", "reversedirection=yes highway=service surface=asphalt foot=yes bicycle=yes smoothness=excellent route_bicycle_lcn=yes", "", "681", "68199"],
          ["11538772", "48121063", "534", "8", "1000", "0", "0", "0", "0", "reversedirection=yes highway=service surface=sett foot=yes bicycle=yes smoothness=good route_bicycle_lcn=yes", "", "684", "68425"],
          ["11538714", "48120618", "534", "49", "1000", "0", "0", "0", "0", "reversedirection=yes highway=residential surface=asphalt bicycle=yes smoothness=excellent route_bicycle_lcn=yes bicycle_road=yes", "", "696", "69650"],
          ["11538442", "48120038", "534", "68", "1000", "0", "0", "0", "0", "highway=residential surface=asphalt bicycle=yes smoothness=excellent route_bicycle_lcn=yes bicycle_road=yes", "", "710", "71079"],
          ["11538372", "48120065", "534", "6", "1000", "0", "0", "0", "0", "highway=residential surface=asphalt foot=yes bicycle=designated smoothness=excellent route_bicycle_lcn=yes bicycle_road=yes", "nodeaccessgranted=yes highway=crossing", "711", "71196"],
          ["11537217", "48120202", "533", "89", "1000", "0", "0", "0", "0", "highway=residential surface=asphalt foot=yes bicycle=designated smoothness=excellent route_bicycle_lcn=yes bicycle_road=yes", "nodeaccessgranted=yes highway=turning_circle", "725", "72537"],
          ["11534761", "48120429", "534", "186", "1000", "0", "0", "0", "0", "reversedirection=yes highway=path surface=asphalt foot=designated bicycle=designated smoothness=excellent route_bicycle_lcn=yes", "", "763", "76336"],
          ["11534638", "48120442", "534", "9", "1000", "0", "0", "0", "0", "reversedirection=yes highway=residential surface=asphalt smoothness=excellent route_bicycle_lcn=yes", "nodeaccessgranted=yes highway=crossing crossing=uncontrolled", "764", "76497"],
          ["11534299", "48119122", "536", "149", "1000", "0", "0", "0", "0", "highway=path surface=asphalt foot=designated bicycle=designated smoothness=intermediate cycleway=unknown oneway=yes route_bicycle_lcn=yes", "nodeaccessgranted=yes highway=crossing", "794", "79438"],
          ["11533702", "48117836", "536", "150", "1000", "0", "0", "0", "0", "highway=path surface=asphalt foot=designated bicycle=designated smoothness=intermediate cycleway=unknown oneway=yes route_bicycle_lcn=yes", "nodeaccessgranted=yes highway=crossing crossing=marked", "824", "82416"],
          ["11533505", "48116988", "537", "95", "1000", "0", "0", "0", "0", "highway=path surface=asphalt foot=designated bicycle=designated smoothness=intermediate cycleway=unknown oneway=yes route_bicycle_lcn=yes", "", "843", "84311"],
          ["11531558", "48116946", "537", "145", "1050", "0", "80", "0", "0", "highway=path surface=asphalt foot=designated bicycle=designated smoothness=good cycleway=unknown oneway=yes", "highway=crossing crossing=unmarked", "870", "87097"],
          ["11526032", "48116526", "539", "415", "1050", "0", "0", "20", "0", "highway=path surface=asphalt foot=designated bicycle=designated smoothness=good cycleway=unknown oneway=yes", "highway=crossing crossing=traffic_signals bicycle=yes", "947", "94755"],
          ["11523268", "48115396", "540", "241", "1050", "0", "1", "0", "0", "highway=path surface=asphalt foot=designated bicycle=designated smoothness=good cycleway=unknown oneway=yes", "highway=crossing crossing=unmarked kerb=lowered", "996", "99623"],
          ["11523005", "48115278", "540", "23", "1050", "0", "0", "0", "0", "highway=path surface=asphalt foot=designated bicycle=designated cycleway=unknown oneway=no", "", "1000", "100055"],
          ["11522362", "48114968", "541", "59", "1050", "0", "0", "0", "0", "highway=path surface=asphalt foot=designated bicycle=designated smoothness=good cycleway=unknown oneway=yes", "highway=crossing bicycle=yes", "1011", "101202"],
          ["11521441", "48114536", "541", "84", "1050", "0", "0", "0", "0", "highway=path surface=asphalt foot=designated bicycle=designated smoothness=good cycleway=unknown oneway=yes", "highway=crossing crossing=unmarked kerb=lowered", "1028", "102860"],
          ["11519554", "48113717", "542", "168", "1050", "0", "0", "0", "0", "highway=path surface=asphalt foot=designated bicycle=designated smoothness=good cycleway=unknown oneway=yes", "highway=crossing crossing=unmarked kerb=lowered", "1060", "106047"],
          ["11519553", "48113616", "542", "11", "1150", "0", "46", "0", "0", "highway=residential surface=asphalt", "estimated_crossing_class=4", "1062", "106240"],
          ["11519566", "48113453", "542", "18", "1150", "0", "0", "0", "0", "highway=residential surface=asphalt smoothness=excellent cycleway:both=no", "estimated_crossing_class=4", "1065", "106554"],
          ["11519573", "48113367", "542", "10", "1150", "0", "0", "0", "0", "reversedirection=yes highway=residential surface=asphalt foot=no smoothness=excellent", "highway=crossing crossing=uncontrolled bicycle=yes", "1067", "106727"],
          ["11519355", "48112918", "543", "54", "1150", "0", "10", "0", "0", "reversedirection=yes highway=residential surface=asphalt foot=no smoothness=excellent", "highway=mini_roundabout", "1078", "107830"],
          ["11519523", "48112861", "543", "14", "1150", "0", "87", "0", "0", "highway=residential surface=asphalt foot=use_sidepath bicycle=yes", "highway=crossing crossing=unmarked kerb=lowered", "1081", "108115"],
          ["11518521", "48111348", "543", "184", "1050", "0", "86", "0", "0", "reversedirection=yes highway=path surface=asphalt foot=designated bicycle=designated smoothness=good oneway=no", "highway=crossing crossing=unmarked kerb=lowered", "1117", "111741"],
          ["11518199", "48111167", "542", "32", "1050", "0", "12", "20", "0", "highway=path surface=asphalt foot=designated bicycle=designated smoothness=excellent cycleway=unknown oneway=no", "highway=crossing estimated_crossing_class=0 crossing=traffic_signals bicycle=yes", "1121", "112206"],
          ["11517996", "48111066", "542", "19", "1050", "0", "0", "20", "0", "highway=path surface=asphalt foot=designated bicycle=designated smoothness=excellent cycleway=unknown oneway=no", "highway=crossing estimated_crossing_class=0 crossing=traffic_signals bicycle=yes", "1124", "112476"],
          ["11517852", "48111000", "542", "13", "1050", "0", "0", "0", "0", "highway=path surface=asphalt foot=designated bicycle=designated smoothness=excellent cycleway=unknown oneway=no", "", "1126", "112645"],
          ["11516802", "48110490", "543", "96", "1050", "0", "0", "0", "0", "highway=path surface=paved foot=designated bicycle=designated cycleway=unknown oneway=no", "", "1144", "114498"],
          ["11514164", "48109160", "545", "246", "1050", "0", "0", "0", "0", "highway=path foot=designated bicycle=designated smoothness=good oneway=yes", "highway=crossing crossing=unmarked kerb=lowered", "1192", "119298"],
          ["11511423", "48107763", "546", "256", "1050", "0", "0", "0", "0", "highway=path foot=designated bicycle=designated smoothness=good oneway=yes", "highway=crossing", "1241", "124150"],
          ["11508852", "48106463", "547", "240", "1050", "0", "0", "0", "0", "highway=path foot=designated bicycle=designated smoothness=good oneway=yes", "", "1286", "128672"],
          ["11508884", "48106433", "547", "4", "1000", "0", "0", "0", "0", "highway=residential surface=asphalt smoothness=good route_bicycle_lcn=yes", "", "1287", "128741"],
          ["11506743", "48105347", "548", "200", "1000", "0", "0", "0", "0", "highway=residential surface=asphalt bicycle=yes cycleway:right=unknown route_bicycle_lcn=yes", "", "1325", "132583"],
          ["11506672", "48105362", "548", "6", "1000", "0", "0", "0", "0", "highway=cycleway surface=paving_stones oneway=no route_bicycle_lcn=yes", "", "1326", "132688"],
          ["11505950", "48105012", "547", "66", "1000", "0", "0", "0", "0", "highway=cycleway surface=asphalt bicycle=designated smoothness=good oneway=no route_bicycle_lcn=yes", "", "1339", "133955"],
          ["11506026", "48104446", "547", "63", "1000", "0", "0", "0", "0", "highway=path surface=asphalt foot=designated bicycle=designated smoothness=good oneway=no route_bicycle_lcn=yes", "", "1348", "134886"],
          ["11505753", "48103405", "549", "118", "1000", "0", "0", "0", "0", "highway=path surface=asphalt foot=designated bicycle=designated smoothness=excellent oneway=no route_bicycle_lcn=yes", "", "1372", "137259"],
          ["11504531", "48101728", "552", "214", "1000", "0", "0", "0", "0", "reversedirection=yes highway=path surface=asphalt foot=designated bicycle=designated smoothness=excellent oneway=no route_bicycle_lcn=yes", "", "1421", "142199"],
          ["11503024", "48100960", "550", "141", "1000", "0", "0", "0", "0", "reversedirection=yes highway=path surface=asphalt foot=designated bicycle=designated smoothness=good route_bicycle_lcn=yes", "", "1443", "144405"],
          ["11500193", "48101296", "551", "232", "1000", "0", "0", "0", "0", "highway=path surface=asphalt foot=designated bicycle=designated smoothness=good oneway=no route_bicycle_lcn=yes", "", "1484", "148473"],
          ["11499505", "48101050", "551", "57", "1000", "0", "0", "0", "0", "reversedirection=yes highway=cycleway surface=asphalt foot=designated bicycle=designated smoothness=excellent oneway=no route_bicycle_lcn=yes", "", "1495", "149535"],
          ["11499005", "48100838", "552", "44", "1000", "0", "0", "0", "0", "reversedirection=yes highway=cycleway surface=asphalt smoothness=excellent oneway=no route_bicycle_lcn=yes", "", "1504", "150456"],
          ["11488369", "48092131", "555", "1338", "1000", "0", "0", "0", "0", "reversedirection=yes highway=cycleway surface=asphalt foot=no bicycle=designated smoothness=good route_bicycle_lcn=yes", "", "1752", "175239"],
          ["11487530", "48092120", "556", "63", "1000", "0", "0", "0", "0", "highway=path surface=asphalt foot=designated bicycle=designated smoothness=good route_bicycle_lcn=yes", "", "1766", "176625"],
          ["11487021", "48092130", "556", "38", "1000", "0", "0", "0", "0", "reversedirection=yes highway=path surface=asphalt foot=designated bicycle=designated route_bicycle_lcn=yes", "", "1772", "177259"],
          ["11484667", "48091690", "558", "223", "1000", "0", "0", "0", "0", "reversedirection=yes highway=cycleway surface=asphalt foot=no route_bicycle_lcn=yes", "", "1819", "181954"],
          ["11483603", "48091927", "558", "85", "1000", "0", "0", "0", "0", "reversedirection=yes highway=residential surface=asphalt route_bicycle_lcn=yes", "nodeaccessgranted=yes highway=crossing crossing=unmarked", "1834", "183507"],
          ["11483211", "48091353", "559", "70", "1000", "0", "0", "0", "0", "reversedirection=yes highway=residential surface=asphalt route_bicycle_lcn=yes", "nodeaccessgranted=yes highway=crossing crossing=unmarked traffic_calming=table", "1848", "184903"],
          ["11482862", "48090842", "559", "62", "1000", "0", "0", "0", "0", "reversedirection=yes highway=residential surface=asphalt route_bicycle_lcn=yes", "nodeaccessgranted=yes highway=crossing crossing=unmarked traffic_calming=table", "1860", "186029"],
          ["11482025", "48089719", "560", "140", "1000", "0", "0", "0", "0", "reversedirection=yes highway=residential surface=asphalt route_bicycle_lcn=yes", "nodeaccessgranted=yes highway=crossing crossing=unmarked traffic_calming=table", "1888", "188879"],
          ["11481720", "48089698", "560", "31", "1000", "0", "0", "0", "0", "reversedirection=yes highway=residential surface=asphalt route_bicycle_lcn=yes", "nodeaccessgranted=yes highway=crossing crossing=unmarked traffic_calming=table", "1894", "189456"],
          ["11480607", "48090004", "560", "90", "1000", "0", "0", "20", "0", "reversedirection=yes highway=residential surface=asphalt route_bicycle_lcn=yes", "nodeaccessgranted=yes highway=traffic_signals traffic_signals:direction=backward traffic_signals=signal", "1910", "191033"],
          ["11480525", "48090021", "560", "6", "1000", "0", "0", "20", "0", "reversedirection=yes highway=residential surface=asphalt route_bicycle_lcn=yes", "nodeaccessgranted=yes highway=crossing crossing=traffic_signals bicycle=yes", "1911", "191137"],
          ["11480385", "48090053", "560", "11", "1000", "0", "0", "0", "0", "reversedirection=yes highway=residential surface=asphalt smoothness=good route_bicycle_lcn=yes", "", "1913", "191326"],
          ["11480273", "48090077", "560", "9", "1000", "0", "0", "20", "0", "highway=residential surface=asphalt smoothness=good route_bicycle_lcn=yes", "nodeaccessgranted=yes highway=crossing crossing=traffic_signals bicycle=yes", "1914", "191491"],
          ["11479451", "48088746", "561", "160", "1000", "0", "0", "0", "0", "highway=path surface=asphalt foot=designated bicycle=designated smoothness=good oneway=yes route_bicycle_lcn=yes", "", "1945", "194606"],
          ["11479422", "48088682", "561", "7", "1000", "0", "0", "20", "0", "highway=cycleway surface=asphalt smoothness=good cycleway=crossing oneway=yes route_bicycle_lcn=yes", "nodeaccessgranted=yes highway=crossing estimated_crossing_class=0 crossing=traffic_signals bicycle=designated foot=designated", "1947", "194758"],
          ["11479383", "48088595", "562", "10", "1000", "0", "0", "20", "0", "highway=cycleway surface=asphalt smoothness=good cycleway=crossing oneway=yes route_bicycle_lcn=yes", "nodeaccessgranted=yes highway=crossing estimated_crossing_class=0 crossing=traffic_signals bicycle=designated foot=designated", "1949", "194985"],
          ["11479352", "48088518", "562", "9", "1000", "0", "0", "0", "0", "highway=cycleway surface=asphalt smoothness=good cycleway=crossing oneway=yes route_bicycle_lcn=yes", "", "1951", "195184"],
          ["11479329", "48088380", "562", "16", "1000", "0", "0", "0", "0", "highway=cycleway surface=asphalt smoothness=excellent oneway=yes route_bicycle_lcn=yes", "", "1955", "195527"],
          ["11477927", "48086926", "562", "193", "1000", "0", "0", "0", "0", "highway=residential surface=asphalt route_bicycle_lcn=yes", "nodeaccessgranted=yes highway=crossing crossing=unmarked kerb=lowered", "1990", "199096"],
          ["11476693", "48085689", "563", "165", "1000", "0", "0", "0", "0", "highway=residential surface=asphalt route_bicycle_lcn=yes", "", "2023", "202371"],
          ["11476624", "48085621", "563", "9", "1000", "0", "0", "0", "0", "highway=residential surface=asphalt smoothness=excellent route_bicycle_lcn=yes", "", "2025", "202532"],
          ["11473798", "48082669", "565", "390", "1000", "0", "0", "0", "0", "highway=residential surface=asphalt bicycle=yes cycleway:both=separate route_bicycle_lcn=yes", "", "2101", "210219"],
          ["11472735", "48081727", "566", "131", "1000", "0", "0", "0", "0", "highway=service surface=asphalt smoothness=excellent route_bicycle_lcn=yes", "", "2129", "212950"],
          ["11434654", "48050691", "598", "4469", "1000", "0", "0", "0", "0", "highway=track surface=asphalt tracktype=grade1 foot=yes bicycle=yes smoothness=excellent route_bicycle_lcn=yes", "", "3029", "302934"],
          ["11418463", "48037398", "604", "1908", "1000", "0", "0", "0", "0", "highway=track surface=asphalt tracktype=grade1 foot=yes bicycle=yes smoothness=good route_bicycle_lcn=yes", "", "3379", "338033"],
          ["11427265", "48032571", "610", "847", "1000", "0", "0", "0", "0", "reversedirection=yes highway=track surface=compacted tracktype=grade2 route_bicycle_lcn=yes", "", "3586", "358674"],
          ["11424818", "48029843", "616", "356", "1000", "0", "0", "0", "0", "highway=tertiary surface=asphalt smoothness=good cycleway:both=no route_bicycle_lcn=yes", "", "3671", "367213"],
          ["11423322", "48026844", "620", "352", "1000", "0", "0", "0", "0", "highway=tertiary surface=asphalt smoothness=excellent cycleway:both=no route_bicycle_lcn=yes", "", "3753", "375438"],
          ["11423241", "48026864", "620", "6", "1000", "0", "0", "0", "0", "reversedirection=yes highway=unclassified surface=asphalt cycleway:both=no route_bicycle_lcn=yes", "", "3755", "375580"],
          ["11414076", "48018751", "635", "1135", "1000", "0", "0", "0", "0", "highway=path surface=asphalt foot=designated bicycle=designated smoothness=good oneway=no route_bicycle_lcn=yes", "nodeaccessgranted=yes highway=crossing crossing=unmarked", "4020", "402131"],
          ["11409422", "48014671", "645", "571", "1000", "0", "0", "0", "0", "highway=path surface=asphalt foot=designated bicycle=designated smoothness=good oneway=no route_bicycle_lcn=yes", "", "4179", "417958"],
          ["11407746", "48013448", "645", "186", "1000", "0", "0", "0", "0", "highway=footway surface=paving_stones foot=designated bicycle=yes oneway=no route_bicycle_lcn=yes", "nodeaccessgranted=yes highway=crossing", "4224", "422528"],
          ["11405868", "48011938", "636", "221", "1000", "0", "0", "0", "0", "highway=footway surface=paving_stones foot=designated bicycle=yes oneway=no route_bicycle_lcn=yes", "nodeaccessgranted=yes highway=crossing", "4252", "425274"],
          ["11405769", "48011869", "636", "11", "1000", "0", "0", "0", "0", "highway=path surface=asphalt foot=designated bicycle=designated oneway=no route_bicycle_lcn=yes", "nodeaccessgranted=yes highway=crossing", "4253", "425417"],
          ["11405027", "48010830", "639", "129", "1000", "0", "0", "0", "0", "highway=path surface=asphalt foot=designated bicycle=designated smoothness=good oneway=no route_bicycle_lcn=yes", "nodeaccessgranted=yes crossing=unknown", "4272", "427300"],
          ["11396842", "48005786", "635", "840", "1000", "0", "0", "0", "0", "highway=path surface=asphalt foot=designated bicycle=designated smoothness=good oneway=no route_bicycle_lcn=yes", "", "4399", "439998"],
          ["11394664", "48004458", "637", "238", "1000", "0", "0", "0", "0", "highway=path surface=asphalt foot=designated bicycle=designated smoothness=excellent oneway=no route_bicycle_lcn=yes", "", "4441", "444164"],
          ["11379810", "48001772", "632", "1177", "1000", "0", "0", "0", "0", "highway=path surface=asphalt foot=designated bicycle=designated smoothness=good oneway=no route_bicycle_lcn=yes", "nodeaccessgranted=yes highway=crossing bicycle=yes", "4636", "463756"],
          ["11377288", "48000348", "632", "252", "1000", "0", "0", "0", "0", "highway=path surface=asphalt foot=designated bicycle=designated smoothness=good oneway=no route_bicycle_lcn=yes", "", "4679", "467995"],
          ["11377245", "48000216", "632", "15", "1000", "0", "0", "0", "0", "highway=cycleway surface=asphalt foot=designated bicycle=designated smoothness=good route_bicycle_lcn=yes", "", "4681", "468255"],
          ["11372377", "47999222", "617", "400", "1000", "20", "0", "0", "0", "reversedirection=yes highway=cycleway surface=asphalt foot=designated bicycle=designated smoothness=good route_bicycle_lcn=yes", "", "4729", "473043"],
          ["11372161", "47999244", "616", "16", "1000", "45", "0", "0", "0", "reversedirection=yes highway=cycleway surface=asphalt foot=designated bicycle=designated smoothness=excellent route_bicycle_lcn=yes", "nodeaccessgranted=yes barrier=bollard bicycle=yes foot=yes", "4731", "473077"],
          ["11370348", "48000120", "609", "168", "1000", "281", "0", "0", "0", "reversedirection=yes highway=cycleway surface=asphalt foot=designated bicycle=designated smoothness=excellent route_bicycle_lcn=yes", "nodeaccessgranted=yes barrier=bollard bicycle=yes foot=yes", "4744", "473410"],
          ["11369812", "48000231", "607", "42", "1000", "81", "0", "0", "0", "reversedirection=yes highway=cycleway surface=asphalt foot=designated bicycle=designated smoothness=excellent route_bicycle_lcn=yes", "nodeaccessgranted=yes estimated_crossing_class=4", "4748", "473742"],
          ["11369368", "48000099", "605", "36", "1000", "102", "0", "0", "0", "reversedirection=yes highway=secondary surface=asphalt smoothness=good cycleway:both=no route_bicycle_lcn=yes", "nodeaccessgranted=yes estimated_crossing_class=4", "4750", "473832"],
          ["11368130", "47999632", "601", "107", "1000", "128", "0", "0", "0", "reversedirection=yes highway=secondary surface=asphalt smoothness=good cycleway:both=no route_bicycle_lcn=yes", "nodeaccessgranted=yes estimated_crossing_class=4", "4759", "474409"],
          ["11368017", "47999609", "600", "9", "1000", "21", "0", "0", "0", "reversedirection=yes highway=secondary surface=asphalt smoothness=good cycleway:both=no route_bicycle_lcn=yes", "nodeaccessgranted=yes estimated_crossing_class=4", "4760", "474483"],
          ["11367552", "47999535", "599", "36", "1000", "57", "0", "0", "0", "reversedirection=yes highway=secondary surface=asphalt smoothness=good cycleway:both=no route_bicycle_lcn=yes", "nodeaccessgranted=yes estimated_crossing_class=4", "4763", "474684"],
          ["11367456", "47999523", "599", "7", "1000", "0", "0", "0", "0", "reversedirection=yes highway=secondary surface=asphalt smoothness=good cycleway:both=no route_bicycle_lcn=yes", "nodeaccessgranted=yes estimated_crossing_class=4", "4763", "474744"],
          ["11365145", "47998961", "594", "187", "1000", "109", "0", "0", "0", "reversedirection=yes highway=secondary surface=asphalt smoothness=good cycleway:both=no route_bicycle_lcn=yes", "nodeaccessgranted=yes estimated_crossing_class=4", "4781", "476511"],
          ["11364971", "47999043", "594", "16", "1000", "0", "0", "0", "0", "reversedirection=yes highway=secondary surface=asphalt route_bicycle_lcn=yes", "nodeaccessgranted=yes estimated_crossing_class=4", "4782", "476661"],
          ["11364944", "47999057", "594", "3", "1000", "0", "0", "0", "0", "reversedirection=yes highway=secondary surface=asphalt route_bicycle_lcn=yes", "nodeaccessgranted=yes estimated_crossing_class=4", "4783", "476690"],
          ["11364666", "47999361", "593", "40", "1000", "21", "0", "0", "0", "reversedirection=yes highway=secondary surface=asphalt route_bicycle_lcn=yes", "nodeaccessgranted=yes estimated_crossing_class=4", "4786", "477062"],
          ["11364637", "47999393", "593", "4", "1000", "11", "0", "0", "0", "reversedirection=yes highway=secondary surface=asphalt route_bicycle_lcn=yes", "nodeaccessgranted=yes estimated_crossing_class=4", "4787", "477101"],
          ["11364294", "47999586", "591", "33", "1000", "43", "0", "0", "0", "reversedirection=yes highway=secondary surface=asphalt route_bicycle_lcn=yes", "nodeaccessgranted=yes estimated_crossing_class=4", "4790", "477413"],
          ["11363681", "47999759", "589", "50", "1000", "120", "0", "0", "0", "reversedirection=yes highway=secondary surface=asphalt route_bicycle_lcn=yes", "nodeaccessgranted=yes estimated_crossing_class=4", "4794", "477669"],
          ["11363302", "47999859", "588", "30", "1000", "18", "0", "20", "0", "reversedirection=yes highway=secondary surface=asphalt route_bicycle_lcn=yes", "nodeaccessgranted=yes highway=traffic_signals crossing=traffic_signals", "4797", "477923"],
          ["11362742", "47999952", "586", "43", "1000", "51", "0", "0", "0", "reversedirection=yes highway=secondary surface=asphalt smoothness=good cycleway:both=no route_bicycle_lcn=yes", "nodeaccessgranted=yes estimated_crossing_class=5", "4800", "478289"],
          ["11362679", "47999957", "586", "5", "1000", "0", "0", "0", "0", "reversedirection=yes highway=secondary surface=asphalt smoothness=good cycleway:both=no route_bicycle_lcn=yes", "nodeaccessgranted=yes estimated_crossing_class=5", "4801", "478335"],
          ["11362417", "47999978", "586", "20", "1000", "0", "0", "0", "0", "reversedirection=yes highway=secondary surface=asphalt smoothness=good cycleway:both=no route_bicycle_lcn=yes", "nodeaccessgranted=yes estimated_crossing_class=5", "4803", "478529"],
          ["11361765", "48000017", "586", "49", "1000", "0", "0", "0", "0", "reversedirection=yes highway=secondary surface=asphalt smoothness=good cycleway:both=no route_bicycle_lcn=yes", "nodeaccessgranted=yes estimated_crossing_class=5", "4808", "479068"],
          ["11361631", "48000021", "586", "10", "1000", "0", "0", "0", "0", "reversedirection=yes highway=secondary surface=asphalt smoothness=good cycleway:both=no route_bicycle_lcn=yes", "nodeaccessgranted=yes estimated_crossing_class=5", "4809", "479189"],
          ["11361010", "48000020", "585", "47", "1000", "0", "0", "0", "0", "reversedirection=yes highway=secondary surface=asphalt smoothness=good cycleway:both=no route_bicycle_lcn=yes", "nodeaccessgranted=yes estimated_crossing_class=5", "4815", "479732"],
          ["11359072", "48000086", "586", "145", "1000", "0", "0", "0", "0", "reversedirection=yes highway=secondary surface=asphalt smoothness=good cycleway:both=no route_bicycle_lcn=yes", "nodeaccessgranted=yes estimated_crossing_class=5", "4835", "481772"],
          ["11358976", "48000099", "586", "7", "1000", "0", "0", "0", "0", "reversedirection=yes highway=residential surface=asphalt route_bicycle_lcn=yes", "", "4836", "481882"],
          ["11356720", "48000545", "585", "206", "1000", "0", "0", "0", "0", "highway=path surface=asphalt foot=designated bicycle=designated smoothness=good route_bicycle_lcn=yes", "", "4863", "484527"],
          ["11355185", "48000518", "585", "115", "1000", "0", "0", "0", "0", "highway=service surface=asphalt foot=designated bicycle=designated smoothness=good route_bicycle_lcn=yes", "", "4877", "486011"],
          ["11354396", "48000485", "585", "59", "1000", "0", "0", "0", "0", "highway=service surface=asphalt smoothness=good route_bicycle_lcn=yes", "", "4886", "486896"],
          ["11351370", "48000378", "585", "228", "1000", "0", "0", "0", "0", "highway=path surface=asphalt foot=designated bicycle=designated smoothness=good oneway=no route_bicycle_lcn=yes", "", "4926", "490851"],
          ["11350893", "48000431", "585", "38", "1000", "0", "0", "0", "0", "highway=path foot=designated bicycle=designated route_bicycle_lcn=yes", "", "4932", "491492"],
          ["11347619", "48000546", "588", "245", "1000", "0", "0", "0", "0", "highway=residential surface=asphalt bicycle=designated smoothness=good route_bicycle_lcn=yes bicycle_road=yes", "", "4982", "496507"],
          ["11347604", "48000546", "588", "1", "1000", "0", "0", "0", "0", "highway=path surface=asphalt foot=designated bicycle=designated route_bicycle_lcn=yes", "", "4983", "496530"],
          ["11347237", "48000573", "587", "27", "1000", "0", "0", "0", "0", "highway=path surface=asphalt foot=designated bicycle=designated smoothness=good route_bicycle_lcn=yes", "", "4988", "497037"],
          ["11345800", "48000632", "588", "108", "1000", "0", "0", "0", "0", "highway=residential surface=asphalt cycleway:both=no route_bicycle_lcn=yes", "", "5010", "499302"],
          ["11345542", "47998630", "587", "224", "1000", "0", "0", "0", "0", "reversedirection=yes highway=residential surface=asphalt smoothness=good route_bicycle_lcn=yes", "", "5045", "502803"],
          ["11343921", "47998732", "588", "122", "1150", "0", "88", "0", "0", "reversedirection=yes highway=residential surface=asphalt", "", "5068", "505028"],
          ["11342949", "47998911", "589", "75", "1150", "0", "1", "0", "0", "reversedirection=yes highway=residential surface=asphalt smoothness=good", "", "5083", "506607"],
          ["11341887", "47999158", "591", "84", "1150", "0", "2", "0", "0", "highway=residential surface=asphalt smoothness=excellent oneway=yes", "estimated_crossing_class=5", "5103", "508572"],
          ["11341475", "47998895", "592", "42", "3050", "0", "62", "0", "0", "reversedirection=yes highway=primary surface=asphalt cycleway:both=no", "estimated_crossing_class=5", "5116", "509830"],
          ["11341353", "47998813", "591", "13", "3050", "0", "0", "0", "0", "reversedirection=yes highway=primary surface=asphalt cycleway:both=no", "estimated_crossing_class=5", "5119", "510149"],
          ["11341125", "47998667", "593", "24", "3050", "0", "0", "20", "0", "reversedirection=yes highway=primary surface=asphalt cycleway:both=no", "highway=crossing estimated_crossing_class=0 crossing=traffic_signals", "5126", "510864"],
          ["11340717", "47998809", "598", "35", "5050", "0", "47", "0", "0", "reversedirection=yes highway=footway surface=sett smoothness=intermediate", "", "5138", "512057"],
          ["11340649", "47998843", "600", "6", "40000", "0", "0", "0", "0", "reversedirection=yes highway=steps surface=concrete", "", "5141", "512354"]
        ],
        "times": [0,0.504,6.552,7.728,8.989,12.534,13.546,16.955,19.233,22.844,26.525,28.32,31.638,34.69,35.444,35.819,36.754,39.163,41.051,42.25,46.644,48.832,50.888,51.763,53.793,58.783,61.192,62.058,63.606,64.698,66.62,68.27,69.482,70.944,74.045,78.149,82.108,84.162,85.002,89.908,98.081,99.483,100.357,101.926,104.876,108.156,109.36,109.704,111.248,112.277,115.554,116.905,122.88,128.018,129.02,131.112,134.802,138.013,142.579,147.032,155.783,156.476,157.515,159.241,160.618,162.088,162.636,163.183,163.91,164.091,165.83,169.247,170.929,182.249,185.935,196.275,204.459,223.301,233.356,233.549,236.409,239.96,240.699,249.2,269.874,286.015,294.797,304.739,307.769,310.125,312.312,313.154,323.076,330.293,333.902,337.98,344.356,348.37,351.426,354.45,363.028,367.348,369.412,379.83,395.266,399.311,402.616,405.011,406.978,420.524,422.59,426.652,427.564,428.472,429.015,435.626,438.092,448.167,450.917,453.829,454.629,456.292,457.241,458.48,462.202,466.68,476.26,481.16,500.501,508.524,516.032,520.664,537.099,539.34,541.906,543.652,546.708,550.658,554.87,560.143,570.707,575.05,576.424,578.858,592.099,610.572,618.578,619.488,622.601,624.188,627.822,631.741,633.462,635.533,645.717,650.717,662.71,663.928,664.933,668.672,669.639,675.33,677.119,680.163,681.914,684.167,684.443,684.99,689.452,695.03,696.414,697.323,699.986,702.777,705.074,705.896,708.921,710.698,711.869,713.729,716.276,722.991,725.285,726.864,729.31,732.625,761.836,763.268,764.87,767.326,780.882,787.407,794.28,805.735,815.96,822.414,824.061,826.224,838.672,843.002,854.762,868.384,870.858,873.108,901.347,907.24,908.786,917.214,920.221,925.507,935.814,937.828,941.367,943.1,945.003,947.442,949.424,950.681,963.022,973.427,996.11,997.741,1000.428,1002.248,1005.413,1011.9,1013.203,1028.481,1047.04,1051.432,1056.634,1060.346,1062.275,1065.414,1067.15,1069.548,1072.866,1078.173,1081.021,1083.252,1101.744,1103.763,1114.697,1117.285,1120.604,1121.932,1124.624,1126.315,1143.203,1144.85,1152.836,1172.319,1192.842,1197.281,1236.483,1241.362,1245.51,1284.656,1286.572,1287.267,1289,1312.386,1325.682,1326.735,1336.425,1339.399,1348.715,1351.008,1360.188,1366.601,1372.439,1384.349,1395.431,1404.548,1407.713,1409.958,1412.471,1420.71,1421.829,1443.893,1444.888,1446.156,1447.406,1448.663,1450.29,1458.234,1459.999,1461.639,1463.243,1466.78,1470.989,1475.057,1479.573,1484.566,1487.562,1489.949,1495.182,1504.39,1564.842,1626.957,1672.811,1679.037,1690.639,1703.715,1714.985,1729.367,1752.202,1758.455,1766.059,1770.127,1772.393,1773.981,1780.966,1784.092,1786.913,1801.963,1802.832,1803.834,1804.431,1805.025,1806.493,1807.769,1808.857,1818.112,1819.339,1820.562,1828.009,1832.901,1833.72,1834.869,1835.396,1836.272,1847.672,1848.83,1854.334,1856.769,1860.089,1860.272,1866.356,1866.984,1884.851,1888.587,1890.749,1893.279,1894.356,1896.675,1898.624,1910.125,1911.159,1913.05,1914.699,1916.878,1943.889,1945.235,1945.849,1947.369,1949.641,1951.631,1952.5,1953.574,1955.056,1961.366,1962.114,1966.437,1969.306,1970.814,1972.495,1976.176,1976.723,1977.086,1986.723,1989.351,1990.398,1990.747,1990.921,1998.386,2002.301,2002.704,2003.507,2004.304,2004.7,2005.489,2009.934,2017.559,2023.492,2024.054,2025.101,2026.145,2049.406,2053.623,2059.886,2064.469,2073.456,2084.914,2085.292,2088.486,2101.968,2116.092,2129.274,2139.514,2146.755,2187.122,2225.742,2235.219,2296.443,2297.646,2350.959,2394.914,2413.309,2440.512,2470.687,2502.12,2533.484,2559.031,2560.697,2562.897,2569.02,2629.369,2732.295,2740.872,2772.967,2963.967,3029.003,3047.769,3064.991,3074.552,3077.828,3090.514,3229.546,3234.084,3241.479,3271.467,3323.285,3379.979,3427.251,3535.555,3561.893,3586.329,3618.443,3628.92,3639.129,3651.005,3665.004,3671.697,3678.711,3692.232,3709.508,3720.868,3733.708,3753.937,3755.349,3766.806,3773.996,3799.297,3808.693,3822.523,3838.521,3867.789,3925.801,3942.991,3961.66,3978.025,4020.8,4048.787,4091.692,4179.036,4201.452,4211.351,4224.724,4228.361,4235.278,4240.117,4252.184,4253.615,4256.716,4272.436,4279.028,4283.482,4287.414,4291.22,4313.393,4344.205,4358.484,4372.096,4388.272,4390.549,4392.858,4395.342,4397.22,4399.392,4401.48,4406.684,4410.063,4411.968,4413.685,4415.625,4417.085,4418.713,4420.865,4423.155,4441.042,4465.789,4495.101,4524.072,4529.774,4535.548,4539.27,4541.396,4544.031,4549.469,4555.084,4569.009,4571.997,4574.162,4578.773,4579.98,4588.079,4595.703,4604.508,4613.737,4617.001,4619.183,4621.285,4623.108,4636.923,4643.952,4655.383,4663.897,4669.446,4675.239,4677.438,4679.312,4681.914,4683.759,4685.325,4687.186,4692.971,4698.275,4702.842,4705.422,4707.012,4712.554,4716.026,4717.841,4719.779,4723.094,4726.782,4728.091,4729.299,4729.939,4731.219,4733.139,4734.659,4738.339,4743.219,4744.694,4746.076,4747.036,4748.076,4750.076,4750.956,4751.996,4753.996,4756.076,4758.02,4759.574,4760.313,4763.193,4763.794,4767.268,4770.572,4773.054,4775.375,4779.617,4780.534,4781.456,4782.959,4783.252,4786.965,4787.355,4788.224,4789.831,4790.477,4794.477,4797.022,4799.788,4800.68,4801.141,4803.078,4806.049,4808.47,4809.678,4811.679,4815.114,4823.779,4829.156,4833.94,4835.508,4836.611,4839.629,4840.96,4842.819,4845.506,4855.364,4857.971,4858.854,4863.059,4876.451,4877.889,4882.019,4886.741,4895.354,4897.183,4898.015,4907.305,4912.453,4917.285,4924.333,4926.288,4927.613,4930.932,4932.705,4961.699,4970.06,4976.628,4982.841,4983.078,4986.32,4988.14,4990.227,4994.537,5002.904,5010.788,5013.303,5015.397,5016.339,5025.2,5025.717,5032.807,5045.803,5057.376,5068.044,5083.835,5090.917,5096.374,5103.486,5116.054,5119.242,5124.304,5126.391,5128.371,5138.318,5141.288]
      },
      "geometry": {
        "type": "LineString",
        "coordinates": [
          [11.575539, 48.137389, 516.0],
          [11.575554, 48.137418, 516.0],
          [11.576015, 48.137317, 516.0],
          [11.575984, 48.137257, 516.0],
          [11.575936, 48.137191, 515.75],
          [11.575812, 48.137020, 516.0],
          [11.575759, 48.136983, 516.0],
          [11.575629, 48.136833, 516.25],
          [11.575536, 48.136742, 516.5],
          [11.575394, 48.136617, 517.0],
          [11.575234, 48.136500, 517.0],
          [11.575142, 48.136448, 517.0],
          [11.574962, 48.136361, 517.0],
          [11.574791, 48.136278, 517.0],
          [11.574744, 48.136256, 517.0],
          [11.574719, 48.136245, 517.0],
          [11.574665, 48.136223, 517.0],
          [11.574519, 48.136160, 517.0],
          [11.574395, 48.136109, 516.75],
          [11.574308, 48.136079, 516.75],
          [11.573911, 48.135958, 515.75],
          [11.573707, 48.135886, 515.25],
          [11.573523, 48.135801, 514.75],
          [11.573445, 48.135765, 514.75],
          [11.573281, 48.135686, 515.0],
          [11.572874, 48.135490, 514.75],
          [11.572689, 48.135400, 514.75],
          [11.572619, 48.135372, 514.75],
          [11.572510, 48.135327, 515.0],
          [11.572417, 48.135304, 515.0],
          [11.572245, 48.135276, 514.75],
          [11.572107, 48.135256, 514.75],
          [11.571996, 48.135238, 514.75],
          [11.571876, 48.135211, 515.0],
          [11.571656, 48.135131, 515.0],
          [11.571385, 48.134999, 515.0],
          [11.571142, 48.134853, 515.0],
          [11.571011, 48.134764, 514.5],
          [11.570956, 48.134725, 514.25],
          [11.570665, 48.134491, 514.25],
          [11.570277, 48.134172, 515.0],
          [11.570202, 48.134124, 515.0],
          [11.570143, 48.134095, 515.0],
          [11.570043, 48.134046, 515.0],
          [11.569852, 48.133967, 515.0],
          [11.569627, 48.133890, 515.0],
          [11.569539, 48.133868, 515.0],
          [11.569510, 48.133861, 515.0],
          [11.569401, 48.133835, 515.0],
          [11.569321, 48.133820, 515.0],
          [11.569091, 48.133786, 515.25],
          [11.568993, 48.133777, 515.5],
          [11.568617, 48.133789, 516.0],
          [11.568341, 48.133789, 516.75],
          [11.568291, 48.133788, 517.0],
          [11.568178, 48.133785, 517.25],
          [11.568011, 48.133829, 517.75],
          [11.567852, 48.133806, 517.75],
          [11.567646, 48.133761, 518.25],
          [11.567464, 48.133724, 519.0],
          [11.566847, 48.133551, 520.0],
          [11.566792, 48.133536, 520.0],
          [11.566720, 48.133516, 520.0],
          [11.566597, 48.133477, 520.0],
          [11.566504, 48.133447, 520.0],
          [11.566412, 48.133414, 520.25],
          [11.566379, 48.133403, 520.25],
          [11.566348, 48.133391, 520.25],
          [11.566304, 48.133375, 520.25],
          [11.566286, 48.133369, 520.25],
          [11.566184, 48.133332, 520.5],
          [11.565977, 48.133256, 520.5],
          [11.565866, 48.133231, 520.5],
          [11.565470, 48.133064, 520.0],
          [11.565432, 48.132949, 520.0],
          [11.564976, 48.132738, 520.0],
          [11.564581, 48.132537, 520.0],
          [11.563738, 48.132110, 521.0],
          [11.563191, 48.131849, 521.0],
          [11.563175, 48.131841, 521.0],
          [11.563072, 48.131730, 521.0],
          [11.562870, 48.131632, 521.0],
          [11.562828, 48.131612, 521.0],
          [11.562317, 48.131362, 521.0],
          [11.561003, 48.130749, 521.0],
          [11.559954, 48.130261, 521.0],
          [11.559385, 48.129986, 521.0],
          [11.558644, 48.129786, 521.0],
          [11.558461, 48.129687, 521.0],
          [11.558303, 48.129615, 521.0],
          [11.558158, 48.129547, 521.0],
          [11.558102, 48.129521, 521.0],
          [11.557490, 48.129234, 521.25],
          [11.557079, 48.129041, 521.75],
          [11.556881, 48.128948, 522.0],
          [11.556648, 48.128839, 522.0],
          [11.556273, 48.128666, 522.0],
          [11.556029, 48.128549, 522.0],
          [11.555845, 48.128461, 522.0],
          [11.555655, 48.128376, 522.0],
          [11.555112, 48.128134, 522.0],
          [11.554840, 48.128000, 522.0],
          [11.554716, 48.127933, 522.0],
          [11.554100, 48.127571, 522.0],
          [11.553258, 48.127076, 522.5],
          [11.553049, 48.126960, 523.0],
          [11.552850, 48.126864, 522.75],
          [11.552680, 48.126785, 522.25],
          [11.552537, 48.126718, 522.0],
          [11.551715, 48.126333, 522.75],
          [11.551632, 48.126252, 523.0],
          [11.551394, 48.126140, 523.0],
          [11.551332, 48.126117, 523.0],
          [11.551265, 48.126116, 523.0],
          [11.551223, 48.126109, 523.0],
          [11.550809, 48.125921, 523.0],
          [11.550658, 48.125843, 523.0],
          [11.550043, 48.125523, 523.0],
          [11.549885, 48.125428, 523.0],
          [11.549728, 48.125318, 523.0],
          [11.549703, 48.125277, 522.75],
          [11.549601, 48.125202, 522.5],
          [11.549546, 48.125147, 522.0],
          [11.549467, 48.125069, 521.5],
          [11.549201, 48.124871, 521.25],
          [11.548984, 48.124715, 522.75],
          [11.548442, 48.124370, 522.5],
          [11.548096, 48.124176, 521.75],
          [11.547201, 48.123673, 523.75],
          [11.546812, 48.123443, 524.0],
          [11.546397, 48.123231, 524.0],
          [11.546122, 48.123102, 524.0],
          [11.545181, 48.122687, 524.5],
          [11.545039, 48.122625, 524.25],
          [11.544886, 48.122553, 524.5],
          [11.544780, 48.122509, 524.75],
          [11.544594, 48.122449, 525.0],
          [11.544341, 48.122389, 525.0],
          [11.544059, 48.122338, 525.0],
          [11.543738, 48.122284, 525.5],
          [11.542966, 48.122263, 528.25],
          [11.542704, 48.122253, 529.0],
          [11.542614, 48.122239, 528.75],
          [11.542477, 48.122204, 529.25],
          [11.542071, 48.122046, 532.0],
          [11.541555, 48.121830, 533.75],
          [11.541239, 48.121726, 533.5],
          [11.541203, 48.121734, 533.75],
          [11.541070, 48.121734, 534.0],
          [11.541000, 48.121736, 534.25],
          [11.540974, 48.121633, 534.25],
          [11.540950, 48.121517, 534.5],
          [11.540936, 48.121467, 534.5],
          [11.540843, 48.121467, 534.75],
          [11.540386, 48.121506, 535.25],
          [11.540132, 48.121532, 535.25],
          [11.539411, 48.121657, 535.0],
          [11.539331, 48.121667, 535.0],
          [11.539269, 48.121660, 535.0],
          [11.539031, 48.121589, 535.0],
          [11.538971, 48.121577, 535.0],
          [11.538932, 48.121292, 534.75],
          [11.538926, 48.121244, 534.5],
          [11.538904, 48.121156, 534.0],
          [11.538857, 48.121109, 534.0],
          [11.538772, 48.121063, 534.0],
          [11.538783, 48.121052, 534.0],
          [11.538788, 48.121030, 534.0],
          [11.538760, 48.120875, 534.0],
          [11.538724, 48.120673, 534.0],
          [11.538714, 48.120618, 534.0],
          [11.538707, 48.120583, 534.0],
          [11.538682, 48.120474, 534.0],
          [11.538657, 48.120360, 534.0],
          [11.538613, 48.120263, 534.0],
          [11.538589, 48.120231, 534.0],
          [11.538497, 48.120110, 534.0],
          [11.538442, 48.120038, 534.0],
          [11.538372, 48.120065, 534.0],
          [11.538246, 48.120113, 533.5],
          [11.538028, 48.120141, 533.0],
          [11.537393, 48.120189, 532.5],
          [11.537217, 48.120202, 533.25],
          [11.537103, 48.120212, 533.25],
          [11.536923, 48.120228, 533.25],
          [11.536610, 48.120258, 532.25],
          [11.534870, 48.120418, 534.75],
          [11.534761, 48.120429, 534.5],
          [11.534638, 48.120442, 534.5],
          [11.534608, 48.120329, 534.75],
          [11.534459, 48.119702, 535.0],
          [11.534400, 48.119397, 535.25],
          [11.534299, 48.119122, 536.0],
          [11.534090, 48.118630, 536.0],
          [11.533871, 48.118154, 536.0],
          [11.533749, 48.117899, 536.75],
          [11.533702, 48.117836, 536.75],
          [11.533649, 48.117749, 537.0],
          [11.533530, 48.117194, 537.0],
          [11.533505, 48.116988, 537.0],
          [11.532630, 48.116972, 537.0],
          [11.531730, 48.116951, 537.75],
          [11.531558, 48.116946, 537.75],
          [11.531393, 48.116939, 537.75],
          [11.529323, 48.116866, 538.0],
          [11.528843, 48.116839, 537.75],
          [11.528714, 48.116832, 537.5],
          [11.527962, 48.116767, 537.25],
          [11.527766, 48.116755, 538.25],
          [11.527439, 48.116733, 538.75],
          [11.526805, 48.116665, 539.0],
          [11.526672, 48.116642, 539.0],
          [11.526433, 48.116602, 539.0],
          [11.526320, 48.116583, 539.0],
          [11.526193, 48.116559, 539.0],
          [11.526032, 48.116526, 539.0],
          [11.525909, 48.116487, 539.25],
          [11.525834, 48.116464, 539.5],
          [11.525165, 48.116239, 540.0],
          [11.524567, 48.115979, 540.0],
          [11.523268, 48.115396, 540.5],
          [11.523164, 48.115350, 540.5],
          [11.523005, 48.115278, 540.75],
          [11.522912, 48.115233, 541.0],
          [11.522734, 48.115147, 541.0],
          [11.522362, 48.114968, 541.0],
          [11.522283, 48.114931, 541.0],
          [11.521441, 48.114536, 541.5],
          [11.520396, 48.114068, 542.0],
          [11.520124, 48.113953, 542.0],
          [11.519805, 48.113810, 542.0],
          [11.519554, 48.113717, 542.0],
          [11.519553, 48.113616, 542.0],
          [11.519566, 48.113453, 542.0],
          [11.519573, 48.113367, 542.0],
          [11.519583, 48.113249, 542.25],
          [11.519497, 48.113122, 542.75],
          [11.519355, 48.112918, 543.0],
          [11.519523, 48.112861, 543.0],
          [11.519457, 48.112764, 542.75],
          [11.518958, 48.112023, 543.5],
          [11.518904, 48.111942, 543.75],
          [11.518590, 48.111476, 543.75],
          [11.518521, 48.111348, 543.5],
          [11.518289, 48.111216, 542.75],
          [11.518199, 48.111167, 542.75],
          [11.517996, 48.111066, 542.5],
          [11.517852, 48.111000, 542.0],
          [11.516901, 48.110540, 543.75],
          [11.516802, 48.110490, 543.75],
          [11.516348, 48.110260, 544.0],
          [11.515329, 48.109752, 544.75],
          [11.514164, 48.109160, 545.0],
          [11.513898, 48.109025, 545.0],
          [11.511725, 48.107920, 546.0],
          [11.511423, 48.107763, 546.0],
          [11.511169, 48.107635, 546.0],
          [11.508974, 48.106526, 547.0],
          [11.508852, 48.106463, 547.0],
          [11.508884, 48.106433, 547.0],
          [11.508772, 48.106376, 547.0],
          [11.507531, 48.105747, 548.0],
          [11.506743, 48.105347, 548.0],
          [11.506672, 48.105362, 548.0],
          [11.506123, 48.105098, 547.75],
          [11.505950, 48.105012, 547.75],
          [11.506026, 48.104446, 547.75],
          [11.506026, 48.104324, 547.75],
          [11.505908, 48.103878, 548.25],
          [11.505811, 48.103614, 549.0],
          [11.505753, 48.103405, 549.75],
          [11.505537, 48.102959, 550.0],
          [11.505354, 48.102533, 550.5],
          [11.505219, 48.102185, 551.0],
          [11.505125, 48.102077, 551.25],
          [11.505028, 48.102001, 551.0],
          [11.504924, 48.101934, 551.5],
          [11.504582, 48.101755, 552.25],
          [11.504531, 48.101728, 552.0],
          [11.503024, 48.100960, 550.5],
          [11.502969, 48.100929, 551.25],
          [11.502900, 48.100903, 551.5],
          [11.502823, 48.100909, 551.5],
          [11.502737, 48.100931, 551.0],
          [11.502608, 48.100979, 550.25],
          [11.501977, 48.101270, 549.75],
          [11.501832, 48.101322, 549.75],
          [11.501710, 48.101372, 549.75],
          [11.501588, 48.101406, 550.0],
          [11.501371, 48.101450, 551.0],
          [11.501087, 48.101460, 551.0],
          [11.500800, 48.101438, 551.0],
          [11.500492, 48.101383, 551.0],
          [11.500193, 48.101296, 551.5],
          [11.500021, 48.101235, 551.75],
          [11.499849, 48.101175, 551.0],
          [11.499505, 48.101050, 551.25],
          [11.499005, 48.100838, 552.0],
          [11.495886, 48.099268, 553.75],
          [11.492347, 48.097473, 555.0],
          [11.489808, 48.096170, 556.25],
          [11.489575, 48.095932, 556.75],
          [11.489160, 48.095438, 556.75],
          [11.488742, 48.094981, 557.75],
          [11.488357, 48.094423, 557.0],
          [11.488189, 48.093619, 556.75],
          [11.488369, 48.092131, 555.25],
          [11.488062, 48.092124, 557.5],
          [11.487530, 48.092120, 556.5],
          [11.487199, 48.092125, 556.0],
          [11.487021, 48.092130, 556.25],
          [11.486912, 48.092117, 556.75],
          [11.486582, 48.092133, 558.25],
          [11.486411, 48.092149, 558.0],
          [11.486231, 48.092173, 557.5],
          [11.485349, 48.092333, 558.25],
          [11.485294, 48.092339, 558.5],
          [11.485229, 48.092338, 558.25],
          [11.485188, 48.092330, 558.25],
          [11.485146, 48.092317, 558.25],
          [11.485071, 48.092270, 558.0],
          [11.485014, 48.092221, 558.0],
          [11.484975, 48.092175, 558.0],
          [11.484702, 48.091745, 558.0],
          [11.484667, 48.091690, 558.0],
          [11.484585, 48.091713, 558.0],
          [11.484133, 48.091834, 558.75],
          [11.483756, 48.091934, 558.0],
          [11.483691, 48.091942, 558.0],
          [11.483603, 48.091927, 558.0],
          [11.483567, 48.091910, 558.25],
          [11.483522, 48.091872, 558.25],
          [11.483241, 48.091403, 559.0],
          [11.483211, 48.091353, 559.0],
          [11.483048, 48.091096, 558.75],
          [11.482971, 48.090988, 559.0],
          [11.482862, 48.090842, 559.0],
          [11.482857, 48.090835, 559.0],
          [11.482689, 48.090614, 559.75],
          [11.482667, 48.090587, 559.75],
          [11.482140, 48.089883, 560.0],
          [11.482025, 48.089719, 560.0],
          [11.481970, 48.089632, 560.25],
          [11.481796, 48.089678, 560.0],
          [11.481720, 48.089698, 560.0],
          [11.481560, 48.089742, 560.0],
          [11.481429, 48.089779, 560.0],
          [11.480607, 48.090004, 560.0],
          [11.480525, 48.090021, 560.0],
          [11.480385, 48.090053, 560.0],
          [11.480273, 48.090077, 560.25],
          [11.480197, 48.089981, 560.25],
          [11.479504, 48.088835, 561.0],
          [11.479469, 48.088774, 561.25],
          [11.479451, 48.088746, 561.5],
          [11.479422, 48.088682, 561.75],
          [11.479383, 48.088595, 562.0],
          [11.479352, 48.088518, 562.0],
          [11.479343, 48.088486, 562.0],
          [11.479347, 48.088438, 562.0],
          [11.479329, 48.088380, 562.0],
          [11.479096, 48.088127, 561.75],
          [11.479065, 48.088096, 561.75],
          [11.478898, 48.087929, 562.0],
          [11.478785, 48.087822, 562.0],
          [11.478724, 48.087763, 562.0],
          [11.478662, 48.087697, 562.0],
          [11.478520, 48.087548, 562.0],
          [11.478496, 48.087525, 562.0],
          [11.478480, 48.087509, 562.0],
          [11.478092, 48.087101, 562.0],
          [11.477983, 48.086986, 562.0],
          [11.477941, 48.086941, 562.0],
          [11.477927, 48.086926, 562.0],
          [11.477918, 48.086917, 562.0],
          [11.477667, 48.086657, 563.0],
          [11.477527, 48.086512, 563.0],
          [11.477512, 48.086496, 563.0],
          [11.477486, 48.086469, 563.0],
          [11.477458, 48.086440, 563.0],
          [11.477438, 48.086422, 563.0],
          [11.477412, 48.086395, 563.0],
          [11.477245, 48.086222, 563.0],
          [11.476928, 48.085916, 563.0],
          [11.476693, 48.085689, 563.25],
          [11.476669, 48.085666, 563.25],
          [11.476624, 48.085621, 563.0],
          [11.476604, 48.085569, 563.0],
          [11.475754, 48.084701, 564.0],
          [11.475591, 48.084522, 564.0],
          [11.475331, 48.084236, 563.75],
          [11.475160, 48.084057, 564.25],
          [11.474868, 48.083749, 565.0],
          [11.474448, 48.083308, 565.0],
          [11.474434, 48.083294, 565.0],
          [11.474313, 48.083175, 565.25],
          [11.473798, 48.082669, 565.5],
          [11.473266, 48.082148, 566.0],
          [11.472735, 48.081727, 566.75],
          [11.472318, 48.081380, 567.0],
          [11.471993, 48.081112, 567.0],
          [11.470412, 48.079853, 568.75],
          [11.468706, 48.078444, 569.5],
          [11.468284, 48.078106, 570.0],
          [11.465647, 48.075952, 571.5],
          [11.465591, 48.075906, 571.5],
          [11.463467, 48.074170, 573.75],
          [11.461560, 48.072623, 575.0],
          [11.460784, 48.071972, 575.75],
          [11.459608, 48.071029, 576.5],
          [11.458453, 48.070073, 578.0],
          [11.457147, 48.069024, 579.0],
          [11.455828, 48.067951, 580.0],
          [11.454770, 48.067091, 581.0],
          [11.454690, 48.067025, 581.0],
          [11.454585, 48.066940, 581.0],
          [11.454310, 48.066716, 581.25],
          [11.451988, 48.064825, 583.75],
          [11.447117, 48.060847, 588.0],
          [11.446682, 48.060489, 588.0],
          [11.445428, 48.059461, 589.75],
          [11.437183, 48.052748, 595.0],
          [11.434654, 48.050691, 598.0],
          [11.433857, 48.050024, 598.75],
          [11.433196, 48.049470, 599.75],
          [11.432791, 48.049143, 600.0],
          [11.432646, 48.049025, 600.0],
          [11.432055, 48.048547, 600.0],
          [11.425839, 48.043442, 603.0],
          [11.425612, 48.043256, 603.0],
          [11.425236, 48.042947, 603.0],
          [11.423796, 48.041800, 603.5],
          [11.421225, 48.039651, 603.5],
          [11.418463, 48.037398, 604.0],
          [11.420223, 48.036528, 608.0],
          [11.423953, 48.034412, 615.0],
          [11.425292, 48.033658, 613.0],
          [11.427265, 48.032571, 610.25],
          [11.426177, 48.031629, 613.0],
          [11.425843, 48.031311, 614.0],
          [11.425507, 48.030945, 614.0],
          [11.425201, 48.030550, 615.0],
          [11.424950, 48.030095, 616.0],
          [11.424818, 48.029843, 616.0],
          [11.424694, 48.029547, 616.0],
          [11.424498, 48.029054, 617.0],
          [11.424240, 48.028410, 617.75],
          [11.424015, 48.027945, 618.0],
          [11.423758, 48.027494, 619.0],
          [11.423322, 48.026844, 620.25],
          [11.423241, 48.026864, 620.5],
          [11.422950, 48.026491, 621.0],
          [11.422738, 48.026301, 622.0],
          [11.421324, 48.025356, 623.5],
          [11.420870, 48.025025, 624.0],
          [11.420262, 48.024542, 624.5],
          [11.419691, 48.024023, 625.5],
          [11.418869, 48.023194, 627.5],
          [11.417353, 48.021639, 631.0],
          [11.416920, 48.021219, 633.25],
          [11.416482, 48.020772, 634.75],
          [11.416018, 48.020419, 636.0],
          [11.414076, 48.018751, 635.0],
          [11.412709, 48.017583, 635.0],
          [11.411442, 48.016465, 638.5],
          [11.409422, 48.014671, 645.25],
          [11.408819, 48.014114, 647.5],
          [11.408250, 48.013760, 646.25],
          [11.407746, 48.013448, 645.25],
          [11.407605, 48.013322, 644.75],
          [11.407172, 48.012871, 642.0],
          [11.406949, 48.012647, 640.0],
          [11.405868, 48.011938, 636.75],
          [11.405769, 48.011869, 636.75],
          [11.405576, 48.011711, 636.75],
          [11.405027, 48.010830, 639.75],
          [11.404785, 48.010445, 639.25],
          [11.404576, 48.010234, 639.5],
          [11.404382, 48.010069, 639.75],
          [11.404189, 48.009929, 640.0],
          [11.402891, 48.009125, 639.75],
          [11.400757, 48.007828, 638.25],
          [11.399517, 48.007194, 636.25],
          [11.398619, 48.006805, 637.0],
          [11.397421, 48.006320, 636.5],
          [11.397271, 48.006231, 636.25],
          [11.397128, 48.006133, 636.25],
          [11.397011, 48.006026, 636.5],
          [11.396911, 48.005911, 635.25],
          [11.396842, 48.005786, 635.75],
          [11.396796, 48.005695, 636.75],
          [11.396643, 48.005311, 634.5],
          [11.396519, 48.005146, 635.5],
          [11.396419, 48.005041, 634.75],
          [11.396307, 48.004952, 634.5],
          [11.396186, 48.004875, 635.25],
          [11.396089, 48.004820, 635.25],
          [11.395978, 48.004773, 635.25],
          [11.395813, 48.004717, 635.0],
          [11.395648, 48.004673, 635.5],
          [11.394664, 48.004458, 637.0],
          [11.393246, 48.004211, 638.0],
          [11.391217, 48.003923, 638.25],
          [11.388901, 48.003706, 635.0],
          [11.388225, 48.003620, 632.75],
          [11.387305, 48.003565, 629.0],
          [11.386812, 48.003482, 628.5],
          [11.386526, 48.003460, 628.0],
          [11.386207, 48.003449, 628.0],
          [11.385660, 48.003476, 628.5],
          [11.384968, 48.003466, 629.75],
          [11.384108, 48.003465, 632.5],
          [11.383910, 48.003445, 632.5],
          [11.383718, 48.003378, 631.0],
          [11.383312, 48.003313, 631.25],
          [11.383214, 48.003313, 631.75],
          [11.382816, 48.003225, 633.5],
          [11.382388, 48.003104, 633.25],
          [11.381927, 48.002940, 633.75],
          [11.381375, 48.002711, 633.5],
          [11.381175, 48.002594, 633.0],
          [11.381032, 48.002497, 632.5],
          [11.380878, 48.002414, 632.25],
          [11.380738, 48.002357, 632.5],
          [11.379810, 48.001772, 632.0],
          [11.379329, 48.001410, 631.0],
          [11.378605, 48.000943, 631.25],
          [11.378096, 48.000681, 631.75],
          [11.377760, 48.000540, 632.0],
          [11.377439, 48.000490, 633.0],
          [11.377336, 48.000428, 633.0],
          [11.377288, 48.000348, 632.5],
          [11.377245, 48.000216, 632.25],
          [11.377180, 48.000136, 632.5],
          [11.377100, 48.000093, 632.75],
          [11.376980, 48.000077, 633.0],
          [11.376592, 48.000088, 633.0],
          [11.376002, 48.000071, 630.75],
          [11.375437, 48.000031, 629.5],
          [11.375093, 47.999997, 628.25],
          [11.374884, 47.999983, 627.75],
          [11.374410, 47.999963, 626.75],
          [11.374037, 47.999939, 625.5],
          [11.373834, 47.999910, 624.75],
          [11.373634, 47.999845, 624.5],
          [11.373281, 47.999639, 622.75],
          [11.372853, 47.999339, 620.0],
          [11.372677, 47.999260, 619.0],
          [11.372480, 47.999220, 618.25],
          [11.372377, 47.999222, 617.5],
          [11.372161, 47.999244, 616.5],
          [11.371862, 47.999327, 615.5],
          [11.371648, 47.999418, 614.5],
          [11.371181, 47.999685, 612.25],
          [11.370550, 48.000031, 610.0],
          [11.370348, 48.000120, 609.25],
          [11.370137, 48.000180, 608.5],
          [11.369980, 48.000210, 607.75],
          [11.369812, 48.000231, 607.25],
          [11.369494, 48.000151, 605.75],
          [11.369368, 48.000099, 605.0],
          [11.369223, 48.000040, 604.25],
          [11.368942, 47.999925, 604.0],
          [11.368659, 47.999796, 602.25],
          [11.368371, 47.999696, 602.0],
          [11.368130, 47.999632, 601.25],
          [11.368017, 47.999609, 600.75],
          [11.367552, 47.999535, 599.25],
          [11.367456, 47.999523, 599.25],
          [11.366946, 47.999458, 598.75],
          [11.366545, 47.999380, 599.0],
          [11.366243, 47.999299, 598.25],
          [11.365968, 47.999191, 597.25],
          [11.365413, 47.998950, 595.25],
          [11.365280, 47.998939, 594.75],
          [11.365145, 47.998961, 594.5],
          [11.364971, 47.999043, 594.25],
          [11.364944, 47.999057, 594.25],
          [11.364666, 47.999361, 593.25],
          [11.364637, 47.999393, 593.0],
          [11.364565, 47.999462, 592.75],
          [11.364382, 47.999560, 592.25],
          [11.364294, 47.999586, 591.75],
          [11.363681, 47.999759, 589.0],
          [11.363302, 47.999859, 588.25],
          [11.362871, 47.999942, 587.0],
          [11.362742, 47.999952, 586.75],
          [11.362679, 47.999957, 586.75],
          [11.362417, 47.999978, 586.75],
          [11.362045, 48.000008, 586.75],
          [11.361765, 48.000017, 586.75],
          [11.361631, 48.000021, 586.75],
          [11.361423, 48.000028, 586.75],
          [11.361010, 48.000020, 585.75],
          [11.360094, 48.000016, 585.75],
          [11.359607, 48.000042, 586.0],
          [11.359200, 48.000071, 586.0],
          [11.359072, 48.000086, 586.0],
          [11.358976, 48.000099, 586.0],
          [11.359005, 48.000266, 586.0],
          [11.358934, 48.000381, 586.25],
          [11.358780, 48.000495, 586.75],
          [11.358486, 48.000573, 586.5],
          [11.357499, 48.000574, 586.75],
          [11.357254, 48.000568, 586.75],
          [11.357175, 48.000561, 586.75],
          [11.356720, 48.000545, 585.75],
          [11.355312, 48.000525, 585.0],
          [11.355185, 48.000518, 585.0],
          [11.354808, 48.000506, 585.0],
          [11.354396, 48.000485, 585.0],
          [11.353696, 48.000461, 585.25],
          [11.353568, 48.000414, 585.25],
          [11.353508, 48.000407, 585.25],
          [11.352836, 48.000351, 585.75],
          [11.352376, 48.000340, 585.0],
          [11.352034, 48.000354, 585.75],
          [11.351511, 48.000400, 585.75],
          [11.351370, 48.000378, 585.75],
          [11.351265, 48.000365, 585.5],
          [11.351004, 48.000389, 585.5],
          [11.350893, 48.000431, 585.75],
          [11.349034, 48.000460, 587.0],
          [11.348418, 48.000479, 587.0],
          [11.347954, 48.000522, 587.25],
          [11.347619, 48.000546, 588.5],
          [11.347604, 48.000546, 588.5],
          [11.347399, 48.000561, 588.25],
          [11.347237, 48.000573, 587.0],
          [11.347083, 48.000591, 587.5],
          [11.346791, 48.000635, 588.0],
          [11.346323, 48.000652, 589.0],
          [11.345800, 48.000632, 588.75],
          [11.345823, 48.000517, 588.75],
          [11.345810, 48.000422, 588.75],
          [11.345805, 48.000376, 588.75],
          [11.345741, 47.999922, 588.5],
          [11.345736, 47.999891, 588.5],
          [11.345679, 47.999479, 588.0],
          [11.345542, 47.998630, 587.0],
          [11.344720, 47.998677, 588.0],
          [11.343921, 47.998732, 588.0],
          [11.342949, 47.998911, 589.0],
          [11.342497, 47.998995, 589.25],
          [11.342170, 47.999055, 589.75],
          [11.341887, 47.999158, 591.25],
          [11.341475, 47.998895, 592.0],
          [11.341353, 47.998813, 591.75],
          [11.341188, 47.998710, 592.75],
          [11.341125, 47.998667, 593.0],
          [11.340986, 47.998687, 594.25],
          [11.340717, 47.998809, 598.0],
          [11.340649, 47.998843, 600.5]
        ]
      }
    }
  ]
}
